<?xml version="1.0" encoding="UTF-8"?>
<!-- Created with BasicAirData GPS Logger for Android - ver. 3.3.0 -->
<!-- Track 61 = 666 TrackPoints + 0 Placemarks -->

<!-- Track Statistics (based on Total Time | Time in Movement): -->
<!--  Distance = 7.44 km -->
<!--  Duration = 11:07 | 07:39 -->
<!--  Altitude Gap = 42 m -->
<!--  Max Speed = 101 km/h -->
<!--  Avg Speed = 40.2 | 58.4 km/h -->
<!--  Direction = W -->
<!--  Activity = car -->
<!--  Altitudes = Raw -->

<gpx version="1.0"
     creator="BasicAirData GPS Logger 3.3.0"
     xmlns="http://www.topografix.com/GPX/1/0"
     xmlns:xsi="http://www.w3.org/2001/XMLSchema-instance"
     xsi:schemaLocation="http://www.topografix.com/GPX/1/0 http://www.topografix.com/GPX/1/0/gpx.xsd">
<name>GPS Logger 20260928-114240</name>
<time>2026-09-28T18:27:34Z</time>
<keywords>car</keywords>
<bounds minlat="38.66844319" minlon="34.73625918" maxlat="38.67956838" maxlon="34.81451882" />

<trk>
 <name>Track 20260928-114240</name>
 <trkseg>
  <trkpt lat="38.66844319" lon="34.81451882"><ele>1125.032</ele><time>2026-09-28T08:42:40Z</time><speed>24.630</speed><sat>23</sat></trkpt>
  <trkpt lat="38.66853874" lon="34.81426479"><ele>1124.144</ele><time>2026-09-28T08:42:41Z</time><speed>24.680</speed><sat>25</sat></trkpt>
  <trkpt lat="38.66863544" lon="34.81400290"><ele>1123.876</ele><time>2026-09-28T08:42:42Z</time><speed>25.090</speed><sat>25</sat></trkpt>
  <trkpt lat="38.66874512" lon="34.81373873"><ele>1124.394</ele><time>2026-09-28T08:42:43Z</time><speed>25.280</speed><sat>25</sat></trkpt>
  <trkpt lat="38.66885160" lon="34.81348069"><ele>1121.005</ele><time>2026-09-28T08:42:44Z</time><speed>25.810</speed><sat>25</sat></trkpt>
  <trkpt lat="38.66894912" lon="34.81322095"><ele>1120.291</ele><time>2026-09-28T08:42:45Z</time><speed>26.130</speed><sat>28</sat></trkpt>
  <trkpt lat="38.66906480" lon="34.81294928"><ele>1119.669</ele><time>2026-09-28T08:42:46Z</time><speed>25.860</speed><sat>34</sat></trkpt>
  <trkpt lat="38.66917327" lon="34.81268094"><ele>1119.312</ele><time>2026-09-28T08:42:47Z</time><speed>26.110</speed><sat>34</sat></trkpt>
  <trkpt lat="38.66928173" lon="34.81241537"><ele>1118.079</ele><time>2026-09-28T08:42:48Z</time><speed>26.260</speed><sat>34</sat></trkpt>
  <trkpt lat="38.66939161" lon="34.81215067"><ele>1116.856</ele><time>2026-09-28T08:42:49Z</time><speed>26.170</speed><sat>35</sat></trkpt>
  <trkpt lat="38.66950589" lon="34.81188326"><ele>1114.930</ele><time>2026-09-28T08:42:50Z</time><speed>26.190</speed><sat>35</sat></trkpt>
  <trkpt lat="38.66961631" lon="34.81161849"><ele>1114.190</ele><time>2026-09-28T08:42:51Z</time><speed>26.200</speed><sat>35</sat></trkpt>
  <trkpt lat="38.66972124" lon="34.81134733"><ele>1112.845</ele><time>2026-09-28T08:42:52Z</time><speed>26.190</speed><sat>36</sat></trkpt>
  <trkpt lat="38.66982545" lon="34.81107183"><ele>1112.437</ele><time>2026-09-28T08:42:53Z</time><speed>26.400</speed><sat>36</sat></trkpt>
  <trkpt lat="38.66991300" lon="34.81080002"><ele>1110.939</ele><time>2026-09-28T08:42:54Z</time><speed>26.420</speed><sat>36</sat></trkpt>
  <trkpt lat="38.66999892" lon="34.81051520"><ele>1109.053</ele><time>2026-09-28T08:42:55Z</time><speed>26.540</speed><sat>36</sat></trkpt>
  <trkpt lat="38.67007623" lon="34.81022535"><ele>1107.399</ele><time>2026-09-28T08:42:56Z</time><speed>26.670</speed><sat>37</sat></trkpt>
  <trkpt lat="38.67014925" lon="34.80993124"><ele>1105.988</ele><time>2026-09-28T08:42:57Z</time><speed>26.770</speed><sat>37</sat></trkpt>
  <trkpt lat="38.67021329" lon="34.80963307"><ele>1104.576</ele><time>2026-09-28T08:42:58Z</time><speed>26.830</speed><sat>36</sat></trkpt>
  <trkpt lat="38.67026591" lon="34.80933394"><ele>1103.342</ele><time>2026-09-28T08:42:59Z</time><speed>26.830</speed><sat>36</sat></trkpt>
  <trkpt lat="38.67031003" lon="34.80902909"><ele>1103.016</ele><time>2026-09-28T08:43:00Z</time><speed>27.030</speed><sat>36</sat></trkpt>
  <trkpt lat="38.67034825" lon="34.80871492"><ele>1102.941</ele><time>2026-09-28T08:43:01Z</time><speed>27.680</speed><sat>36</sat></trkpt>
  <trkpt lat="38.67038326" lon="34.80839935"><ele>1103.047</ele><time>2026-09-28T08:43:02Z</time><speed>27.930</speed><sat>35</sat></trkpt>
  <trkpt lat="38.67040897" lon="34.80808411"><ele>1103.097</ele><time>2026-09-28T08:43:03Z</time><speed>28.040</speed><sat>36</sat></trkpt>
  <trkpt lat="38.67041180" lon="34.80780551"><ele>1101.174</ele><time>2026-09-28T08:43:04Z</time><speed>26.420</speed><sat>36</sat></trkpt>
  <trkpt lat="38.67042993" lon="34.80750993"><ele>1100.669</ele><time>2026-09-28T08:43:05Z</time><speed>26.220</speed><sat>34</sat></trkpt>
  <trkpt lat="38.67045094" lon="34.80721545"><ele>1100.548</ele><time>2026-09-28T08:43:06Z</time><speed>25.960</speed><sat>34</sat></trkpt>
  <trkpt lat="38.67047165" lon="34.80692577"><ele>1100.606</ele><time>2026-09-28T08:43:07Z</time><speed>25.550</speed><sat>33</sat></trkpt>
  <trkpt lat="38.67050032" lon="34.80664317"><ele>1101.218</ele><time>2026-09-28T08:43:08Z</time><speed>25.060</speed><sat>32</sat></trkpt>
  <trkpt lat="38.67053567" lon="34.80637017"><ele>1102.370</ele><time>2026-09-28T08:43:09Z</time><speed>24.380</speed><sat>30</sat></trkpt>
  <trkpt lat="38.67057769" lon="34.80609872"><ele>1103.668</ele><time>2026-09-28T08:43:10Z</time><speed>23.870</speed><sat>30</sat></trkpt>
  <trkpt lat="38.67063053" lon="34.80583171"><ele>1105.071</ele><time>2026-09-28T08:43:11Z</time><speed>23.590</speed><sat>30</sat></trkpt>
  <trkpt lat="38.67069928" lon="34.80557473"><ele>1105.585</ele><time>2026-09-28T08:43:12Z</time><speed>23.450</speed><sat>32</sat></trkpt>
  <trkpt lat="38.67078117" lon="34.80532514"><ele>1106.052</ele><time>2026-09-28T08:43:13Z</time><speed>23.410</speed><sat>32</sat></trkpt>
  <trkpt lat="38.67086771" lon="34.80507556"><ele>1106.414</ele><time>2026-09-28T08:43:14Z</time><speed>23.460</speed><sat>32</sat></trkpt>
  <trkpt lat="38.67095340" lon="34.80482963"><ele>1105.843</ele><time>2026-09-28T08:43:15Z</time><speed>23.550</speed><sat>32</sat></trkpt>
  <trkpt lat="38.67103878" lon="34.80457968"><ele>1105.699</ele><time>2026-09-28T08:43:16Z</time><speed>23.570</speed><sat>33</sat></trkpt>
  <trkpt lat="38.67112014" lon="34.80432650"><ele>1105.538</ele><time>2026-09-28T08:43:17Z</time><speed>23.630</speed><sat>33</sat></trkpt>
  <trkpt lat="38.67120242" lon="34.80407418"><ele>1105.684</ele><time>2026-09-28T08:43:18Z</time><speed>23.660</speed><sat>33</sat></trkpt>
  <trkpt lat="38.67128346" lon="34.80382010"><ele>1105.192</ele><time>2026-09-28T08:43:19Z</time><speed>23.750</speed><sat>35</sat></trkpt>
  <trkpt lat="38.67136259" lon="34.80356924"><ele>1105.259</ele><time>2026-09-28T08:43:20Z</time><speed>23.780</speed><sat>35</sat></trkpt>
  <trkpt lat="38.67144417" lon="34.80331514"><ele>1105.515</ele><time>2026-09-28T08:43:21Z</time><speed>24.150</speed><sat>35</sat></trkpt>
  <trkpt lat="38.67152573" lon="34.80305678"><ele>1105.593</ele><time>2026-09-28T08:43:22Z</time><speed>24.250</speed><sat>35</sat></trkpt>
  <trkpt lat="38.67160812" lon="34.80280048"><ele>1106.036</ele><time>2026-09-28T08:43:23Z</time><speed>24.220</speed><sat>36</sat></trkpt>
  <trkpt lat="38.67169324" lon="34.80254445"><ele>1106.218</ele><time>2026-09-28T08:43:24Z</time><speed>24.180</speed><sat>37</sat></trkpt>
  <trkpt lat="38.67177875" lon="34.80229042"><ele>1106.355</ele><time>2026-09-28T08:43:25Z</time><speed>24.070</speed><sat>38</sat></trkpt>
  <trkpt lat="38.67186212" lon="34.80203515"><ele>1106.181</ele><time>2026-09-28T08:43:26Z</time><speed>23.920</speed><sat>38</sat></trkpt>
  <trkpt lat="38.67194184" lon="34.80177813"><ele>1106.351</ele><time>2026-09-28T08:43:27Z</time><speed>23.930</speed><sat>37</sat></trkpt>
  <trkpt lat="38.67201588" lon="34.80152110"><ele>1106.524</ele><time>2026-09-28T08:43:28Z</time><speed>23.970</speed><sat>37</sat></trkpt>
  <trkpt lat="38.67208862" lon="34.80125777"><ele>1106.531</ele><time>2026-09-28T08:43:29Z</time><speed>24.180</speed><sat>36</sat></trkpt>
  <trkpt lat="38.67215577" lon="34.80099272"><ele>1106.443</ele><time>2026-09-28T08:43:30Z</time><speed>24.220</speed><sat>37</sat></trkpt>
  <trkpt lat="38.67221662" lon="34.80072482"><ele>1106.038</ele><time>2026-09-28T08:43:31Z</time><speed>24.160</speed><sat>37</sat></trkpt>
  <trkpt lat="38.67228198" lon="34.80046040"><ele>1106.154</ele><time>2026-09-28T08:43:32Z</time><speed>24.110</speed><sat>37</sat></trkpt>
  <trkpt lat="38.67234444" lon="34.80019417"><ele>1106.202</ele><time>2026-09-28T08:43:33Z</time><speed>24.090</speed><sat>35</sat></trkpt>
  <trkpt lat="38.67240633" lon="34.79993220"><ele>1105.824</ele><time>2026-09-28T08:43:34Z</time><speed>23.930</speed><sat>34</sat></trkpt>
  <trkpt lat="38.67247095" lon="34.79967045"><ele>1105.755</ele><time>2026-09-28T08:43:35Z</time><speed>23.770</speed><sat>32</sat></trkpt>
  <trkpt lat="38.67253838" lon="34.79940937"><ele>1105.513</ele><time>2026-09-28T08:43:36Z</time><speed>23.500</speed><sat>32</sat></trkpt>
  <trkpt lat="38.67260284" lon="34.79915348"><ele>1105.276</ele><time>2026-09-28T08:43:37Z</time><speed>23.230</speed><sat>34</sat></trkpt>
  <trkpt lat="38.67266577" lon="34.79889855"><ele>1105.303</ele><time>2026-09-28T08:43:38Z</time><speed>23.120</speed><sat>35</sat></trkpt>
  <trkpt lat="38.67273020" lon="34.79864549"><ele>1104.969</ele><time>2026-09-28T08:43:39Z</time><speed>22.990</speed><sat>37</sat></trkpt>
  <trkpt lat="38.67279064" lon="34.79839663"><ele>1104.715</ele><time>2026-09-28T08:43:40Z</time><speed>22.670</speed><sat>37</sat></trkpt>
  <trkpt lat="38.67285334" lon="34.79815290"><ele>1104.464</ele><time>2026-09-28T08:43:41Z</time><speed>22.330</speed><sat>37</sat></trkpt>
  <trkpt lat="38.67291644" lon="34.79791390"><ele>1104.317</ele><time>2026-09-28T08:43:42Z</time><speed>22.170</speed><sat>37</sat></trkpt>
  <trkpt lat="38.67298424" lon="34.79767737"><ele>1104.187</ele><time>2026-09-28T08:43:43Z</time><speed>21.960</speed><sat>36</sat></trkpt>
  <trkpt lat="38.67305837" lon="34.79744681"><ele>1104.097</ele><time>2026-09-28T08:43:44Z</time><speed>21.710</speed><sat>36</sat></trkpt>
  <trkpt lat="38.67314253" lon="34.79722377"><ele>1103.678</ele><time>2026-09-28T08:43:45Z</time><speed>21.500</speed><sat>37</sat></trkpt>
  <trkpt lat="38.67323401" lon="34.79700558"><ele>1103.971</ele><time>2026-09-28T08:43:46Z</time><speed>21.400</speed><sat>38</sat></trkpt>
  <trkpt lat="38.67333650" lon="34.79680027"><ele>1104.080</ele><time>2026-09-28T08:43:47Z</time><speed>21.220</speed><sat>38</sat></trkpt>
  <trkpt lat="38.67345344" lon="34.79661247"><ele>1104.051</ele><time>2026-09-28T08:43:48Z</time><speed>21.030</speed><sat>38</sat></trkpt>
  <trkpt lat="38.67358663" lon="34.79644401"><ele>1103.923</ele><time>2026-09-28T08:43:49Z</time><speed>20.870</speed><sat>38</sat></trkpt>
  <trkpt lat="38.67373339" lon="34.79629770"><ele>1103.665</ele><time>2026-09-28T08:43:50Z</time><speed>20.890</speed><sat>39</sat></trkpt>
  <trkpt lat="38.67388603" lon="34.79615988"><ele>1103.553</ele><time>2026-09-28T08:43:51Z</time><speed>20.870</speed><sat>39</sat></trkpt>
  <trkpt lat="38.67403627" lon="34.79601557"><ele>1103.000</ele><time>2026-09-28T08:43:52Z</time><speed>20.860</speed><sat>39</sat></trkpt>
  <trkpt lat="38.67418163" lon="34.79586361"><ele>1102.611</ele><time>2026-09-28T08:43:53Z</time><speed>20.870</speed><sat>39</sat></trkpt>
  <trkpt lat="38.67431736" lon="34.79569765"><ele>1102.276</ele><time>2026-09-28T08:43:54Z</time><speed>21.040</speed><sat>39</sat></trkpt>
  <trkpt lat="38.67444496" lon="34.79551820"><ele>1101.934</ele><time>2026-09-28T08:43:55Z</time><speed>21.130</speed><sat>38</sat></trkpt>
  <trkpt lat="38.67456395" lon="34.79532729"><ele>1101.397</ele><time>2026-09-28T08:43:56Z</time><speed>21.270</speed><sat>38</sat></trkpt>
  <trkpt lat="38.67467618" lon="34.79512871"><ele>1100.594</ele><time>2026-09-28T08:43:57Z</time><speed>21.300</speed><sat>35</sat></trkpt>
  <trkpt lat="38.67478580" lon="34.79492820"><ele>1099.872</ele><time>2026-09-28T08:43:58Z</time><speed>21.280</speed><sat>36</sat></trkpt>
  <trkpt lat="38.67490422" lon="34.79473431"><ele>1098.872</ele><time>2026-09-28T08:43:59Z</time><speed>21.430</speed><sat>36</sat></trkpt>
  <trkpt lat="38.67503011" lon="34.79454171"><ele>1098.010</ele><time>2026-09-28T08:44:00Z</time><speed>21.820</speed><sat>37</sat></trkpt>
  <trkpt lat="38.67515891" lon="34.79435308"><ele>1097.396</ele><time>2026-09-28T08:44:01Z</time><speed>21.760</speed><sat>37</sat></trkpt>
  <trkpt lat="38.67528913" lon="34.79416566"><ele>1097.066</ele><time>2026-09-28T08:44:02Z</time><speed>21.680</speed><sat>38</sat></trkpt>
  <trkpt lat="38.67541503" lon="34.79397760"><ele>1096.952</ele><time>2026-09-28T08:44:03Z</time><speed>21.370</speed><sat>38</sat></trkpt>
  <trkpt lat="38.67554637" lon="34.79379982"><ele>1096.424</ele><time>2026-09-28T08:44:04Z</time><speed>21.420</speed><sat>38</sat></trkpt>
  <trkpt lat="38.67567697" lon="34.79362135"><ele>1096.176</ele><time>2026-09-28T08:44:05Z</time><speed>21.330</speed><sat>39</sat></trkpt>
  <trkpt lat="38.67581116" lon="34.79344671"><ele>1095.966</ele><time>2026-09-28T08:44:06Z</time><speed>21.110</speed><sat>38</sat></trkpt>
  <trkpt lat="38.67595175" lon="34.79325973"><ele>1095.233</ele><time>2026-09-28T08:44:07Z</time><speed>23.080</speed><sat>39</sat></trkpt>
  <trkpt lat="38.67608376" lon="34.79306946"><ele>1094.747</ele><time>2026-09-28T08:44:08Z</time><speed>22.130</speed><sat>39</sat></trkpt>
  <trkpt lat="38.67620503" lon="34.79290913"><ele>1094.690</ele><time>2026-09-28T08:44:09Z</time><speed>20.010</speed><sat>39</sat></trkpt>
  <trkpt lat="38.67627842" lon="34.79283165"><ele>1093.732</ele><time>2026-09-28T08:44:10Z</time><speed>12.920</speed><sat>38</sat></trkpt>
  <trkpt lat="38.67640880" lon="34.79265429"><ele>1093.832</ele><time>2026-09-28T08:44:11Z</time><speed>17.790</speed><sat>37</sat></trkpt>
  <trkpt lat="38.67652442" lon="34.79249448"><ele>1093.960</ele><time>2026-09-28T08:44:12Z</time><speed>17.690</speed><sat>37</sat></trkpt>
  <trkpt lat="38.67661408" lon="34.79226429"><ele>1092.346</ele><time>2026-09-28T08:44:13Z</time><speed>17.750</speed><sat>37</sat></trkpt>
  <trkpt lat="38.67673035" lon="34.79208330"><ele>1093.156</ele><time>2026-09-28T08:44:14Z</time><speed>17.600</speed><sat>37</sat></trkpt>
  <trkpt lat="38.67683160" lon="34.79193714"><ele>1091.693</ele><time>2026-09-28T08:44:15Z</time><speed>16.720</speed><sat>33</sat></trkpt>
  <trkpt lat="38.67695793" lon="34.79176296"><ele>1091.442</ele><time>2026-09-28T08:44:16Z</time><speed>17.540</speed><sat>28</sat></trkpt>
  <trkpt lat="38.67716120" lon="34.79154904"><ele>1092.996</ele><time>2026-09-28T08:44:17Z</time><speed>23.520</speed><sat>28</sat></trkpt>
  <trkpt lat="38.67734932" lon="34.79135785"><ele>1093.426</ele><time>2026-09-28T08:44:18Z</time><speed>21.370</speed><sat>27</sat></trkpt>
  <trkpt lat="38.67748495" lon="34.79118283"><ele>1092.565</ele><time>2026-09-28T08:44:19Z</time><speed>20.710</speed><sat>28</sat></trkpt>
  <trkpt lat="38.67761818" lon="34.79100364"><ele>1094.072</ele><time>2026-09-28T08:44:20Z</time><speed>20.740</speed><sat>28</sat></trkpt>
  <trkpt lat="38.67777920" lon="34.79082784"><ele>1095.388</ele><time>2026-09-28T08:44:21Z</time><speed>22.600</speed><sat>28</sat></trkpt>
  <trkpt lat="38.67792109" lon="34.79065221"><ele>1095.428</ele><time>2026-09-28T08:44:22Z</time><speed>22.570</speed><sat>28</sat></trkpt>
  <trkpt lat="38.67805489" lon="34.79048343"><ele>1097.461</ele><time>2026-09-28T08:44:23Z</time><speed>21.760</speed><sat>28</sat></trkpt>
  <trkpt lat="38.67819203" lon="34.79032153"><ele>1099.089</ele><time>2026-09-28T08:44:24Z</time><speed>21.110</speed><sat>29</sat></trkpt>
  <trkpt lat="38.67833472" lon="34.79010900"><ele>1099.643</ele><time>2026-09-28T08:44:25Z</time><speed>24.040</speed><sat>29</sat></trkpt>
  <trkpt lat="38.67847419" lon="34.78997100"><ele>1101.340</ele><time>2026-09-28T08:44:26Z</time><speed>21.780</speed><sat>29</sat></trkpt>
  <trkpt lat="38.67853971" lon="34.78985840"><ele>1099.534</ele><time>2026-09-28T08:44:27Z</time><speed>16.130</speed><sat>29</sat></trkpt>
  <trkpt lat="38.67864818" lon="34.78971137"><ele>1099.872</ele><time>2026-09-28T08:44:28Z</time><speed>17.270</speed><sat>28</sat></trkpt>
  <trkpt lat="38.67874939" lon="34.78957056"><ele>1099.802</ele><time>2026-09-28T08:44:29Z</time><speed>16.460</speed><sat>28</sat></trkpt>
  <trkpt lat="38.67884082" lon="34.78943658"><ele>1099.967</ele><time>2026-09-28T08:44:30Z</time><speed>15.200</speed><sat>28</sat></trkpt>
  <trkpt lat="38.67893615" lon="34.78930724"><ele>1099.860</ele><time>2026-09-28T08:44:31Z</time><speed>15.320</speed><sat>28</sat></trkpt>
  <trkpt lat="38.67902116" lon="34.78921392"><ele>1099.861</ele><time>2026-09-28T08:44:32Z</time><speed>12.830</speed><sat>28</sat></trkpt>
  <trkpt lat="38.67909531" lon="34.78913892"><ele>1100.710</ele><time>2026-09-28T08:44:33Z</time><speed>10.330</speed><sat>29</sat></trkpt>
  <trkpt lat="38.67913697" lon="34.78910486"><ele>1100.163</ele><time>2026-09-28T08:44:34Z</time><speed>7.530</speed><sat>30</sat></trkpt>
  <trkpt lat="38.67916607" lon="34.78907156"><ele>1099.742</ele><time>2026-09-28T08:44:35Z</time><speed>5.510</speed><sat>33</sat></trkpt>
  <trkpt lat="38.67920350" lon="34.78903724"><ele>1099.351</ele><time>2026-09-28T08:44:36Z</time><speed>4.510</speed><sat>35</sat></trkpt>
  <trkpt lat="38.67923011" lon="34.78901491"><ele>1099.249</ele><time>2026-09-28T08:44:37Z</time><speed>3.180</speed><sat>35</sat></trkpt>
  <trkpt lat="38.67925132" lon="34.78899493"><ele>1099.421</ele><time>2026-09-28T08:44:38Z</time><speed>2.730</speed><sat>35</sat></trkpt>
  <trkpt lat="38.67927584" lon="34.78897106"><ele>1099.486</ele><time>2026-09-28T08:44:39Z</time><speed>3.260</speed><sat>35</sat></trkpt>
  <trkpt lat="38.67930715" lon="34.78894032"><ele>1099.363</ele><time>2026-09-28T08:44:40Z</time><speed>5.190</speed><sat>36</sat></trkpt>
  <trkpt lat="38.67935179" lon="34.78890346"><ele>1099.224</ele><time>2026-09-28T08:44:41Z</time><speed>6.520</speed><sat>37</sat></trkpt>
  <trkpt lat="38.67939849" lon="34.78886705"><ele>1099.005</ele><time>2026-09-28T08:44:42Z</time><speed>6.600</speed><sat>37</sat></trkpt>
  <trkpt lat="38.67943535" lon="34.78883815"><ele>1098.802</ele><time>2026-09-28T08:44:43Z</time><speed>4.250</speed><sat>38</sat></trkpt>
  <trkpt lat="38.67946738" lon="34.78881557"><ele>1098.896</ele><time>2026-09-28T08:44:44Z</time><speed>3.520</speed><sat>38</sat></trkpt>
  <trkpt lat="38.67949797" lon="34.78879050"><ele>1098.602</ele><time>2026-09-28T08:44:45Z</time><speed>3.720</speed><sat>38</sat></trkpt>
  <trkpt lat="38.67952672" lon="34.78876218"><ele>1098.741</ele><time>2026-09-28T08:44:46Z</time><speed>4.200</speed><sat>38</sat></trkpt>
  <trkpt lat="38.67954885" lon="34.78871648"><ele>1098.574</ele><time>2026-09-28T08:44:47Z</time><speed>5.110</speed><sat>37</sat></trkpt>
  <trkpt lat="38.67956079" lon="34.78865287"><ele>1098.938</ele><time>2026-09-28T08:44:48Z</time><speed>6.150</speed><sat>35</sat></trkpt>
  <trkpt lat="38.67956838" lon="34.78856790"><ele>1098.714</ele><time>2026-09-28T08:44:49Z</time><speed>8.190</speed><sat>35</sat></trkpt>
  <trkpt lat="38.67952666" lon="34.78848721"><ele>1098.255</ele><time>2026-09-28T08:44:50Z</time><speed>8.690</speed><sat>35</sat></trkpt>
  <trkpt lat="38.67948508" lon="34.78839971"><ele>1098.380</ele><time>2026-09-28T08:44:51Z</time><speed>9.920</speed><sat>38</sat></trkpt>
  <trkpt lat="38.67944628" lon="34.78828628"><ele>1098.824</ele><time>2026-09-28T08:44:52Z</time><speed>11.030</speed><sat>38</sat></trkpt>
  <trkpt lat="38.67939916" lon="34.78818178"><ele>1098.247</ele><time>2026-09-28T08:44:53Z</time><speed>11.060</speed><sat>37</sat></trkpt>
  <trkpt lat="38.67934846" lon="34.78807522"><ele>1099.166</ele><time>2026-09-28T08:44:54Z</time><speed>10.990</speed><sat>38</sat></trkpt>
  <trkpt lat="38.67929767" lon="34.78795640"><ele>1098.787</ele><time>2026-09-28T08:44:55Z</time><speed>12.060</speed><sat>38</sat></trkpt>
  <trkpt lat="38.67924117" lon="34.78782910"><ele>1099.054</ele><time>2026-09-28T08:44:56Z</time><speed>13.050</speed><sat>38</sat></trkpt>
  <trkpt lat="38.67917824" lon="34.78769599"><ele>1099.002</ele><time>2026-09-28T08:44:57Z</time><speed>13.880</speed><sat>36</sat></trkpt>
  <trkpt lat="38.67912022" lon="34.78755883"><ele>1098.516</ele><time>2026-09-28T08:44:58Z</time><speed>14.780</speed><sat>36</sat></trkpt>
  <trkpt lat="38.67905843" lon="34.78741450"><ele>1098.933</ele><time>2026-09-28T08:44:59Z</time><speed>14.630</speed><sat>36</sat></trkpt>
  <trkpt lat="38.67899542" lon="34.78726998"><ele>1099.026</ele><time>2026-09-28T08:45:00Z</time><speed>14.410</speed><sat>36</sat></trkpt>
  <trkpt lat="38.67893178" lon="34.78711644"><ele>1099.115</ele><time>2026-09-28T08:45:01Z</time><speed>14.950</speed><sat>33</sat></trkpt>
  <trkpt lat="38.67886564" lon="34.78695902"><ele>1099.448</ele><time>2026-09-28T08:45:02Z</time><speed>15.370</speed><sat>31</sat></trkpt>
  <trkpt lat="38.67879977" lon="34.78679455"><ele>1099.995</ele><time>2026-09-28T08:45:03Z</time><speed>15.910</speed><sat>32</sat></trkpt>
  <trkpt lat="38.67873846" lon="34.78662012"><ele>1100.358</ele><time>2026-09-28T08:45:04Z</time><speed>16.500</speed><sat>32</sat></trkpt>
  <trkpt lat="38.67867914" lon="34.78643514"><ele>1100.039</ele><time>2026-09-28T08:45:05Z</time><speed>17.260</speed><sat>29</sat></trkpt>
  <trkpt lat="38.67863362" lon="34.78625025"><ele>1099.589</ele><time>2026-09-28T08:45:06Z</time><speed>17.010</speed><sat>30</sat></trkpt>
  <trkpt lat="38.67858932" lon="34.78605221"><ele>1099.927</ele><time>2026-09-28T08:45:07Z</time><speed>17.500</speed><sat>30</sat></trkpt>
  <trkpt lat="38.67851991" lon="34.78583455"><ele>1100.370</ele><time>2026-09-28T08:45:08Z</time><speed>18.950</speed><sat>32</sat></trkpt>
  <trkpt lat="38.67846673" lon="34.78561838"><ele>1100.767</ele><time>2026-09-28T08:45:09Z</time><speed>19.390</speed><sat>33</sat></trkpt>
  <trkpt lat="38.67842187" lon="34.78539797"><ele>1101.076</ele><time>2026-09-28T08:45:10Z</time><speed>19.790</speed><sat>33</sat></trkpt>
  <trkpt lat="38.67838708" lon="34.78517815"><ele>1101.159</ele><time>2026-09-28T08:45:11Z</time><speed>19.630</speed><sat>33</sat></trkpt>
  <trkpt lat="38.67835460" lon="34.78496002"><ele>1101.486</ele><time>2026-09-28T08:45:12Z</time><speed>19.590</speed><sat>32</sat></trkpt>
  <trkpt lat="38.67832757" lon="34.78473786"><ele>1102.507</ele><time>2026-09-28T08:45:13Z</time><speed>19.590</speed><sat>32</sat></trkpt>
  <trkpt lat="38.67830606" lon="34.78450877"><ele>1103.134</ele><time>2026-09-28T08:45:14Z</time><speed>19.900</speed><sat>28</sat></trkpt>
  <trkpt lat="38.67828812" lon="34.78427788"><ele>1103.574</ele><time>2026-09-28T08:45:15Z</time><speed>20.260</speed><sat>29</sat></trkpt>
  <trkpt lat="38.67828122" lon="34.78403976"><ele>1104.685</ele><time>2026-09-28T08:45:16Z</time><speed>20.730</speed><sat>30</sat></trkpt>
  <trkpt lat="38.67828050" lon="34.78378692"><ele>1104.376</ele><time>2026-09-28T08:45:17Z</time><speed>21.710</speed><sat>30</sat></trkpt>
  <trkpt lat="38.67828838" lon="34.78355311"><ele>1103.898</ele><time>2026-09-28T08:45:18Z</time><speed>21.240</speed><sat>30</sat></trkpt>
  <trkpt lat="38.67828945" lon="34.78331355"><ele>1103.792</ele><time>2026-09-28T08:45:19Z</time><speed>21.270</speed><sat>31</sat></trkpt>
  <trkpt lat="38.67828241" lon="34.78307542"><ele>1105.144</ele><time>2026-09-28T08:45:20Z</time><speed>21.030</speed><sat>30</sat></trkpt>
  <trkpt lat="38.67828363" lon="34.78282531"><ele>1105.327</ele><time>2026-09-28T08:45:21Z</time><speed>21.340</speed><sat>31</sat></trkpt>
  <trkpt lat="38.67828173" lon="34.78257681"><ele>1106.074</ele><time>2026-09-28T08:45:22Z</time><speed>21.540</speed><sat>31</sat></trkpt>
  <trkpt lat="38.67827935" lon="34.78232333"><ele>1106.692</ele><time>2026-09-28T08:45:23Z</time><speed>21.930</speed><sat>30</sat></trkpt>
  <trkpt lat="38.67827862" lon="34.78207024"><ele>1107.203</ele><time>2026-09-28T08:45:24Z</time><speed>21.980</speed><sat>30</sat></trkpt>
  <trkpt lat="38.67827792" lon="34.78181270"><ele>1107.737</ele><time>2026-09-28T08:45:25Z</time><speed>22.270</speed><sat>30</sat></trkpt>
  <trkpt lat="38.67827768" lon="34.78155185"><ele>1108.212</ele><time>2026-09-28T08:45:26Z</time><speed>22.560</speed><sat>29</sat></trkpt>
  <trkpt lat="38.67827682" lon="34.78129269"><ele>1108.789</ele><time>2026-09-28T08:45:27Z</time><speed>22.590</speed><sat>31</sat></trkpt>
  <trkpt lat="38.67827761" lon="34.78103020"><ele>1110.635</ele><time>2026-09-28T08:45:28Z</time><speed>22.790</speed><sat>31</sat></trkpt>
  <trkpt lat="38.67827926" lon="34.78076303"><ele>1112.576</ele><time>2026-09-28T08:45:29Z</time><speed>22.880</speed><sat>31</sat></trkpt>
  <trkpt lat="38.67827647" lon="34.78050017"><ele>1113.666</ele><time>2026-09-28T08:45:30Z</time><speed>22.860</speed><sat>29</sat></trkpt>
  <trkpt lat="38.67826807" lon="34.78023448"><ele>1114.577</ele><time>2026-09-28T08:45:31Z</time><speed>23.160</speed><sat>31</sat></trkpt>
  <trkpt lat="38.67825238" lon="34.77996845"><ele>1115.473</ele><time>2026-09-28T08:45:32Z</time><speed>23.180</speed><sat>31</sat></trkpt>
  <trkpt lat="38.67823236" lon="34.77969793"><ele>1116.007</ele><time>2026-09-28T08:45:33Z</time><speed>23.330</speed><sat>32</sat></trkpt>
  <trkpt lat="38.67820857" lon="34.77943959"><ele>1117.109</ele><time>2026-09-28T08:45:34Z</time><speed>23.430</speed><sat>33</sat></trkpt>
  <trkpt lat="38.67818014" lon="34.77916004"><ele>1117.738</ele><time>2026-09-28T08:45:35Z</time><speed>23.530</speed><sat>34</sat></trkpt>
  <trkpt lat="38.67814729" lon="34.77888411"><ele>1118.044</ele><time>2026-09-28T08:45:36Z</time><speed>23.710</speed><sat>34</sat></trkpt>
  <trkpt lat="38.67810702" lon="34.77862438"><ele>1118.741</ele><time>2026-09-28T08:45:37Z</time><speed>23.620</speed><sat>34</sat></trkpt>
  <trkpt lat="38.67806925" lon="34.77835147"><ele>1119.061</ele><time>2026-09-28T08:45:38Z</time><speed>24.130</speed><sat>37</sat></trkpt>
  <trkpt lat="38.67802554" lon="34.77808142"><ele>1119.681</ele><time>2026-09-28T08:45:39Z</time><speed>23.970</speed><sat>37</sat></trkpt>
  <trkpt lat="38.67798045" lon="34.77781133"><ele>1120.310</ele><time>2026-09-28T08:45:40Z</time><speed>23.950</speed><sat>37</sat></trkpt>
  <trkpt lat="38.67793800" lon="34.77754032"><ele>1120.908</ele><time>2026-09-28T08:45:41Z</time><speed>24.140</speed><sat>37</sat></trkpt>
  <trkpt lat="38.67789688" lon="34.77726721"><ele>1121.166</ele><time>2026-09-28T08:45:42Z</time><speed>24.120</speed><sat>35</sat></trkpt>
  <trkpt lat="38.67785395" lon="34.77699496"><ele>1121.665</ele><time>2026-09-28T08:45:43Z</time><speed>24.060</speed><sat>36</sat></trkpt>
  <trkpt lat="38.67781382" lon="34.77672094"><ele>1122.011</ele><time>2026-09-28T08:45:44Z</time><speed>24.310</speed><sat>33</sat></trkpt>
  <trkpt lat="38.67777207" lon="34.77644847"><ele>1122.317</ele><time>2026-09-28T08:45:45Z</time><speed>24.230</speed><sat>32</sat></trkpt>
  <trkpt lat="38.67772778" lon="34.77617303"><ele>1123.006</ele><time>2026-09-28T08:45:46Z</time><speed>24.360</speed><sat>32</sat></trkpt>
  <trkpt lat="38.67768358" lon="34.77589832"><ele>1123.561</ele><time>2026-09-28T08:45:47Z</time><speed>24.420</speed><sat>31</sat></trkpt>
  <trkpt lat="38.67763901" lon="34.77562332"><ele>1123.696</ele><time>2026-09-28T08:45:48Z</time><speed>24.180</speed><sat>30</sat></trkpt>
  <trkpt lat="38.67759577" lon="34.77535050"><ele>1124.426</ele><time>2026-09-28T08:45:49Z</time><speed>24.430</speed><sat>31</sat></trkpt>
  <trkpt lat="38.67755386" lon="34.77507545"><ele>1125.755</ele><time>2026-09-28T08:45:50Z</time><speed>24.390</speed><sat>32</sat></trkpt>
  <trkpt lat="38.67751251" lon="34.77479455"><ele>1126.910</ele><time>2026-09-28T08:45:51Z</time><speed>24.420</speed><sat>33</sat></trkpt>
  <trkpt lat="38.67746911" lon="34.77451334"><ele>1128.435</ele><time>2026-09-28T08:45:52Z</time><speed>24.430</speed><sat>34</sat></trkpt>
  <trkpt lat="38.67742703" lon="34.77423664"><ele>1129.147</ele><time>2026-09-28T08:45:53Z</time><speed>24.400</speed><sat>35</sat></trkpt>
  <trkpt lat="38.67738241" lon="34.77395991"><ele>1129.865</ele><time>2026-09-28T08:45:54Z</time><speed>24.390</speed><sat>36</sat></trkpt>
  <trkpt lat="38.67734071" lon="34.77368145"><ele>1130.594</ele><time>2026-09-28T08:45:55Z</time><speed>24.420</speed><sat>35</sat></trkpt>
  <trkpt lat="38.67729854" lon="34.77340482"><ele>1131.389</ele><time>2026-09-28T08:45:56Z</time><speed>24.500</speed><sat>35</sat></trkpt>
  <trkpt lat="38.67725740" lon="34.77312523"><ele>1132.122</ele><time>2026-09-28T08:45:57Z</time><speed>24.570</speed><sat>34</sat></trkpt>
  <trkpt lat="38.67721540" lon="34.77284607"><ele>1132.988</ele><time>2026-09-28T08:45:58Z</time><speed>24.620</speed><sat>35</sat></trkpt>
  <trkpt lat="38.67717323" lon="34.77256751"><ele>1133.532</ele><time>2026-09-28T08:45:59Z</time><speed>24.650</speed><sat>36</sat></trkpt>
  <trkpt lat="38.67713229" lon="34.77228687"><ele>1134.253</ele><time>2026-09-28T08:46:00Z</time><speed>24.680</speed><sat>36</sat></trkpt>
  <trkpt lat="38.67708915" lon="34.77200610"><ele>1135.012</ele><time>2026-09-28T08:46:01Z</time><speed>24.680</speed><sat>36</sat></trkpt>
  <trkpt lat="38.67704966" lon="34.77172507"><ele>1135.708</ele><time>2026-09-28T08:46:02Z</time><speed>24.760</speed><sat>36</sat></trkpt>
  <trkpt lat="38.67700895" lon="34.77144494"><ele>1136.399</ele><time>2026-09-28T08:46:03Z</time><speed>24.830</speed><sat>36</sat></trkpt>
  <trkpt lat="38.67697238" lon="34.77116271"><ele>1136.995</ele><time>2026-09-28T08:46:04Z</time><speed>24.830</speed><sat>35</sat></trkpt>
  <trkpt lat="38.67694381" lon="34.77087753"><ele>1137.421</ele><time>2026-09-28T08:46:05Z</time><speed>24.800</speed><sat>35</sat></trkpt>
  <trkpt lat="38.67692182" lon="34.77059231"><ele>1137.829</ele><time>2026-09-28T08:46:06Z</time><speed>24.850</speed><sat>36</sat></trkpt>
  <trkpt lat="38.67690696" lon="34.77030776"><ele>1138.298</ele><time>2026-09-28T08:46:07Z</time><speed>24.940</speed><sat>37</sat></trkpt>
  <trkpt lat="38.67689634" lon="34.77002269"><ele>1138.998</ele><time>2026-09-28T08:46:08Z</time><speed>24.960</speed><sat>36</sat></trkpt>
  <trkpt lat="38.67689099" lon="34.76973622"><ele>1139.616</ele><time>2026-09-28T08:46:09Z</time><speed>24.960</speed><sat>36</sat></trkpt>
  <trkpt lat="38.67688381" lon="34.76944863"><ele>1140.244</ele><time>2026-09-28T08:46:10Z</time><speed>25.040</speed><sat>35</sat></trkpt>
  <trkpt lat="38.67687521" lon="34.76915957"><ele>1140.853</ele><time>2026-09-28T08:46:11Z</time><speed>25.140</speed><sat>33</sat></trkpt>
  <trkpt lat="38.67686764" lon="34.76887101"><ele>1141.648</ele><time>2026-09-28T08:46:12Z</time><speed>25.190</speed><sat>32</sat></trkpt>
  <trkpt lat="38.67685880" lon="34.76858254"><ele>1142.607</ele><time>2026-09-28T08:46:13Z</time><speed>25.250</speed><sat>33</sat></trkpt>
  <trkpt lat="38.67685280" lon="34.76829041"><ele>1143.341</ele><time>2026-09-28T08:46:14Z</time><speed>25.350</speed><sat>32</sat></trkpt>
  <trkpt lat="38.67684365" lon="34.76799752"><ele>1143.583</ele><time>2026-09-28T08:46:15Z</time><speed>25.450</speed><sat>32</sat></trkpt>
  <trkpt lat="38.67683504" lon="34.76770697"><ele>1144.277</ele><time>2026-09-28T08:46:16Z</time><speed>25.300</speed><sat>33</sat></trkpt>
  <trkpt lat="38.67682785" lon="34.76741089"><ele>1145.264</ele><time>2026-09-28T08:46:17Z</time><speed>25.730</speed><sat>34</sat></trkpt>
  <trkpt lat="38.67681955" lon="34.76711826"><ele>1146.226</ele><time>2026-09-28T08:46:18Z</time><speed>25.460</speed><sat>34</sat></trkpt>
  <trkpt lat="38.67681262" lon="34.76682628"><ele>1147.395</ele><time>2026-09-28T08:46:19Z</time><speed>25.320</speed><sat>34</sat></trkpt>
  <trkpt lat="38.67680698" lon="34.76653434"><ele>1148.644</ele><time>2026-09-28T08:46:20Z</time><speed>25.240</speed><sat>34</sat></trkpt>
  <trkpt lat="38.67679668" lon="34.76624635"><ele>1149.962</ele><time>2026-09-28T08:46:21Z</time><speed>24.970</speed><sat>34</sat></trkpt>
  <trkpt lat="38.67678360" lon="34.76595972"><ele>1151.239</ele><time>2026-09-28T08:46:22Z</time><speed>24.840</speed><sat>36</sat></trkpt>
  <trkpt lat="38.67676788" lon="34.76567380"><ele>1152.173</ele><time>2026-09-28T08:46:23Z</time><speed>24.590</speed><sat>34</sat></trkpt>
  <trkpt lat="38.67674199" lon="34.76539276"><ele>1153.254</ele><time>2026-09-28T08:46:24Z</time><speed>24.460</speed><sat>32</sat></trkpt>
  <trkpt lat="38.67670833" lon="34.76511497"><ele>1154.223</ele><time>2026-09-28T08:46:25Z</time><speed>24.420</speed><sat>33</sat></trkpt>
  <trkpt lat="38.67666896" lon="34.76484093"><ele>1155.381</ele><time>2026-09-28T08:46:26Z</time><speed>24.210</speed><sat>34</sat></trkpt>
  <trkpt lat="38.67662515" lon="34.76456758"><ele>1156.412</ele><time>2026-09-28T08:46:27Z</time><speed>24.120</speed><sat>37</sat></trkpt>
  <trkpt lat="38.67657850" lon="34.76430048"><ele>1157.407</ele><time>2026-09-28T08:46:28Z</time><speed>23.880</speed><sat>37</sat></trkpt>
  <trkpt lat="38.67652576" lon="34.76403697"><ele>1158.537</ele><time>2026-09-28T08:46:29Z</time><speed>23.800</speed><sat>37</sat></trkpt>
  <trkpt lat="38.67646818" lon="34.76377549"><ele>1159.801</ele><time>2026-09-28T08:46:30Z</time><speed>23.690</speed><sat>36</sat></trkpt>
  <trkpt lat="38.67640536" lon="34.76351615"><ele>1161.018</ele><time>2026-09-28T08:46:31Z</time><speed>23.530</speed><sat>34</sat></trkpt>
  <trkpt lat="38.67633960" lon="34.76325814"><ele>1161.883</ele><time>2026-09-28T08:46:32Z</time><speed>23.360</speed><sat>34</sat></trkpt>
  <trkpt lat="38.67626974" lon="34.76300592"><ele>1162.983</ele><time>2026-09-28T08:46:33Z</time><speed>23.200</speed><sat>34</sat></trkpt>
  <trkpt lat="38.67619633" lon="34.76275629"><ele>1164.081</ele><time>2026-09-28T08:46:34Z</time><speed>22.980</speed><sat>37</sat></trkpt>
  <trkpt lat="38.67611859" lon="34.76251052"><ele>1165.087</ele><time>2026-09-28T08:46:35Z</time><speed>22.800</speed><sat>36</sat></trkpt>
  <trkpt lat="38.67603552" lon="34.76227200"><ele>1166.033</ele><time>2026-09-28T08:46:36Z</time><speed>22.580</speed><sat>36</sat></trkpt>
  <trkpt lat="38.67594816" lon="34.76204004"><ele>1166.925</ele><time>2026-09-28T08:46:37Z</time><speed>22.450</speed><sat>36</sat></trkpt>
  <trkpt lat="38.67586018" lon="34.76180669"><ele>1167.300</ele><time>2026-09-28T08:46:38Z</time><speed>22.370</speed><sat>37</sat></trkpt>
  <trkpt lat="38.67576816" lon="34.76158104"><ele>1167.759</ele><time>2026-09-28T08:46:39Z</time><speed>22.290</speed><sat>37</sat></trkpt>
  <trkpt lat="38.67567228" lon="34.76135658"><ele>1168.187</ele><time>2026-09-28T08:46:40Z</time><speed>22.190</speed><sat>37</sat></trkpt>
  <trkpt lat="38.67557383" lon="34.76113634"><ele>1168.651</ele><time>2026-09-28T08:46:41Z</time><speed>22.060</speed><sat>37</sat></trkpt>
  <trkpt lat="38.67546930" lon="34.76091631"><ele>1169.005</ele><time>2026-09-28T08:46:42Z</time><speed>22.190</speed><sat>37</sat></trkpt>
  <trkpt lat="38.67535979" lon="34.76070282"><ele>1169.354</ele><time>2026-09-28T08:46:43Z</time><speed>22.250</speed><sat>37</sat></trkpt>
  <trkpt lat="38.67526615" lon="34.76048694"><ele>1169.052</ele><time>2026-09-28T08:46:44Z</time><speed>21.420</speed><sat>35</sat></trkpt>
  <trkpt lat="38.67515022" lon="34.76028755"><ele>1168.262</ele><time>2026-09-28T08:46:45Z</time><speed>21.270</speed><sat>35</sat></trkpt>
  <trkpt lat="38.67506602" lon="34.76009340"><ele>1168.209</ele><time>2026-09-28T08:46:46Z</time><speed>19.550</speed><sat>33</sat></trkpt>
  <trkpt lat="38.67489539" lon="34.75988564"><ele>1168.481</ele><time>2026-09-28T08:46:47Z</time><speed>23.380</speed><sat>34</sat></trkpt>
  <trkpt lat="38.67475993" lon="34.75969437"><ele>1169.111</ele><time>2026-09-28T08:46:48Z</time><speed>22.590</speed><sat>35</sat></trkpt>
  <trkpt lat="38.67462327" lon="34.75950577"><ele>1169.219</ele><time>2026-09-28T08:46:49Z</time><speed>22.550</speed><sat>31</sat></trkpt>
  <trkpt lat="38.67447838" lon="34.75930862"><ele>1168.836</ele><time>2026-09-28T08:46:50Z</time><speed>22.780</speed><sat>31</sat></trkpt>
  <trkpt lat="38.67434102" lon="34.75911421"><ele>1168.267</ele><time>2026-09-28T08:46:51Z</time><speed>22.920</speed><sat>34</sat></trkpt>
  <trkpt lat="38.67420581" lon="34.75891497"><ele>1167.330</ele><time>2026-09-28T08:46:52Z</time><speed>22.700</speed><sat>35</sat></trkpt>
  <trkpt lat="38.67408052" lon="34.75871027"><ele>1166.602</ele><time>2026-09-28T08:46:53Z</time><speed>22.610</speed><sat>35</sat></trkpt>
  <trkpt lat="38.67395788" lon="34.75854120"><ele>1166.244</ele><time>2026-09-28T08:46:54Z</time><speed>20.980</speed><sat>34</sat></trkpt>
  <trkpt lat="38.67383990" lon="34.75832930"><ele>1165.901</ele><time>2026-09-28T08:46:55Z</time><speed>22.440</speed><sat>33</sat></trkpt>
  <trkpt lat="38.67371577" lon="34.75813299"><ele>1164.776</ele><time>2026-09-28T08:46:56Z</time><speed>21.690</speed><sat>32</sat></trkpt>
  <trkpt lat="38.67360962" lon="34.75792300"><ele>1164.695</ele><time>2026-09-28T08:46:57Z</time><speed>21.680</speed><sat>34</sat></trkpt>
  <trkpt lat="38.67348520" lon="34.75770399"><ele>1163.065</ele><time>2026-09-28T08:46:58Z</time><speed>21.590</speed><sat>33</sat></trkpt>
  <trkpt lat="38.67339126" lon="34.75749572"><ele>1160.654</ele><time>2026-09-28T08:46:59Z</time><speed>21.200</speed><sat>34</sat></trkpt>
  <trkpt lat="38.67330409" lon="34.75729810"><ele>1161.204</ele><time>2026-09-28T08:47:00Z</time><speed>20.290</speed><sat>35</sat></trkpt>
  <trkpt lat="38.67327790" lon="34.75705867"><ele>1159.915</ele><time>2026-09-28T08:47:01Z</time><speed>19.950</speed><sat>35</sat></trkpt>
  <trkpt lat="38.67322453" lon="34.75685067"><ele>1160.583</ele><time>2026-09-28T08:47:02Z</time><speed>19.690</speed><sat>34</sat></trkpt>
  <trkpt lat="38.67318607" lon="34.75662941"><ele>1160.223</ele><time>2026-09-28T08:47:03Z</time><speed>19.600</speed><sat>32</sat></trkpt>
  <trkpt lat="38.67314934" lon="34.75640874"><ele>1160.733</ele><time>2026-09-28T08:47:04Z</time><speed>20.380</speed><sat>33</sat></trkpt>
  <trkpt lat="38.67312929" lon="34.75619924"><ele>1159.966</ele><time>2026-09-28T08:47:05Z</time><speed>18.790</speed><sat>33</sat></trkpt>
  <trkpt lat="38.67310152" lon="34.75596625"><ele>1160.591</ele><time>2026-09-28T08:47:06Z</time><speed>20.160</speed><sat>34</sat></trkpt>
  <trkpt lat="38.67309943" lon="34.75572424"><ele>1160.248</ele><time>2026-09-28T08:47:07Z</time><speed>20.390</speed><sat>34</sat></trkpt>
  <trkpt lat="38.67308484" lon="34.75549632"><ele>1160.870</ele><time>2026-09-28T08:47:08Z</time><speed>19.640</speed><sat>35</sat></trkpt>
  <trkpt lat="38.67309433" lon="34.75525894"><ele>1159.621</ele><time>2026-09-28T08:47:09Z</time><speed>20.370</speed><sat>35</sat></trkpt>
  <trkpt lat="38.67308913" lon="34.75501678"><ele>1158.780</ele><time>2026-09-28T08:47:10Z</time><speed>20.870</speed><sat>35</sat></trkpt>
  <trkpt lat="38.67308234" lon="34.75476474"><ele>1160.777</ele><time>2026-09-28T08:47:11Z</time><speed>21.430</speed><sat>35</sat></trkpt>
  <trkpt lat="38.67307474" lon="34.75453644"><ele>1160.162</ele><time>2026-09-28T08:47:12Z</time><speed>20.440</speed><sat>35</sat></trkpt>
  <trkpt lat="38.67307154" lon="34.75429866"><ele>1160.238</ele><time>2026-09-28T08:47:13Z</time><speed>20.480</speed><sat>35</sat></trkpt>
  <trkpt lat="38.67306947" lon="34.75406776"><ele>1159.931</ele><time>2026-09-28T08:47:14Z</time><speed>20.390</speed><sat>34</sat></trkpt>
  <trkpt lat="38.67306310" lon="34.75383297"><ele>1159.820</ele><time>2026-09-28T08:47:15Z</time><speed>20.420</speed><sat>35</sat></trkpt>
  <trkpt lat="38.67308201" lon="34.75359620"><ele>1160.317</ele><time>2026-09-28T08:47:16Z</time><speed>20.980</speed><sat>35</sat></trkpt>
  <trkpt lat="38.67309627" lon="34.75335181"><ele>1160.282</ele><time>2026-09-28T08:47:17Z</time><speed>21.560</speed><sat>37</sat></trkpt>
  <trkpt lat="38.67305724" lon="34.75316234"><ele>1159.705</ele><time>2026-09-28T08:47:18Z</time><speed>19.020</speed><sat>36</sat></trkpt>
  <trkpt lat="38.67305500" lon="34.75294951"><ele>1159.278</ele><time>2026-09-28T08:47:19Z</time><speed>18.520</speed><sat>35</sat></trkpt>
  <trkpt lat="38.67305564" lon="34.75274845"><ele>1158.721</ele><time>2026-09-28T08:47:20Z</time><speed>17.870</speed><sat>36</sat></trkpt>
  <trkpt lat="38.67304493" lon="34.75254941"><ele>1158.695</ele><time>2026-09-28T08:47:21Z</time><speed>17.550</speed><sat>35</sat></trkpt>
  <trkpt lat="38.67304223" lon="34.75234279"><ele>1158.993</ele><time>2026-09-28T08:47:22Z</time><speed>17.890</speed><sat>35</sat></trkpt>
  <trkpt lat="38.67303906" lon="34.75219671"><ele>1158.456</ele><time>2026-09-28T08:47:23Z</time><speed>14.910</speed><sat>35</sat></trkpt>
  <trkpt lat="38.67304157" lon="34.75204523"><ele>1158.635</ele><time>2026-09-28T08:47:24Z</time><speed>13.470</speed><sat>37</sat></trkpt>
  <trkpt lat="38.67304723" lon="34.75190421"><ele>1158.734</ele><time>2026-09-28T08:47:25Z</time><speed>12.140</speed><sat>37</sat></trkpt>
  <trkpt lat="38.67304557" lon="34.75178093"><ele>1158.577</ele><time>2026-09-28T08:47:26Z</time><speed>10.730</speed><sat>37</sat></trkpt>
  <trkpt lat="38.67305367" lon="34.75166128"><ele>1158.354</ele><time>2026-09-28T08:47:27Z</time><speed>10.770</speed><sat>36</sat></trkpt>
  <trkpt lat="38.67305162" lon="34.75157817"><ele>1158.789</ele><time>2026-09-28T08:47:28Z</time><speed>8.390</speed><sat>36</sat></trkpt>
  <trkpt lat="38.67305673" lon="34.75149602"><ele>1158.790</ele><time>2026-09-28T08:47:29Z</time><speed>7.070</speed><sat>36</sat></trkpt>
  <trkpt lat="38.67305981" lon="34.75142437"><ele>1158.882</ele><time>2026-09-28T08:47:30Z</time><speed>6.380</speed><sat>35</sat></trkpt>
  <trkpt lat="38.67305813" lon="34.75134909"><ele>1159.198</ele><time>2026-09-28T08:47:31Z</time><speed>6.240</speed><sat>36</sat></trkpt>
  <trkpt lat="38.67306169" lon="34.75130040"><ele>1158.864</ele><time>2026-09-28T08:47:32Z</time><speed>4.860</speed><sat>37</sat></trkpt>
  <trkpt lat="38.67306475" lon="34.75125111"><ele>1158.756</ele><time>2026-09-28T08:47:33Z</time><speed>4.250</speed><sat>38</sat></trkpt>
  <trkpt lat="38.67306568" lon="34.75121368"><ele>1158.654</ele><time>2026-09-28T08:47:34Z</time><speed>3.510</speed><sat>39</sat></trkpt>
  <trkpt lat="38.67306329" lon="34.75117885"><ele>1158.508</ele><time>2026-09-28T08:47:35Z</time><speed>2.750</speed><sat>39</sat></trkpt>
  <trkpt lat="38.67306318" lon="34.75114958"><ele>1158.280</ele><time>2026-09-28T08:47:36Z</time><speed>2.020</speed><sat>39</sat></trkpt>
  <trkpt lat="38.67305967" lon="34.75113253"><ele>1158.395</ele><time>2026-09-28T08:47:37Z</time><speed>1.380</speed><sat>38</sat></trkpt>
  <trkpt lat="38.67305764" lon="34.75111807"><ele>1158.648</ele><time>2026-09-28T08:47:38Z</time><speed>1.060</speed><sat>36</sat></trkpt>
  <trkpt lat="38.67305664" lon="34.75109970"><ele>1158.894</ele><time>2026-09-28T08:47:39Z</time><speed>1.230</speed><sat>37</sat></trkpt>
  <trkpt lat="38.67305635" lon="34.75106528"><ele>1159.201</ele><time>2026-09-28T08:47:40Z</time><speed>2.520</speed><sat>38</sat></trkpt>
  <trkpt lat="38.67305719" lon="34.75101798"><ele>1159.183</ele><time>2026-09-28T08:47:41Z</time><speed>3.720</speed><sat>37</sat></trkpt>
  <trkpt lat="38.67305260" lon="34.75097616"><ele>1158.785</ele><time>2026-09-28T08:47:42Z</time><speed>3.700</speed><sat>37</sat></trkpt>
  <trkpt lat="38.67305374" lon="34.75089495"><ele>1158.377</ele><time>2026-09-28T08:47:43Z</time><speed>5.940</speed><sat>38</sat></trkpt>
  <trkpt lat="38.67305705" lon="34.75082682"><ele>1158.187</ele><time>2026-09-28T08:47:44Z</time><speed>5.840</speed><sat>37</sat></trkpt>
  <trkpt lat="38.67306099" lon="34.75075517"><ele>1158.322</ele><time>2026-09-28T08:47:45Z</time><speed>6.040</speed><sat>37</sat></trkpt>
  <trkpt lat="38.67306136" lon="34.75069747"><ele>1158.505</ele><time>2026-09-28T08:47:46Z</time><speed>5.260</speed><sat>37</sat></trkpt>
  <trkpt lat="38.67306358" lon="34.75056819"><ele>1158.007</ele><time>2026-09-28T08:47:47Z</time><speed>8.150</speed><sat>35</sat></trkpt>
  <trkpt lat="38.67306379" lon="34.75047523"><ele>1157.619</ele><time>2026-09-28T08:47:48Z</time><speed>8.130</speed><sat>33</sat></trkpt>
  <trkpt lat="38.67306225" lon="34.75037654"><ele>1157.185</ele><time>2026-09-28T08:47:49Z</time><speed>8.550</speed><sat>33</sat></trkpt>
  <trkpt lat="38.67305661" lon="34.75026788"><ele>1157.339</ele><time>2026-09-28T08:47:50Z</time><speed>9.260</speed><sat>35</sat></trkpt>
  <trkpt lat="38.67305199" lon="34.75015036"><ele>1157.315</ele><time>2026-09-28T08:47:51Z</time><speed>10.270</speed><sat>35</sat></trkpt>
  <trkpt lat="38.67304580" lon="34.75001888"><ele>1157.151</ele><time>2026-09-28T08:47:52Z</time><speed>11.300</speed><sat>36</sat></trkpt>
  <trkpt lat="38.67304102" lon="34.74988602"><ele>1157.115</ele><time>2026-09-28T08:47:53Z</time><speed>11.500</speed><sat>36</sat></trkpt>
  <trkpt lat="38.67303424" lon="34.74974460"><ele>1156.810</ele><time>2026-09-28T08:47:54Z</time><speed>12.160</speed><sat>36</sat></trkpt>
  <trkpt lat="38.67302795" lon="34.74958539"><ele>1155.421</ele><time>2026-09-28T08:47:55Z</time><speed>13.720</speed><sat>36</sat></trkpt>
  <trkpt lat="38.67302420" lon="34.74943436"><ele>1155.008</ele><time>2026-09-28T08:47:56Z</time><speed>13.410</speed><sat>33</sat></trkpt>
  <trkpt lat="38.67301845" lon="34.74928017"><ele>1155.361</ele><time>2026-09-28T08:47:57Z</time><speed>13.100</speed><sat>33</sat></trkpt>
  <trkpt lat="38.67300664" lon="34.74909582"><ele>1155.230</ele><time>2026-09-28T08:47:58Z</time><speed>14.760</speed><sat>33</sat></trkpt>
  <trkpt lat="38.67300087" lon="34.74893329"><ele>1154.817</ele><time>2026-09-28T08:47:59Z</time><speed>14.340</speed><sat>33</sat></trkpt>
  <trkpt lat="38.67299086" lon="34.74878018"><ele>1154.173</ele><time>2026-09-28T08:48:00Z</time><speed>13.880</speed><sat>33</sat></trkpt>
  <trkpt lat="38.67298945" lon="34.74859949"><ele>1154.818</ele><time>2026-09-28T08:48:01Z</time><speed>14.740</speed><sat>33</sat></trkpt>
  <trkpt lat="38.67297982" lon="34.74842701"><ele>1154.958</ele><time>2026-09-28T08:48:02Z</time><speed>14.990</speed><sat>32</sat></trkpt>
  <trkpt lat="38.67296777" lon="34.74824398"><ele>1155.342</ele><time>2026-09-28T08:48:03Z</time><speed>15.600</speed><sat>33</sat></trkpt>
  <trkpt lat="38.67295383" lon="34.74805761"><ele>1155.598</ele><time>2026-09-28T08:48:04Z</time><speed>16.260</speed><sat>32</sat></trkpt>
  <trkpt lat="38.67294787" lon="34.74786855"><ele>1155.836</ele><time>2026-09-28T08:48:05Z</time><speed>16.320</speed><sat>32</sat></trkpt>
  <trkpt lat="38.67294560" lon="34.74768373"><ele>1156.552</ele><time>2026-09-28T08:48:06Z</time><speed>15.800</speed><sat>33</sat></trkpt>
  <trkpt lat="38.67294240" lon="34.74750435"><ele>1157.029</ele><time>2026-09-28T08:48:07Z</time><speed>15.170</speed><sat>33</sat></trkpt>
  <trkpt lat="38.67293404" lon="34.74732749"><ele>1157.161</ele><time>2026-09-28T08:48:08Z</time><speed>14.920</speed><sat>34</sat></trkpt>
  <trkpt lat="38.67292576" lon="34.74715955"><ele>1158.211</ele><time>2026-09-28T08:48:09Z</time><speed>14.950</speed><sat>35</sat></trkpt>
  <trkpt lat="38.67291432" lon="34.74698321"><ele>1158.459</ele><time>2026-09-28T08:48:10Z</time><speed>15.200</speed><sat>35</sat></trkpt>
  <trkpt lat="38.67289685" lon="34.74680182"><ele>1159.116</ele><time>2026-09-28T08:48:11Z</time><speed>15.790</speed><sat>36</sat></trkpt>
  <trkpt lat="38.67287152" lon="34.74661283"><ele>1159.567</ele><time>2026-09-28T08:48:12Z</time><speed>16.470</speed><sat>37</sat></trkpt>
  <trkpt lat="38.67284225" lon="34.74642590"><ele>1160.296</ele><time>2026-09-28T08:48:13Z</time><speed>16.920</speed><sat>37</sat></trkpt>
  <trkpt lat="38.67280883" lon="34.74624176"><ele>1161.332</ele><time>2026-09-28T08:48:14Z</time><speed>16.610</speed><sat>38</sat></trkpt>
  <trkpt lat="38.67277407" lon="34.74605077"><ele>1161.766</ele><time>2026-09-28T08:48:15Z</time><speed>16.910</speed><sat>39</sat></trkpt>
  <trkpt lat="38.67273464" lon="34.74585919"><ele>1162.521</ele><time>2026-09-28T08:48:16Z</time><speed>17.420</speed><sat>36</sat></trkpt>
  <trkpt lat="38.67268988" lon="34.74566209"><ele>1163.046</ele><time>2026-09-28T08:48:17Z</time><speed>17.910</speed><sat>36</sat></trkpt>
  <trkpt lat="38.67264014" lon="34.74546570"><ele>1163.575</ele><time>2026-09-28T08:48:18Z</time><speed>17.990</speed><sat>36</sat></trkpt>
  <trkpt lat="38.67259114" lon="34.74527206"><ele>1163.889</ele><time>2026-09-28T08:48:19Z</time><speed>17.580</speed><sat>35</sat></trkpt>
  <trkpt lat="38.67253965" lon="34.74508492"><ele>1164.052</ele><time>2026-09-28T08:48:20Z</time><speed>17.210</speed><sat>35</sat></trkpt>
  <trkpt lat="38.67248956" lon="34.74490520"><ele>1163.918</ele><time>2026-09-28T08:48:21Z</time><speed>16.570</speed><sat>36</sat></trkpt>
  <trkpt lat="38.67242971" lon="34.74471665"><ele>1164.222</ele><time>2026-09-28T08:48:22Z</time><speed>16.880</speed><sat>35</sat></trkpt>
  <trkpt lat="38.67237248" lon="34.74454259"><ele>1164.302</ele><time>2026-09-28T08:48:23Z</time><speed>16.420</speed><sat>35</sat></trkpt>
  <trkpt lat="38.67231296" lon="34.74436638"><ele>1165.159</ele><time>2026-09-28T08:48:24Z</time><speed>16.460</speed><sat>35</sat></trkpt>
  <trkpt lat="38.67225647" lon="34.74419788"><ele>1165.137</ele><time>2026-09-28T08:48:25Z</time><speed>16.030</speed><sat>35</sat></trkpt>
  <trkpt lat="38.67221043" lon="34.74403493"><ele>1164.634</ele><time>2026-09-28T08:48:26Z</time><speed>15.430</speed><sat>33</sat></trkpt>
  <trkpt lat="38.67215168" lon="34.74387948"><ele>1164.360</ele><time>2026-09-28T08:48:27Z</time><speed>15.260</speed><sat>31</sat></trkpt>
  <trkpt lat="38.67209112" lon="34.74372657"><ele>1164.155</ele><time>2026-09-28T08:48:28Z</time><speed>15.420</speed><sat>30</sat></trkpt>
  <trkpt lat="38.67204029" lon="34.74355349"><ele>1164.135</ele><time>2026-09-28T08:48:29Z</time><speed>15.710</speed><sat>30</sat></trkpt>
  <trkpt lat="38.67200046" lon="34.74339617"><ele>1163.627</ele><time>2026-09-28T08:48:30Z</time><speed>15.110</speed><sat>30</sat></trkpt>
  <trkpt lat="38.67194838" lon="34.74323559"><ele>1163.249</ele><time>2026-09-28T08:48:31Z</time><speed>14.910</speed><sat>29</sat></trkpt>
  <trkpt lat="38.67189299" lon="34.74307274"><ele>1163.434</ele><time>2026-09-28T08:48:32Z</time><speed>14.360</speed><sat>29</sat></trkpt>
  <trkpt lat="38.67184392" lon="34.74291172"><ele>1164.093</ele><time>2026-09-28T08:48:33Z</time><speed>14.890</speed><sat>26</sat></trkpt>
  <trkpt lat="38.67178777" lon="34.74274773"><ele>1163.694</ele><time>2026-09-28T08:48:34Z</time><speed>14.560</speed><sat>25</sat></trkpt>
  <trkpt lat="38.67173480" lon="34.74258709"><ele>1164.336</ele><time>2026-09-28T08:48:35Z</time><speed>14.660</speed><sat>26</sat></trkpt>
  <trkpt lat="38.67169209" lon="34.74245391"><ele>1163.606</ele><time>2026-09-28T08:48:36Z</time><speed>13.690</speed><sat>26</sat></trkpt>
  <trkpt lat="38.67164182" lon="34.74231151"><ele>1163.185</ele><time>2026-09-28T08:48:37Z</time><speed>13.310</speed><sat>28</sat></trkpt>
  <trkpt lat="38.67159560" lon="34.74217001"><ele>1163.391</ele><time>2026-09-28T08:48:38Z</time><speed>13.190</speed><sat>28</sat></trkpt>
  <trkpt lat="38.67154791" lon="34.74204063"><ele>1163.308</ele><time>2026-09-28T08:48:39Z</time><speed>12.830</speed><sat>28</sat></trkpt>
  <trkpt lat="38.67150950" lon="34.74192541"><ele>1164.084</ele><time>2026-09-28T08:48:40Z</time><speed>12.060</speed><sat>27</sat></trkpt>
  <trkpt lat="38.67147200" lon="34.74180377"><ele>1164.991</ele><time>2026-09-28T08:48:41Z</time><speed>11.380</speed><sat>29</sat></trkpt>
  <trkpt lat="38.67143428" lon="34.74169491"><ele>1164.770</ele><time>2026-09-28T08:48:42Z</time><speed>10.510</speed><sat>28</sat></trkpt>
  <trkpt lat="38.67140337" lon="34.74158279"><ele>1164.659</ele><time>2026-09-28T08:48:43Z</time><speed>10.340</speed><sat>27</sat></trkpt>
  <trkpt lat="38.67137579" lon="34.74150332"><ele>1164.676</ele><time>2026-09-28T08:48:44Z</time><speed>8.490</speed><sat>27</sat></trkpt>
  <trkpt lat="38.67135171" lon="34.74141085"><ele>1165.556</ele><time>2026-09-28T08:48:45Z</time><speed>7.910</speed><sat>27</sat></trkpt>
  <trkpt lat="38.67132681" lon="34.74133616"><ele>1166.205</ele><time>2026-09-28T08:48:46Z</time><speed>6.960</speed><sat>29</sat></trkpt>
  <trkpt lat="38.67130075" lon="34.74127574"><ele>1167.292</ele><time>2026-09-28T08:48:47Z</time><speed>6.130</speed><sat>31</sat></trkpt>
  <trkpt lat="38.67127930" lon="34.74120754"><ele>1168.727</ele><time>2026-09-28T08:48:48Z</time><speed>5.130</speed><sat>32</sat></trkpt>
  <trkpt lat="38.67127021" lon="34.74115174"><ele>1168.283</ele><time>2026-09-28T08:48:49Z</time><speed>5.070</speed><sat>34</sat></trkpt>
  <trkpt lat="38.67126299" lon="34.74113858"><ele>1168.066</ele><time>2026-09-28T08:48:50Z</time><speed>2.870</speed><sat>35</sat></trkpt>
  <trkpt lat="38.67125895" lon="34.74112001"><ele>1168.035</ele><time>2026-09-28T08:48:51Z</time><speed>1.120</speed><sat>36</sat></trkpt>
  <trkpt lat="38.67125422" lon="34.74111779"><ele>1168.196</ele><time>2026-09-28T08:48:52Z</time><speed>0.510</speed><sat>36</sat></trkpt>
  <trkpt lat="38.67125858" lon="34.74111509"><ele>1166.402</ele><time>2026-09-28T08:48:53Z</time><speed>0.000</speed><sat>36</sat></trkpt>
  <trkpt lat="38.67126009" lon="34.74111335"><ele>1166.248</ele><time>2026-09-28T08:48:54Z</time><speed>0.000</speed><sat>36</sat></trkpt>
  <trkpt lat="38.67126139" lon="34.74111437"><ele>1166.134</ele><time>2026-09-28T08:48:55Z</time><speed>0.000</speed><sat>35</sat></trkpt>
  <trkpt lat="38.67125987" lon="34.74111059"><ele>1166.439</ele><time>2026-09-28T08:48:56Z</time><speed>0.000</speed><sat>35</sat></trkpt>
  <trkpt lat="38.67126144" lon="34.74111167"><ele>1166.405</ele><time>2026-09-28T08:48:57Z</time><speed>0.000</speed><sat>35</sat></trkpt>
  <trkpt lat="38.67126118" lon="34.74111060"><ele>1166.100</ele><time>2026-09-28T08:48:58Z</time><speed>0.000</speed><sat>33</sat></trkpt>
  <trkpt lat="38.67126105" lon="34.74110939"><ele>1166.317</ele><time>2026-09-28T08:48:59Z</time><speed>0.000</speed><sat>31</sat></trkpt>
  <trkpt lat="38.67125946" lon="34.74111028"><ele>1166.539</ele><time>2026-09-28T08:49:00Z</time><speed>0.000</speed><sat>33</sat></trkpt>
  <trkpt lat="38.67125867" lon="34.74111138"><ele>1166.596</ele><time>2026-09-28T08:49:01Z</time><speed>0.000</speed><sat>34</sat></trkpt>
  <trkpt lat="38.67125618" lon="34.74111205"><ele>1166.840</ele><time>2026-09-28T08:49:02Z</time><speed>0.000</speed><sat>35</sat></trkpt>
  <trkpt lat="38.67125478" lon="34.74111188"><ele>1167.161</ele><time>2026-09-28T08:49:03Z</time><speed>0.000</speed><sat>36</sat></trkpt>
  <trkpt lat="38.67125464" lon="34.74111050"><ele>1167.335</ele><time>2026-09-28T08:49:04Z</time><speed>0.000</speed><sat>36</sat></trkpt>
  <trkpt lat="38.67125456" lon="34.74110980"><ele>1167.455</ele><time>2026-09-28T08:49:05Z</time><speed>0.000</speed><sat>36</sat></trkpt>
  <trkpt lat="38.67125433" lon="34.74110957"><ele>1167.414</ele><time>2026-09-28T08:49:06Z</time><speed>0.000</speed><sat>36</sat></trkpt>
  <trkpt lat="38.67125416" lon="34.74110975"><ele>1167.414</ele><time>2026-09-28T08:49:07Z</time><speed>0.000</speed><sat>36</sat></trkpt>
  <trkpt lat="38.67125389" lon="34.74110989"><ele>1167.481</ele><time>2026-09-28T08:49:08Z</time><speed>0.000</speed><sat>36</sat></trkpt>
  <trkpt lat="38.67125393" lon="34.74110988"><ele>1167.479</ele><time>2026-09-28T08:49:09Z</time><speed>0.000</speed><sat>35</sat></trkpt>
  <trkpt lat="38.67125392" lon="34.74110990"><ele>1167.482</ele><time>2026-09-28T08:49:10Z</time><speed>0.000</speed><sat>35</sat></trkpt>
  <trkpt lat="38.67125392" lon="34.74110992"><ele>1167.484</ele><time>2026-09-28T08:49:11Z</time><speed>0.000</speed><sat>35</sat></trkpt>
  <trkpt lat="38.67125489" lon="34.74111360"><ele>1167.648</ele><time>2026-09-28T08:49:12Z</time><speed>0.380</speed><sat>34</sat></trkpt>
  <trkpt lat="38.67125060" lon="34.74111078"><ele>1167.292</ele><time>2026-09-28T08:49:13Z</time><speed>0.530</speed><sat>34</sat></trkpt>
  <trkpt lat="38.67124722" lon="34.74110085"><ele>1167.763</ele><time>2026-09-28T08:49:14Z</time><speed>0.640</speed><sat>34</sat></trkpt>
  <trkpt lat="38.67124363" lon="34.74109895"><ele>1167.844</ele><time>2026-09-28T08:49:15Z</time><speed>0.460</speed><sat>34</sat></trkpt>
  <trkpt lat="38.67124222" lon="34.74109244"><ele>1167.792</ele><time>2026-09-28T08:49:16Z</time><speed>0.280</speed><sat>34</sat></trkpt>
  <trkpt lat="38.67123862" lon="34.74108949"><ele>1168.122</ele><time>2026-09-28T08:49:17Z</time><speed>0.000</speed><sat>34</sat></trkpt>
  <trkpt lat="38.67123878" lon="34.74108584"><ele>1168.508</ele><time>2026-09-28T08:49:18Z</time><speed>0.000</speed><sat>35</sat></trkpt>
  <trkpt lat="38.67124083" lon="34.74108703"><ele>1168.559</ele><time>2026-09-28T08:49:19Z</time><speed>0.000</speed><sat>34</sat></trkpt>
  <trkpt lat="38.67124354" lon="34.74109049"><ele>1168.484</ele><time>2026-09-28T08:49:20Z</time><speed>0.000</speed><sat>32</sat></trkpt>
  <trkpt lat="38.67124343" lon="34.74109178"><ele>1168.827</ele><time>2026-09-28T08:49:21Z</time><speed>0.000</speed><sat>32</sat></trkpt>
  <trkpt lat="38.67124195" lon="34.74109228"><ele>1169.011</ele><time>2026-09-28T08:49:22Z</time><speed>0.000</speed><sat>30</sat></trkpt>
  <trkpt lat="38.67124188" lon="34.74109162"><ele>1168.982</ele><time>2026-09-28T08:49:23Z</time><speed>0.000</speed><sat>30</sat></trkpt>
  <trkpt lat="38.67124237" lon="34.74109147"><ele>1168.908</ele><time>2026-09-28T08:49:24Z</time><speed>0.000</speed><sat>30</sat></trkpt>
  <trkpt lat="38.67124230" lon="34.74109104"><ele>1168.990</ele><time>2026-09-28T08:49:25Z</time><speed>0.000</speed><sat>30</sat></trkpt>
  <trkpt lat="38.67124369" lon="34.74109087"><ele>1168.817</ele><time>2026-09-28T08:49:26Z</time><speed>0.000</speed><sat>29</sat></trkpt>
  <trkpt lat="38.67124749" lon="34.74109247"><ele>1168.300</ele><time>2026-09-28T08:49:27Z</time><speed>0.150</speed><sat>31</sat></trkpt>
  <trkpt lat="38.67124740" lon="34.74109257"><ele>1167.839</ele><time>2026-09-28T08:49:28Z</time><speed>0.000</speed><sat>32</sat></trkpt>
  <trkpt lat="38.67124871" lon="34.74109201"><ele>1167.881</ele><time>2026-09-28T08:49:29Z</time><speed>0.000</speed><sat>32</sat></trkpt>
  <trkpt lat="38.67124946" lon="34.74109147"><ele>1168.338</ele><time>2026-09-28T08:49:30Z</time><speed>0.000</speed><sat>32</sat></trkpt>
  <trkpt lat="38.67124978" lon="34.74109010"><ele>1168.515</ele><time>2026-09-28T08:49:31Z</time><speed>0.000</speed><sat>32</sat></trkpt>
  <trkpt lat="38.67125102" lon="34.74109016"><ele>1168.448</ele><time>2026-09-28T08:49:32Z</time><speed>0.000</speed><sat>32</sat></trkpt>
  <trkpt lat="38.67125083" lon="34.74109031"><ele>1168.774</ele><time>2026-09-28T08:49:33Z</time><speed>0.000</speed><sat>32</sat></trkpt>
  <trkpt lat="38.67125086" lon="34.74109027"><ele>1168.669</ele><time>2026-09-28T08:49:34Z</time><speed>0.000</speed><sat>32</sat></trkpt>
  <trkpt lat="38.67125046" lon="34.74109045"><ele>1168.789</ele><time>2026-09-28T08:49:35Z</time><speed>0.000</speed><sat>33</sat></trkpt>
  <trkpt lat="38.67125027" lon="34.74109083"><ele>1168.785</ele><time>2026-09-28T08:49:36Z</time><speed>0.000</speed><sat>33</sat></trkpt>
  <trkpt lat="38.67124963" lon="34.74109207"><ele>1168.924</ele><time>2026-09-28T08:49:37Z</time><speed>0.000</speed><sat>33</sat></trkpt>
  <trkpt lat="38.67124982" lon="34.74109259"><ele>1168.814</ele><time>2026-09-28T08:49:38Z</time><speed>0.000</speed><sat>33</sat></trkpt>
  <trkpt lat="38.67125008" lon="34.74109272"><ele>1168.680</ele><time>2026-09-28T08:49:39Z</time><speed>0.000</speed><sat>33</sat></trkpt>
  <trkpt lat="38.67125006" lon="34.74109268"><ele>1168.723</ele><time>2026-09-28T08:49:40Z</time><speed>0.000</speed><sat>33</sat></trkpt>
  <trkpt lat="38.67125004" lon="34.74109270"><ele>1168.731</ele><time>2026-09-28T08:49:41Z</time><speed>0.000</speed><sat>32</sat></trkpt>
  <trkpt lat="38.67125002" lon="34.74109271"><ele>1168.731</ele><time>2026-09-28T08:49:42Z</time><speed>0.000</speed><sat>32</sat></trkpt>
  <trkpt lat="38.67125001" lon="34.74109272"><ele>1168.728</ele><time>2026-09-28T08:49:43Z</time><speed>0.000</speed><sat>32</sat></trkpt>
  <trkpt lat="38.67124997" lon="34.74109270"><ele>1168.735</ele><time>2026-09-28T08:49:44Z</time><speed>0.000</speed><sat>32</sat></trkpt>
  <trkpt lat="38.67124995" lon="34.74109271"><ele>1168.735</ele><time>2026-09-28T08:49:45Z</time><speed>0.000</speed><sat>32</sat></trkpt>
  <trkpt lat="38.67124993" lon="34.74109270"><ele>1168.734</ele><time>2026-09-28T08:49:46Z</time><speed>0.000</speed><sat>29</sat></trkpt>
  <trkpt lat="38.67124991" lon="34.74109270"><ele>1168.736</ele><time>2026-09-28T08:49:47Z</time><speed>0.000</speed><sat>32</sat></trkpt>
  <trkpt lat="38.67124989" lon="34.74109271"><ele>1168.736</ele><time>2026-09-28T08:49:48Z</time><speed>0.000</speed><sat>32</sat></trkpt>
  <trkpt lat="38.67124987" lon="34.74109271"><ele>1168.738</ele><time>2026-09-28T08:49:49Z</time><speed>0.000</speed><sat>33</sat></trkpt>
  <trkpt lat="38.67124985" lon="34.74109271"><ele>1168.742</ele><time>2026-09-28T08:49:50Z</time><speed>0.000</speed><sat>33</sat></trkpt>
  <trkpt lat="38.67124945" lon="34.74109280"><ele>1168.860</ele><time>2026-09-28T08:49:51Z</time><speed>0.000</speed><sat>33</sat></trkpt>
  <trkpt lat="38.67124924" lon="34.74109284"><ele>1168.864</ele><time>2026-09-28T08:49:52Z</time><speed>0.000</speed><sat>33</sat></trkpt>
  <trkpt lat="38.67124913" lon="34.74109286"><ele>1168.863</ele><time>2026-09-28T08:49:53Z</time><speed>0.000</speed><sat>33</sat></trkpt>
  <trkpt lat="38.67124911" lon="34.74109303"><ele>1168.858</ele><time>2026-09-28T08:49:54Z</time><speed>0.000</speed><sat>33</sat></trkpt>
  <trkpt lat="38.67124906" lon="34.74109319"><ele>1168.883</ele><time>2026-09-28T08:49:55Z</time><speed>0.000</speed><sat>34</sat></trkpt>
  <trkpt lat="38.67124883" lon="34.74109323"><ele>1168.980</ele><time>2026-09-28T08:49:56Z</time><speed>0.000</speed><sat>34</sat></trkpt>
  <trkpt lat="38.67124874" lon="34.74109335"><ele>1168.977</ele><time>2026-09-28T08:49:57Z</time><speed>0.000</speed><sat>35</sat></trkpt>
  <trkpt lat="38.67124849" lon="34.74109336"><ele>1169.057</ele><time>2026-09-28T08:49:58Z</time><speed>0.000</speed><sat>36</sat></trkpt>
  <trkpt lat="38.67124844" lon="34.74109346"><ele>1169.032</ele><time>2026-09-28T08:49:59Z</time><speed>0.000</speed><sat>37</sat></trkpt>
  <trkpt lat="38.67124840" lon="34.74109351"><ele>1169.036</ele><time>2026-09-28T08:50:00Z</time><speed>0.000</speed><sat>37</sat></trkpt>
  <trkpt lat="38.67124838" lon="34.74109353"><ele>1169.037</ele><time>2026-09-28T08:50:01Z</time><speed>0.000</speed><sat>37</sat></trkpt>
  <trkpt lat="38.67124836" lon="34.74109354"><ele>1169.040</ele><time>2026-09-28T08:50:02Z</time><speed>0.000</speed><sat>37</sat></trkpt>
  <trkpt lat="38.67124625" lon="34.74108881"><ele>1169.558</ele><time>2026-09-28T08:50:03Z</time><speed>0.680</speed><sat>37</sat></trkpt>
  <trkpt lat="38.67124136" lon="34.74107335"><ele>1169.559</ele><time>2026-09-28T08:50:04Z</time><speed>1.780</speed><sat>37</sat></trkpt>
  <trkpt lat="38.67123118" lon="34.74104385"><ele>1169.146</ele><time>2026-09-28T08:50:05Z</time><speed>3.160</speed><sat>36</sat></trkpt>
  <trkpt lat="38.67121332" lon="34.74099872"><ele>1169.482</ele><time>2026-09-28T08:50:06Z</time><speed>4.740</speed><sat>36</sat></trkpt>
  <trkpt lat="38.67117898" lon="34.74091622"><ele>1169.898</ele><time>2026-09-28T08:50:07Z</time><speed>6.150</speed><sat>36</sat></trkpt>
  <trkpt lat="38.67114902" lon="34.74085802"><ele>1170.120</ele><time>2026-09-28T08:50:08Z</time><speed>6.080</speed><sat>36</sat></trkpt>
  <trkpt lat="38.67111662" lon="34.74079018"><ele>1170.401</ele><time>2026-09-28T08:50:09Z</time><speed>6.690</speed><sat>36</sat></trkpt>
  <trkpt lat="38.67108342" lon="34.74071873"><ele>1170.929</ele><time>2026-09-28T08:50:10Z</time><speed>7.010</speed><sat>36</sat></trkpt>
  <trkpt lat="38.67106224" lon="34.74065389"><ele>1170.720</ele><time>2026-09-28T08:50:11Z</time><speed>6.380</speed><sat>37</sat></trkpt>
  <trkpt lat="38.67104163" lon="34.74059338"><ele>1169.932</ele><time>2026-09-28T08:50:12Z</time><speed>5.790</speed><sat>36</sat></trkpt>
  <trkpt lat="38.67105488" lon="34.74054448"><ele>1169.766</ele><time>2026-09-28T08:50:13Z</time><speed>4.530</speed><sat>36</sat></trkpt>
  <trkpt lat="38.67110523" lon="34.74046536"><ele>1169.029</ele><time>2026-09-28T08:50:14Z</time><speed>6.330</speed><sat>36</sat></trkpt>
  <trkpt lat="38.67113439" lon="34.74040052"><ele>1168.961</ele><time>2026-09-28T08:50:15Z</time><speed>6.720</speed><sat>36</sat></trkpt>
  <trkpt lat="38.67115741" lon="34.74032824"><ele>1168.883</ele><time>2026-09-28T08:50:16Z</time><speed>6.820</speed><sat>36</sat></trkpt>
  <trkpt lat="38.67117816" lon="34.74024939"><ele>1168.954</ele><time>2026-09-28T08:50:17Z</time><speed>6.950</speed><sat>35</sat></trkpt>
  <trkpt lat="38.67119027" lon="34.74017517"><ele>1168.640</ele><time>2026-09-28T08:50:18Z</time><speed>6.760</speed><sat>35</sat></trkpt>
  <trkpt lat="38.67119247" lon="34.74011716"><ele>1167.872</ele><time>2026-09-28T08:50:19Z</time><speed>5.410</speed><sat>35</sat></trkpt>
  <trkpt lat="38.67118843" lon="34.74008592"><ele>1166.447</ele><time>2026-09-28T08:50:20Z</time><speed>3.360</speed><sat>35</sat></trkpt>
  <trkpt lat="38.67118914" lon="34.74004386"><ele>1165.425</ele><time>2026-09-28T08:50:21Z</time><speed>3.470</speed><sat>32</sat></trkpt>
  <trkpt lat="38.67118818" lon="34.74000557"><ele>1164.478</ele><time>2026-09-28T08:50:22Z</time><speed>3.510</speed><sat>29</sat></trkpt>
  <trkpt lat="38.67119168" lon="34.73995617"><ele>1164.218</ele><time>2026-09-28T08:50:23Z</time><speed>3.860</speed><sat>29</sat></trkpt>
  <trkpt lat="38.67118436" lon="34.73991110"><ele>1163.268</ele><time>2026-09-28T08:50:24Z</time><speed>3.770</speed><sat>29</sat></trkpt>
  <trkpt lat="38.67116292" lon="34.73982356"><ele>1163.685</ele><time>2026-09-28T08:50:25Z</time><speed>6.010</speed><sat>28</sat></trkpt>
  <trkpt lat="38.67114440" lon="34.73974904"><ele>1163.852</ele><time>2026-09-28T08:50:26Z</time><speed>6.790</speed><sat>29</sat></trkpt>
  <trkpt lat="38.67112353" lon="34.73966083"><ele>1163.883</ele><time>2026-09-28T08:50:27Z</time><speed>7.800</speed><sat>28</sat></trkpt>
  <trkpt lat="38.67109903" lon="34.73956907"><ele>1164.004</ele><time>2026-09-28T08:50:28Z</time><speed>8.440</speed><sat>28</sat></trkpt>
  <trkpt lat="38.67107596" lon="34.73946797"><ele>1164.101</ele><time>2026-09-28T08:50:29Z</time><speed>8.900</speed><sat>29</sat></trkpt>
  <trkpt lat="38.67105071" lon="34.73936410"><ele>1163.970</ele><time>2026-09-28T08:50:30Z</time><speed>9.330</speed><sat>27</sat></trkpt>
  <trkpt lat="38.67102695" lon="34.73922570"><ele>1163.920</ele><time>2026-09-28T08:50:31Z</time><speed>10.300</speed><sat>27</sat></trkpt>
  <trkpt lat="38.67099741" lon="34.73911790"><ele>1163.823</ele><time>2026-09-28T08:50:32Z</time><speed>10.610</speed><sat>27</sat></trkpt>
  <trkpt lat="38.67097595" lon="34.73896757"><ele>1163.433</ele><time>2026-09-28T08:50:33Z</time><speed>11.650</speed><sat>26</sat></trkpt>
  <trkpt lat="38.67096019" lon="34.73886716"><ele>1163.026</ele><time>2026-09-28T08:50:34Z</time><speed>9.180</speed><sat>26</sat></trkpt>
  <trkpt lat="38.67093488" lon="34.73875021"><ele>1163.908</ele><time>2026-09-28T08:50:35Z</time><speed>9.450</speed><sat>26</sat></trkpt>
  <trkpt lat="38.67093050" lon="34.73873656"><ele>1164.712</ele><time>2026-09-28T08:50:36Z</time><speed>2.550</speed><sat>28</sat></trkpt>
  <trkpt lat="38.67090904" lon="34.73868245"><ele>1165.689</ele><time>2026-09-28T08:50:37Z</time><speed>4.730</speed><sat>29</sat></trkpt>
  <trkpt lat="38.67091070" lon="34.73868644"><ele>1165.766</ele><time>2026-09-28T08:50:38Z</time><speed>0.300</speed><sat>30</sat></trkpt>
  <trkpt lat="38.67090360" lon="34.73866901"><ele>1166.604</ele><time>2026-09-28T08:50:39Z</time><speed>0.840</speed><sat>30</sat></trkpt>
  <trkpt lat="38.67090280" lon="34.73865276"><ele>1167.361</ele><time>2026-09-28T08:50:40Z</time><speed>2.030</speed><sat>30</sat></trkpt>
  <trkpt lat="38.67089314" lon="34.73861986"><ele>1167.262</ele><time>2026-09-28T08:50:41Z</time><speed>3.590</speed><sat>30</sat></trkpt>
  <trkpt lat="38.67088274" lon="34.73856634"><ele>1166.667</ele><time>2026-09-28T08:50:42Z</time><speed>5.260</speed><sat>29</sat></trkpt>
  <trkpt lat="38.67086804" lon="34.73849297"><ele>1166.922</ele><time>2026-09-28T08:50:43Z</time><speed>6.440</speed><sat>31</sat></trkpt>
  <trkpt lat="38.67085757" lon="34.73843402"><ele>1166.858</ele><time>2026-09-28T08:50:44Z</time><speed>5.880</speed><sat>32</sat></trkpt>
  <trkpt lat="38.67084549" lon="34.73837292"><ele>1166.420</ele><time>2026-09-28T08:50:45Z</time><speed>5.900</speed><sat>32</sat></trkpt>
  <trkpt lat="38.67083120" lon="34.73830051"><ele>1164.937</ele><time>2026-09-28T08:50:46Z</time><speed>6.640</speed><sat>34</sat></trkpt>
  <trkpt lat="38.67081603" lon="34.73822067"><ele>1165.081</ele><time>2026-09-28T08:50:47Z</time><speed>6.880</speed><sat>34</sat></trkpt>
  <trkpt lat="38.67080218" lon="34.73814651"><ele>1164.875</ele><time>2026-09-28T08:50:48Z</time><speed>6.700</speed><sat>33</sat></trkpt>
  <trkpt lat="38.67079232" lon="34.73808994"><ele>1164.803</ele><time>2026-09-28T08:50:49Z</time><speed>4.410</speed><sat>31</sat></trkpt>
  <trkpt lat="38.67078596" lon="34.73805855"><ele>1165.028</ele><time>2026-09-28T08:50:50Z</time><speed>1.750</speed><sat>31</sat></trkpt>
  <trkpt lat="38.67077589" lon="34.73804516"><ele>1164.458</ele><time>2026-09-28T08:50:51Z</time><speed>1.180</speed><sat>30</sat></trkpt>
  <trkpt lat="38.67078431" lon="34.73804595"><ele>1165.533</ele><time>2026-09-28T08:50:52Z</time><speed>0.160</speed><sat>30</sat></trkpt>
  <trkpt lat="38.67078344" lon="34.73803340"><ele>1165.647</ele><time>2026-09-28T08:50:53Z</time><speed>0.590</speed><sat>30</sat></trkpt>
  <trkpt lat="38.67080057" lon="34.73801594"><ele>1166.497</ele><time>2026-09-28T08:50:54Z</time><speed>1.850</speed><sat>29</sat></trkpt>
  <trkpt lat="38.67080488" lon="34.73801030"><ele>1166.624</ele><time>2026-09-28T08:50:55Z</time><speed>0.990</speed><sat>30</sat></trkpt>
  <trkpt lat="38.67078592" lon="34.73795643"><ele>1168.064</ele><time>2026-09-28T08:50:56Z</time><speed>2.520</speed><sat>30</sat></trkpt>
  <trkpt lat="38.67075264" lon="34.73787058"><ele>1166.978</ele><time>2026-09-28T08:50:57Z</time><speed>5.500</speed><sat>30</sat></trkpt>
  <trkpt lat="38.67073868" lon="34.73780398"><ele>1166.538</ele><time>2026-09-28T08:50:58Z</time><speed>5.650</speed><sat>31</sat></trkpt>
  <trkpt lat="38.67073074" lon="34.73773799"><ele>1165.706</ele><time>2026-09-28T08:50:59Z</time><speed>5.470</speed><sat>31</sat></trkpt>
  <trkpt lat="38.67071296" lon="34.73765089"><ele>1165.749</ele><time>2026-09-28T08:51:00Z</time><speed>7.590</speed><sat>32</sat></trkpt>
  <trkpt lat="38.67069404" lon="34.73755742"><ele>1164.893</ele><time>2026-09-28T08:51:01Z</time><speed>8.400</speed><sat>32</sat></trkpt>
  <trkpt lat="38.67067512" lon="34.73745059"><ele>1164.796</ele><time>2026-09-28T08:51:02Z</time><speed>9.190</speed><sat>32</sat></trkpt>
  <trkpt lat="38.67065827" lon="34.73733531"><ele>1164.178</ele><time>2026-09-28T08:51:03Z</time><speed>9.680</speed><sat>32</sat></trkpt>
  <trkpt lat="38.67063327" lon="34.73722873"><ele>1163.807</ele><time>2026-09-28T08:51:04Z</time><speed>9.720</speed><sat>30</sat></trkpt>
  <trkpt lat="38.67061295" lon="34.73712010"><ele>1163.991</ele><time>2026-09-28T08:51:05Z</time><speed>9.790</speed><sat>29</sat></trkpt>
  <trkpt lat="38.67059216" lon="34.73701044"><ele>1164.314</ele><time>2026-09-28T08:51:06Z</time><speed>9.900</speed><sat>28</sat></trkpt>
  <trkpt lat="38.67056812" lon="34.73689805"><ele>1164.451</ele><time>2026-09-28T08:51:07Z</time><speed>10.090</speed><sat>28</sat></trkpt>
  <trkpt lat="38.67054401" lon="34.73679221"><ele>1164.811</ele><time>2026-09-28T08:51:08Z</time><speed>9.680</speed><sat>28</sat></trkpt>
  <trkpt lat="38.67051506" lon="34.73670321"><ele>1164.330</ele><time>2026-09-28T08:51:09Z</time><speed>9.640</speed><sat>29</sat></trkpt>
  <trkpt lat="38.67050115" lon="34.73664024"><ele>1163.495</ele><time>2026-09-28T08:51:10Z</time><speed>7.610</speed><sat>28</sat></trkpt>
  <trkpt lat="38.67048412" lon="34.73656359"><ele>1163.521</ele><time>2026-09-28T08:51:11Z</time><speed>6.770</speed><sat>28</sat></trkpt>
  <trkpt lat="38.67046057" lon="34.73651067"><ele>1163.614</ele><time>2026-09-28T08:51:12Z</time><speed>5.660</speed><sat>28</sat></trkpt>
  <trkpt lat="38.67042164" lon="34.73646879"><ele>1166.844</ele><time>2026-09-28T08:51:13Z</time><speed>4.150</speed><sat>30</sat></trkpt>
  <trkpt lat="38.67039840" lon="34.73647422"><ele>1166.061</ele><time>2026-09-28T08:51:14Z</time><speed>2.880</speed><sat>32</sat></trkpt>
  <trkpt lat="38.67038057" lon="34.73647081"><ele>1166.000</ele><time>2026-09-28T08:51:15Z</time><speed>2.360</speed><sat>31</sat></trkpt>
  <trkpt lat="38.67036101" lon="34.73647641"><ele>1165.460</ele><time>2026-09-28T08:51:16Z</time><speed>2.460</speed><sat>31</sat></trkpt>
  <trkpt lat="38.67033496" lon="34.73647983"><ele>1165.296</ele><time>2026-09-28T08:51:17Z</time><speed>3.100</speed><sat>32</sat></trkpt>
  <trkpt lat="38.67030004" lon="34.73648140"><ele>1165.562</ele><time>2026-09-28T08:51:18Z</time><speed>3.910</speed><sat>32</sat></trkpt>
  <trkpt lat="38.67025654" lon="34.73648201"><ele>1165.116</ele><time>2026-09-28T08:51:19Z</time><speed>4.950</speed><sat>31</sat></trkpt>
  <trkpt lat="38.67020625" lon="34.73648893"><ele>1164.586</ele><time>2026-09-28T08:51:20Z</time><speed>5.220</speed><sat>29</sat></trkpt>
  <trkpt lat="38.67017080" lon="34.73647529"><ele>1164.367</ele><time>2026-09-28T08:51:21Z</time><speed>4.770</speed><sat>28</sat></trkpt>
  <trkpt lat="38.67014255" lon="34.73646312"><ele>1164.301</ele><time>2026-09-28T08:51:22Z</time><speed>3.970</speed><sat>28</sat></trkpt>
  <trkpt lat="38.67011471" lon="34.73645553"><ele>1164.358</ele><time>2026-09-28T08:51:23Z</time><speed>3.110</speed><sat>28</sat></trkpt>
  <trkpt lat="38.67009562" lon="34.73644978"><ele>1164.163</ele><time>2026-09-28T08:51:24Z</time><speed>2.040</speed><sat>27</sat></trkpt>
  <trkpt lat="38.67008077" lon="34.73645611"><ele>1163.423</ele><time>2026-09-28T08:51:25Z</time><speed>0.840</speed><sat>28</sat></trkpt>
  <trkpt lat="38.67008187" lon="34.73645307"><ele>1163.792</ele><time>2026-09-28T08:51:26Z</time><speed>0.000</speed><sat>27</sat></trkpt>
  <trkpt lat="38.67008381" lon="34.73645361"><ele>1163.876</ele><time>2026-09-28T08:51:27Z</time><speed>0.000</speed><sat>28</sat></trkpt>
  <trkpt lat="38.67008082" lon="34.73645197"><ele>1164.203</ele><time>2026-09-28T08:51:28Z</time><speed>0.000</speed><sat>29</sat></trkpt>
  <trkpt lat="38.67007968" lon="34.73644913"><ele>1164.248</ele><time>2026-09-28T08:51:29Z</time><speed>0.000</speed><sat>28</sat></trkpt>
  <trkpt lat="38.67008001" lon="34.73644562"><ele>1164.616</ele><time>2026-09-28T08:51:30Z</time><speed>0.000</speed><sat>27</sat></trkpt>
  <trkpt lat="38.67008026" lon="34.73644587"><ele>1164.719</ele><time>2026-09-28T08:51:31Z</time><speed>0.000</speed><sat>28</sat></trkpt>
  <trkpt lat="38.67007908" lon="34.73644838"><ele>1164.901</ele><time>2026-09-28T08:51:32Z</time><speed>0.000</speed><sat>28</sat></trkpt>
  <trkpt lat="38.67007797" lon="34.73644765"><ele>1164.764</ele><time>2026-09-28T08:51:33Z</time><speed>0.000</speed><sat>31</sat></trkpt>
  <trkpt lat="38.67007817" lon="34.73644714"><ele>1164.773</ele><time>2026-09-28T08:51:34Z</time><speed>0.000</speed><sat>31</sat></trkpt>
  <trkpt lat="38.67007843" lon="34.73644708"><ele>1164.678</ele><time>2026-09-28T08:51:35Z</time><speed>0.000</speed><sat>31</sat></trkpt>
  <trkpt lat="38.67007875" lon="34.73644688"><ele>1164.644</ele><time>2026-09-28T08:51:36Z</time><speed>0.000</speed><sat>31</sat></trkpt>
  <trkpt lat="38.67007874" lon="34.73644691"><ele>1164.592</ele><time>2026-09-28T08:51:37Z</time><speed>0.000</speed><sat>30</sat></trkpt>
  <trkpt lat="38.67007874" lon="34.73644673"><ele>1164.595</ele><time>2026-09-28T08:51:38Z</time><speed>0.000</speed><sat>31</sat></trkpt>
  <trkpt lat="38.67007870" lon="34.73644669"><ele>1164.599</ele><time>2026-09-28T08:51:39Z</time><speed>0.000</speed><sat>29</sat></trkpt>
  <trkpt lat="38.67010114" lon="34.73645804"><ele>1164.463</ele><time>2026-09-28T08:51:40Z</time><speed>2.050</speed><sat>26</sat></trkpt>
  <trkpt lat="38.67008979" lon="34.73643586"><ele>1166.774</ele><time>2026-09-28T08:51:41Z</time><speed>0.950</speed><sat>26</sat></trkpt>
  <trkpt lat="38.67010239" lon="34.73643241"><ele>1167.266</ele><time>2026-09-28T08:51:42Z</time><speed>1.390</speed><sat>26</sat></trkpt>
  <trkpt lat="38.67009793" lon="34.73644713"><ele>1167.741</ele><time>2026-09-28T08:51:43Z</time><speed>0.460</speed><sat>26</sat></trkpt>
  <trkpt lat="38.67010686" lon="34.73644470"><ele>1167.700</ele><time>2026-09-28T08:51:44Z</time><speed>0.300</speed><sat>27</sat></trkpt>
  <trkpt lat="38.67010500" lon="34.73644292"><ele>1167.228</ele><time>2026-09-28T08:51:45Z</time><speed>0.000</speed><sat>24</sat></trkpt>
  <trkpt lat="38.67010122" lon="34.73644352"><ele>1167.126</ele><time>2026-09-28T08:51:46Z</time><speed>0.000</speed><sat>26</sat></trkpt>
  <trkpt lat="38.67009907" lon="34.73644203"><ele>1167.452</ele><time>2026-09-28T08:51:47Z</time><speed>0.000</speed><sat>25</sat></trkpt>
  <trkpt lat="38.67009855" lon="34.73644049"><ele>1167.602</ele><time>2026-09-28T08:51:48Z</time><speed>0.000</speed><sat>24</sat></trkpt>
  <trkpt lat="38.67009741" lon="34.73643970"><ele>1167.784</ele><time>2026-09-28T08:51:49Z</time><speed>0.000</speed><sat>24</sat></trkpt>
  <trkpt lat="38.67009858" lon="34.73643925"><ele>1167.617</ele><time>2026-09-28T08:51:50Z</time><speed>0.000</speed><sat>20</sat></trkpt>
  <trkpt lat="38.67010201" lon="34.73643843"><ele>1167.525</ele><time>2026-09-28T08:51:51Z</time><speed>0.000</speed><sat>21</sat></trkpt>
  <trkpt lat="38.67010485" lon="34.73643820"><ele>1167.354</ele><time>2026-09-28T08:51:52Z</time><speed>0.000</speed><sat>18</sat></trkpt>
  <trkpt lat="38.67010643" lon="34.73643822"><ele>1167.304</ele><time>2026-09-28T08:51:53Z</time><speed>0.000</speed><sat>17</sat></trkpt>
  <trkpt lat="38.67010728" lon="34.73643821"><ele>1167.313</ele><time>2026-09-28T08:51:54Z</time><speed>0.000</speed><sat>17</sat></trkpt>
  <trkpt lat="38.67010782" lon="34.73643819"><ele>1167.312</ele><time>2026-09-28T08:51:55Z</time><speed>0.000</speed><sat>17</sat></trkpt>
  <trkpt lat="38.67010851" lon="34.73643824"><ele>1167.174</ele><time>2026-09-28T08:51:56Z</time><speed>0.000</speed><sat>15</sat></trkpt>
  <trkpt lat="38.67010890" lon="34.73643824"><ele>1167.168</ele><time>2026-09-28T08:51:57Z</time><speed>0.000</speed><sat>15</sat></trkpt>
  <trkpt lat="38.67011001" lon="34.73643673"><ele>1167.179</ele><time>2026-09-28T08:51:58Z</time><speed>0.000</speed><sat>15</sat></trkpt>
  <trkpt lat="38.67011057" lon="34.73643598"><ele>1167.179</ele><time>2026-09-28T08:51:59Z</time><speed>0.000</speed><sat>14</sat></trkpt>
  <trkpt lat="38.67011085" lon="34.73643560"><ele>1167.179</ele><time>2026-09-28T08:52:00Z</time><speed>0.000</speed><sat>8</sat></trkpt>
  <trkpt lat="38.67011101" lon="34.73643547"><ele>1167.166</ele><time>2026-09-28T08:52:01Z</time><speed>0.000</speed><sat>6</sat></trkpt>
  <trkpt lat="38.67011110" lon="34.73643540"><ele>1167.166</ele><time>2026-09-28T08:52:02Z</time><speed>0.000</speed><sat>6</sat></trkpt>
  <trkpt lat="38.67011114" lon="34.73643536"><ele>1167.166</ele><time>2026-09-28T08:52:03Z</time><speed>0.000</speed><sat>5</sat></trkpt>
  <trkpt lat="38.67011116" lon="34.73643535"><ele>1167.166</ele><time>2026-09-28T08:52:04Z</time><speed>0.000</speed><sat>3</sat></trkpt>
  <trkpt lat="38.67011204" lon="34.73643333"><ele>1167.214</ele><time>2026-09-28T08:52:05Z</time><speed>0.000</speed><sat>2</sat></trkpt>
  <trkpt lat="38.67011234" lon="34.73643213"><ele>1167.275</ele><time>2026-09-28T08:52:06Z</time><speed>0.000</speed><sat>3</sat></trkpt>
  <trkpt lat="38.67011249" lon="34.73643153"><ele>1167.275</ele><time>2026-09-28T08:52:07Z</time><speed>0.000</speed><sat>4</sat></trkpt>
  <trkpt lat="38.67011256" lon="34.73643122"><ele>1167.275</ele><time>2026-09-28T08:52:08Z</time><speed>0.000</speed><sat>3</sat></trkpt>
  <trkpt lat="38.67011260" lon="34.73643107"><ele>1167.275</ele><time>2026-09-28T08:52:09Z</time><speed>0.000</speed><sat>3</sat></trkpt>
  <trkpt lat="38.67011279" lon="34.73643116"><ele>1167.218</ele><time>2026-09-28T08:52:10Z</time><speed>0.000</speed><sat>3</sat></trkpt>
  <trkpt lat="38.67011289" lon="34.73643120"><ele>1167.218</ele><time>2026-09-28T08:52:11Z</time><speed>0.000</speed><sat>4</sat></trkpt>
  <trkpt lat="38.67018998" lon="34.73629556"><ele>1164.073</ele><time>2026-09-28T08:52:12Z</time><speed>0.700</speed><sat>3</sat></trkpt>
  <trkpt lat="38.67011391" lon="34.73642847"><ele>1167.256</ele><time>2026-09-28T08:52:15Z</time><speed>0.000</speed><sat>3</sat></trkpt>
  <trkpt lat="38.67011399" lon="34.73642828"><ele>1167.256</ele><time>2026-09-28T08:52:16Z</time><speed>0.000</speed><sat>2</sat></trkpt>
  <trkpt lat="38.67011402" lon="34.73642819"><ele>1167.256</ele><time>2026-09-28T08:52:17Z</time><speed>0.000</speed><sat>2</sat></trkpt>
  <trkpt lat="38.67011396" lon="34.73642806"><ele>1167.283</ele><time>2026-09-28T08:52:18Z</time><speed>0.000</speed><sat>2</sat></trkpt>
  <trkpt lat="38.67011393" lon="34.73642799"><ele>1167.283</ele><time>2026-09-28T08:52:19Z</time><speed>0.000</speed><sat>3</sat></trkpt>
  <trkpt lat="38.67011450" lon="34.73642637"><ele>1167.332</ele><time>2026-09-28T08:52:20Z</time><speed>0.000</speed><sat>3</sat></trkpt>
  <trkpt lat="38.67012972" lon="34.73625918"><ele>1163.812</ele><time>2026-09-28T08:52:21Z</time><speed>0.210</speed><sat>2</sat></trkpt>
  <trkpt lat="38.67011492" lon="34.73642515"><ele>1167.332</ele><time>2026-09-28T08:52:22Z</time><speed>0.000</speed><sat>2</sat></trkpt>
  <trkpt lat="38.67011502" lon="34.73642485"><ele>1167.309</ele><time>2026-09-28T08:52:23Z</time><speed>0.000</speed><sat>2</sat></trkpt>
  <trkpt lat="38.67011507" lon="34.73642469"><ele>1167.309</ele><time>2026-09-28T08:52:24Z</time><speed>0.000</speed><sat>4</sat></trkpt>
  <trkpt lat="38.67011513" lon="34.73642448"><ele>1167.330</ele><time>2026-09-28T08:52:25Z</time><speed>0.000</speed><sat>3</sat></trkpt>
  <trkpt lat="38.67011516" lon="34.73642436"><ele>1167.337</ele><time>2026-09-28T08:52:26Z</time><speed>0.000</speed><sat>5</sat></trkpt>
  <trkpt lat="38.67011582" lon="34.73642270"><ele>1167.319</ele><time>2026-09-28T08:52:27Z</time><speed>0.000</speed><sat>6</sat></trkpt>
  <trkpt lat="38.67011603" lon="34.73642165"><ele>1167.040</ele><time>2026-09-28T08:52:28Z</time><speed>0.000</speed><sat>6</sat></trkpt>
  <trkpt lat="38.67011609" lon="34.73642103"><ele>1167.061</ele><time>2026-09-28T08:52:29Z</time><speed>0.000</speed><sat>6</sat></trkpt>
  <trkpt lat="38.67011616" lon="34.73642069"><ele>1167.041</ele><time>2026-09-28T08:52:30Z</time><speed>0.000</speed><sat>7</sat></trkpt>
  <trkpt lat="38.67011619" lon="34.73642051"><ele>1167.040</ele><time>2026-09-28T08:52:31Z</time><speed>0.000</speed><sat>8</sat></trkpt>
  <trkpt lat="38.67011620" lon="34.73642040"><ele>1167.036</ele><time>2026-09-28T08:52:32Z</time><speed>0.000</speed><sat>8</sat></trkpt>
  <trkpt lat="38.67011611" lon="34.73642024"><ele>1167.049</ele><time>2026-09-28T08:52:33Z</time><speed>0.000</speed><sat>6</sat></trkpt>
  <trkpt lat="38.67011648" lon="34.73641870"><ele>1167.092</ele><time>2026-09-28T08:52:34Z</time><speed>0.000</speed><sat>6</sat></trkpt>
  <trkpt lat="38.67011661" lon="34.73641782"><ele>1167.057</ele><time>2026-09-28T08:52:35Z</time><speed>0.000</speed><sat>6</sat></trkpt>
  <trkpt lat="38.67011662" lon="34.73641722"><ele>1167.048</ele><time>2026-09-28T08:52:36Z</time><speed>0.000</speed><sat>5</sat></trkpt>
  <trkpt lat="38.67011657" lon="34.73641683"><ele>1167.026</ele><time>2026-09-28T08:52:37Z</time><speed>0.000</speed><sat>5</sat></trkpt>
  <trkpt lat="38.67011655" lon="34.73641663"><ele>1167.026</ele><time>2026-09-28T08:52:38Z</time><speed>0.000</speed><sat>5</sat></trkpt>
  <trkpt lat="38.67011652" lon="34.73641641"><ele>1167.010</ele><time>2026-09-28T08:52:39Z</time><speed>0.000</speed><sat>5</sat></trkpt>
  <trkpt lat="38.67011647" lon="34.73641613"><ele>1166.965</ele><time>2026-09-28T08:52:40Z</time><speed>0.000</speed><sat>4</sat></trkpt>
  <trkpt lat="38.67011644" lon="34.73641601"><ele>1166.954</ele><time>2026-09-28T08:52:41Z</time><speed>0.000</speed><sat>4</sat></trkpt>
  <trkpt lat="38.67011693" lon="34.73641438"><ele>1167.010</ele><time>2026-09-28T08:52:42Z</time><speed>0.000</speed><sat>5</sat></trkpt>
  <trkpt lat="38.67011717" lon="34.73641358"><ele>1167.000</ele><time>2026-09-28T08:52:43Z</time><speed>0.000</speed><sat>5</sat></trkpt>
  <trkpt lat="38.67011730" lon="34.73641313"><ele>1166.979</ele><time>2026-09-28T08:52:44Z</time><speed>0.000</speed><sat>5</sat></trkpt>
  <trkpt lat="38.67011737" lon="34.73641292"><ele>1166.990</ele><time>2026-09-28T08:52:45Z</time><speed>0.000</speed><sat>5</sat></trkpt>
  <trkpt lat="38.67011741" lon="34.73641280"><ele>1166.978</ele><time>2026-09-28T08:52:46Z</time><speed>0.000</speed><sat>6</sat></trkpt>
  <trkpt lat="38.67011742" lon="34.73641273"><ele>1166.979</ele><time>2026-09-28T08:52:47Z</time><speed>0.000</speed><sat>5</sat></trkpt>
  <trkpt lat="38.67011743" lon="34.73641271"><ele>1166.976</ele><time>2026-09-28T08:52:48Z</time><speed>0.000</speed><sat>4</sat></trkpt>
  <trkpt lat="38.67011800" lon="34.73641143"><ele>1166.997</ele><time>2026-09-28T08:52:49Z</time><speed>0.000</speed><sat>4</sat></trkpt>
  <trkpt lat="38.67011837" lon="34.73641063"><ele>1166.943</ele><time>2026-09-28T08:52:50Z</time><speed>0.000</speed><sat>5</sat></trkpt>
  <trkpt lat="38.67011847" lon="34.73641004"><ele>1166.927</ele><time>2026-09-28T08:52:51Z</time><speed>0.000</speed><sat>8</sat></trkpt>
  <trkpt lat="38.67011852" lon="34.73640975"><ele>1166.931</ele><time>2026-09-28T08:52:52Z</time><speed>0.000</speed><sat>10</sat></trkpt>
  <trkpt lat="38.67011859" lon="34.73640954"><ele>1166.912</ele><time>2026-09-28T08:52:53Z</time><speed>0.000</speed><sat>10</sat></trkpt>
  <trkpt lat="38.67011869" lon="34.73640937"><ele>1166.898</ele><time>2026-09-28T08:52:54Z</time><speed>0.000</speed><sat>10</sat></trkpt>
  <trkpt lat="38.67011839" lon="34.73640929"><ele>1166.989</ele><time>2026-09-28T08:52:55Z</time><speed>0.000</speed><sat>10</sat></trkpt>
  <trkpt lat="38.67011866" lon="34.73640792"><ele>1167.028</ele><time>2026-09-28T08:52:56Z</time><speed>0.000</speed><sat>12</sat></trkpt>
  <trkpt lat="38.67011876" lon="34.73640717"><ele>1167.029</ele><time>2026-09-28T08:52:57Z</time><speed>0.000</speed><sat>11</sat></trkpt>
  <trkpt lat="38.67011887" lon="34.73640671"><ele>1167.009</ele><time>2026-09-28T08:52:58Z</time><speed>0.000</speed><sat>10</sat></trkpt>
  <trkpt lat="38.67011894" lon="34.73640640"><ele>1166.989</ele><time>2026-09-28T08:52:59Z</time><speed>0.000</speed><sat>10</sat></trkpt>
  <trkpt lat="38.67011899" lon="34.73640612"><ele>1166.992</ele><time>2026-09-28T08:53:00Z</time><speed>0.000</speed><sat>10</sat></trkpt>
  <trkpt lat="38.67011874" lon="34.73640605"><ele>1167.054</ele><time>2026-09-28T08:53:01Z</time><speed>0.000</speed><sat>10</sat></trkpt>
  <trkpt lat="38.67011855" lon="34.73640598"><ele>1167.088</ele><time>2026-09-28T08:53:02Z</time><speed>0.000</speed><sat>11</sat></trkpt>
  <trkpt lat="38.67011880" lon="34.73640470"><ele>1167.169</ele><time>2026-09-28T08:53:03Z</time><speed>0.000</speed><sat>11</sat></trkpt>
  <trkpt lat="38.67011893" lon="34.73640403"><ele>1167.166</ele><time>2026-09-28T08:53:04Z</time><speed>0.000</speed><sat>12</sat></trkpt>
  <trkpt lat="38.67011898" lon="34.73640371"><ele>1167.174</ele><time>2026-09-28T08:53:05Z</time><speed>0.000</speed><sat>12</sat></trkpt>
  <trkpt lat="38.67011900" lon="34.73640351"><ele>1167.173</ele><time>2026-09-28T08:53:06Z</time><speed>0.000</speed><sat>13</sat></trkpt>
  <trkpt lat="38.67011905" lon="34.73640331"><ele>1167.045</ele><time>2026-09-28T08:53:07Z</time><speed>0.000</speed><sat>13</sat></trkpt>
  <trkpt lat="38.67011921" lon="34.73640308"><ele>1166.958</ele><time>2026-09-28T08:53:08Z</time><speed>0.000</speed><sat>14</sat></trkpt>
  <trkpt lat="38.67011934" lon="34.73640285"><ele>1166.843</ele><time>2026-09-28T08:53:09Z</time><speed>0.000</speed><sat>13</sat></trkpt>
  <trkpt lat="38.67011941" lon="34.73640269"><ele>1166.845</ele><time>2026-09-28T08:53:10Z</time><speed>0.000</speed><sat>12</sat></trkpt>
  <trkpt lat="38.67011985" lon="34.73640141"><ele>1166.769</ele><time>2026-09-28T08:53:11Z</time><speed>0.000</speed><sat>12</sat></trkpt>
  <trkpt lat="38.67012009" lon="34.73640074"><ele>1166.774</ele><time>2026-09-28T08:53:12Z</time><speed>0.000</speed><sat>12</sat></trkpt>
  <trkpt lat="38.67012022" lon="34.73640038"><ele>1166.745</ele><time>2026-09-28T08:53:13Z</time><speed>0.000</speed><sat>13</sat></trkpt>
  <trkpt lat="38.67012027" lon="34.73640017"><ele>1166.751</ele><time>2026-09-28T08:53:14Z</time><speed>0.000</speed><sat>12</sat></trkpt>
  <trkpt lat="38.67012031" lon="34.73640005"><ele>1166.707</ele><time>2026-09-28T08:53:15Z</time><speed>0.000</speed><sat>9</sat></trkpt>
  <trkpt lat="38.67012034" lon="34.73639999"><ele>1166.688</ele><time>2026-09-28T08:53:16Z</time><speed>0.000</speed><sat>9</sat></trkpt>
  <trkpt lat="38.67012034" lon="34.73639998"><ele>1166.688</ele><time>2026-09-28T08:53:17Z</time><speed>0.000</speed><sat>9</sat></trkpt>
  <trkpt lat="38.67012054" lon="34.73639898"><ele>1166.732</ele><time>2026-09-28T08:53:18Z</time><speed>0.000</speed><sat>11</sat></trkpt>
  <trkpt lat="38.67012064" lon="34.73639844"><ele>1166.723</ele><time>2026-09-28T08:53:19Z</time><speed>0.000</speed><sat>10</sat></trkpt>
  <trkpt lat="38.67012068" lon="34.73639817"><ele>1166.718</ele><time>2026-09-28T08:53:20Z</time><speed>0.000</speed><sat>12</sat></trkpt>
  <trkpt lat="38.67012070" lon="34.73639803"><ele>1166.718</ele><time>2026-09-28T08:53:21Z</time><speed>0.000</speed><sat>12</sat></trkpt>
  <trkpt lat="38.67012071" lon="34.73639797"><ele>1166.718</ele><time>2026-09-28T08:53:22Z</time><speed>0.000</speed><sat>12</sat></trkpt>
  <trkpt lat="38.67012071" lon="34.73639793"><ele>1166.718</ele><time>2026-09-28T08:53:23Z</time><speed>0.000</speed><sat>11</sat></trkpt>
  <trkpt lat="38.67012071" lon="34.73639791"><ele>1166.716</ele><time>2026-09-28T08:53:24Z</time><speed>0.000</speed><sat>10</sat></trkpt>
  <trkpt lat="38.67012113" lon="34.73639681"><ele>1166.756</ele><time>2026-09-28T08:53:25Z</time><speed>0.000</speed><sat>11</sat></trkpt>
  <trkpt lat="38.67012133" lon="34.73639625"><ele>1166.756</ele><time>2026-09-28T08:53:26Z</time><speed>0.000</speed><sat>7</sat></trkpt>
  <trkpt lat="38.67012143" lon="34.73639597"><ele>1166.755</ele><time>2026-09-28T08:53:27Z</time><speed>0.000</speed><sat>6</sat></trkpt>
  <trkpt lat="38.67012149" lon="34.73639584"><ele>1166.755</ele><time>2026-09-28T08:53:28Z</time><speed>0.000</speed><sat>6</sat></trkpt>
  <trkpt lat="38.67012151" lon="34.73639576"><ele>1166.755</ele><time>2026-09-28T08:53:29Z</time><speed>0.000</speed><sat>8</sat></trkpt>
  <trkpt lat="38.67012151" lon="34.73639573"><ele>1166.755</ele><time>2026-09-28T08:53:30Z</time><speed>0.000</speed><sat>7</sat></trkpt>
  <trkpt lat="38.67012151" lon="34.73639571"><ele>1166.755</ele><time>2026-09-28T08:53:31Z</time><speed>0.000</speed><sat>6</sat></trkpt>
  <trkpt lat="38.67012151" lon="34.73639569"><ele>1166.755</ele><time>2026-09-28T08:53:32Z</time><speed>0.000</speed><sat>5</sat></trkpt>
  <trkpt lat="38.67012182" lon="34.73639457"><ele>1166.807</ele><time>2026-09-28T08:53:33Z</time><speed>0.000</speed><sat>5</sat></trkpt>
  <trkpt lat="38.67012198" lon="34.73639400"><ele>1166.806</ele><time>2026-09-28T08:53:34Z</time><speed>0.000</speed><sat>5</sat></trkpt>
  <trkpt lat="38.67012205" lon="34.73639372"><ele>1166.806</ele><time>2026-09-28T08:53:35Z</time><speed>0.000</speed><sat>4</sat></trkpt>
  <trkpt lat="38.67012209" lon="34.73639357"><ele>1166.797</ele><time>2026-09-28T08:53:36Z</time><speed>0.000</speed><sat>6</sat></trkpt>
  <trkpt lat="38.67012210" lon="34.73639349"><ele>1166.803</ele><time>2026-09-28T08:53:37Z</time><speed>0.000</speed><sat>6</sat></trkpt>
  <trkpt lat="38.67012210" lon="34.73639344"><ele>1166.829</ele><time>2026-09-28T08:53:38Z</time><speed>0.000</speed><sat>8</sat></trkpt>
  <trkpt lat="38.67012210" lon="34.73639342"><ele>1166.825</ele><time>2026-09-28T08:53:39Z</time><speed>0.000</speed><sat>8</sat></trkpt>
  <trkpt lat="38.67012233" lon="34.73639251"><ele>1166.868</ele><time>2026-09-28T08:53:40Z</time><speed>0.000</speed><sat>7</sat></trkpt>
  <trkpt lat="38.67012245" lon="34.73639207"><ele>1166.869</ele><time>2026-09-28T08:53:41Z</time><speed>0.000</speed><sat>7</sat></trkpt>
  <trkpt lat="38.67012250" lon="34.73639186"><ele>1166.867</ele><time>2026-09-28T08:53:42Z</time><speed>0.000</speed><sat>6</sat></trkpt>
  <trkpt lat="38.67012253" lon="34.73639175"><ele>1166.870</ele><time>2026-09-28T08:53:43Z</time><speed>0.000</speed><sat>5</sat></trkpt>
  <trkpt lat="38.67012254" lon="34.73639169"><ele>1166.870</ele><time>2026-09-28T08:53:44Z</time><speed>0.000</speed><sat>5</sat></trkpt>
  <trkpt lat="38.67012255" lon="34.73639166"><ele>1166.870</ele><time>2026-09-28T08:53:45Z</time><speed>0.000</speed><sat>6</sat></trkpt>
  <trkpt lat="38.67012255" lon="34.73639165"><ele>1166.870</ele><time>2026-09-28T08:53:46Z</time><speed>0.000</speed><sat>6</sat></trkpt>
  <trkpt lat="38.67012292" lon="34.73639050"><ele>1166.898</ele><time>2026-09-28T08:53:47Z</time><speed>0.000</speed><sat>7</sat></trkpt>
 </trkseg>
</trk>

</gpx>
 