<?xml version="1.0" encoding="UTF-8"?>
<!-- Created with BasicAirData GPS Logger for Android - ver. 3.3.0 -->
<!-- Track 41 = 697 TrackPoints + 0 Placemarks -->

<!-- Track Statistics (based on Total Time | Time in Movement): -->
<!--  Distance = 2.78 km -->
<!--  Duration = 11:36 | 09:24 -->
<!--  Altitude Gap = 127 m -->
<!--  Max Speed = 55 km/h -->
<!--  Avg Speed = 14.4 | 17.8 km/h -->
<!--  Direction = NW -->
<!--  Activity = car -->
<!--  Altitudes = Raw -->

<gpx version="1.0"
     creator="BasicAirData GPS Logger 3.3.0"
     xmlns="http://www.topografix.com/GPX/1/0"
     xmlns:xsi="http://www.w3.org/2001/XMLSchema-instance"
     xsi:schemaLocation="http://www.topografix.com/GPX/1/0 http://www.topografix.com/GPX/1/0/gpx.xsd">
<name>GPS Logger 20260923-140622</name>
<time>2026-09-25T19:33:48Z</time>
<keywords>car</keywords>
<bounds minlat="37.20383280" minlon="38.91367578" maxlat="37.21793196" maxlon="38.93767573" />

<trk>
 <name>Track 20260923-140622</name>
 <trkseg>
  <trkpt lat="37.20383280" lon="38.93767573"><ele>628.487</ele><time>2026-09-23T11:06:22Z</time><speed>1.250</speed><sat>36</sat></trkpt>
  <trkpt lat="37.20384362" lon="38.93766773"><ele>628.898</ele><time>2026-09-23T11:06:23Z</time><speed>1.360</speed><sat>38</sat></trkpt>
  <trkpt lat="37.20385413" lon="38.93765915"><ele>628.821</ele><time>2026-09-23T11:06:24Z</time><speed>1.340</speed><sat>39</sat></trkpt>
  <trkpt lat="37.20386355" lon="38.93764922"><ele>628.789</ele><time>2026-09-23T11:06:25Z</time><speed>1.350</speed><sat>39</sat></trkpt>
  <trkpt lat="37.20387190" lon="38.93763808"><ele>629.018</ele><time>2026-09-23T11:06:26Z</time><speed>1.340</speed><sat>39</sat></trkpt>
  <trkpt lat="37.20387940" lon="38.93762608"><ele>628.533</ele><time>2026-09-23T11:06:27Z</time><speed>1.350</speed><sat>39</sat></trkpt>
  <trkpt lat="37.20388750" lon="38.93761412"><ele>629.006</ele><time>2026-09-23T11:06:28Z</time><speed>1.360</speed><sat>39</sat></trkpt>
  <trkpt lat="37.20389570" lon="38.93760213"><ele>629.050</ele><time>2026-09-23T11:06:29Z</time><speed>1.310</speed><sat>39</sat></trkpt>
  <trkpt lat="37.20390413" lon="38.93759172"><ele>628.843</ele><time>2026-09-23T11:06:30Z</time><speed>1.270</speed><sat>39</sat></trkpt>
  <trkpt lat="37.20391292" lon="38.93758198"><ele>628.971</ele><time>2026-09-23T11:06:31Z</time><speed>1.270</speed><sat>39</sat></trkpt>
  <trkpt lat="37.20392207" lon="38.93757242"><ele>629.240</ele><time>2026-09-23T11:06:32Z</time><speed>1.320</speed><sat>38</sat></trkpt>
  <trkpt lat="37.20393090" lon="38.93756294"><ele>629.489</ele><time>2026-09-23T11:06:33Z</time><speed>1.270</speed><sat>38</sat></trkpt>
  <trkpt lat="37.20393942" lon="38.93755269"><ele>629.334</ele><time>2026-09-23T11:06:34Z</time><speed>1.320</speed><sat>38</sat></trkpt>
  <trkpt lat="37.20394775" lon="38.93754331"><ele>629.406</ele><time>2026-09-23T11:06:35Z</time><speed>1.220</speed><sat>38</sat></trkpt>
  <trkpt lat="37.20395529" lon="38.93753414"><ele>629.556</ele><time>2026-09-23T11:06:36Z</time><speed>1.160</speed><sat>38</sat></trkpt>
  <trkpt lat="37.20396233" lon="38.93752521"><ele>629.530</ele><time>2026-09-23T11:06:37Z</time><speed>1.160</speed><sat>38</sat></trkpt>
  <trkpt lat="37.20396855" lon="38.93751584"><ele>629.599</ele><time>2026-09-23T11:06:38Z</time><speed>1.070</speed><sat>38</sat></trkpt>
  <trkpt lat="37.20397433" lon="38.93750661"><ele>629.464</ele><time>2026-09-23T11:06:39Z</time><speed>1.150</speed><sat>38</sat></trkpt>
  <trkpt lat="37.20397981" lon="38.93749645"><ele>629.495</ele><time>2026-09-23T11:06:40Z</time><speed>1.170</speed><sat>38</sat></trkpt>
  <trkpt lat="37.20398467" lon="38.93748685"><ele>629.532</ele><time>2026-09-23T11:06:41Z</time><speed>1.050</speed><sat>38</sat></trkpt>
  <trkpt lat="37.20398933" lon="38.93747817"><ele>629.505</ele><time>2026-09-23T11:06:42Z</time><speed>1.050</speed><sat>38</sat></trkpt>
  <trkpt lat="37.20399438" lon="38.93746980"><ele>629.721</ele><time>2026-09-23T11:06:43Z</time><speed>1.220</speed><sat>38</sat></trkpt>
  <trkpt lat="37.20399907" lon="38.93746377"><ele>629.823</ele><time>2026-09-23T11:06:44Z</time><speed>0.710</speed><sat>38</sat></trkpt>
  <trkpt lat="37.20400077" lon="38.93746224"><ele>630.142</ele><time>2026-09-23T11:06:45Z</time><speed>0.000</speed><sat>38</sat></trkpt>
  <trkpt lat="37.20399908" lon="38.93746545"><ele>630.147</ele><time>2026-09-23T11:06:46Z</time><speed>0.000</speed><sat>38</sat></trkpt>
  <trkpt lat="37.20399803" lon="38.93746671"><ele>630.315</ele><time>2026-09-23T11:06:47Z</time><speed>0.000</speed><sat>38</sat></trkpt>
  <trkpt lat="37.20399622" lon="38.93746784"><ele>629.828</ele><time>2026-09-23T11:06:48Z</time><speed>0.210</speed><sat>38</sat></trkpt>
  <trkpt lat="37.20399555" lon="38.93746656"><ele>629.397</ele><time>2026-09-23T11:06:49Z</time><speed>0.300</speed><sat>38</sat></trkpt>
  <trkpt lat="37.20399874" lon="38.93746071"><ele>629.649</ele><time>2026-09-23T11:06:50Z</time><speed>0.890</speed><sat>38</sat></trkpt>
  <trkpt lat="37.20400415" lon="38.93745087"><ele>629.645</ele><time>2026-09-23T11:06:51Z</time><speed>1.280</speed><sat>38</sat></trkpt>
  <trkpt lat="37.20401000" lon="38.93744041"><ele>629.644</ele><time>2026-09-23T11:06:52Z</time><speed>1.260</speed><sat>37</sat></trkpt>
  <trkpt lat="37.20401690" lon="38.93743088"><ele>629.888</ele><time>2026-09-23T11:06:53Z</time><speed>1.360</speed><sat>37</sat></trkpt>
  <trkpt lat="37.20402482" lon="38.93742213"><ele>629.859</ele><time>2026-09-23T11:06:54Z</time><speed>1.290</speed><sat>38</sat></trkpt>
  <trkpt lat="37.20403302" lon="38.93741380"><ele>630.115</ele><time>2026-09-23T11:06:55Z</time><speed>1.290</speed><sat>38</sat></trkpt>
  <trkpt lat="37.20404083" lon="38.93740596"><ele>630.102</ele><time>2026-09-23T11:06:56Z</time><speed>1.260</speed><sat>38</sat></trkpt>
  <trkpt lat="37.20404840" lon="38.93739814"><ele>630.204</ele><time>2026-09-23T11:06:57Z</time><speed>1.260</speed><sat>39</sat></trkpt>
  <trkpt lat="37.20405511" lon="38.93739064"><ele>630.171</ele><time>2026-09-23T11:06:58Z</time><speed>1.150</speed><sat>39</sat></trkpt>
  <trkpt lat="37.20406095" lon="38.93738497"><ele>630.285</ele><time>2026-09-23T11:06:59Z</time><speed>0.970</speed><sat>39</sat></trkpt>
  <trkpt lat="37.20406482" lon="38.93738101"><ele>630.464</ele><time>2026-09-23T11:07:00Z</time><speed>0.430</speed><sat>39</sat></trkpt>
  <trkpt lat="37.20406542" lon="38.93737987"><ele>630.406</ele><time>2026-09-23T11:07:01Z</time><speed>0.000</speed><sat>39</sat></trkpt>
  <trkpt lat="37.20406308" lon="38.93738128"><ele>630.401</ele><time>2026-09-23T11:07:02Z</time><speed>0.000</speed><sat>39</sat></trkpt>
  <trkpt lat="37.20406215" lon="38.93738125"><ele>630.508</ele><time>2026-09-23T11:07:03Z</time><speed>0.000</speed><sat>39</sat></trkpt>
  <trkpt lat="37.20406019" lon="38.93738113"><ele>630.695</ele><time>2026-09-23T11:07:04Z</time><speed>0.240</speed><sat>39</sat></trkpt>
  <trkpt lat="37.20405889" lon="38.93738056"><ele>630.952</ele><time>2026-09-23T11:07:05Z</time><speed>0.210</speed><sat>39</sat></trkpt>
  <trkpt lat="37.20405979" lon="38.93738160"><ele>630.544</ele><time>2026-09-23T11:07:06Z</time><speed>0.230</speed><sat>39</sat></trkpt>
  <trkpt lat="37.20406101" lon="38.93738363"><ele>630.434</ele><time>2026-09-23T11:07:07Z</time><speed>0.170</speed><sat>39</sat></trkpt>
  <trkpt lat="37.20406496" lon="38.93737836"><ele>630.599</ele><time>2026-09-23T11:07:08Z</time><speed>0.750</speed><sat>39</sat></trkpt>
  <trkpt lat="37.20406811" lon="38.93737187"><ele>631.060</ele><time>2026-09-23T11:07:09Z</time><speed>0.260</speed><sat>39</sat></trkpt>
  <trkpt lat="37.20406977" lon="38.93736789"><ele>630.974</ele><time>2026-09-23T11:07:10Z</time><speed>0.360</speed><sat>39</sat></trkpt>
  <trkpt lat="37.20407001" lon="38.93736451"><ele>631.055</ele><time>2026-09-23T11:07:11Z</time><speed>0.000</speed><sat>39</sat></trkpt>
  <trkpt lat="37.20406840" lon="38.93736148"><ele>631.059</ele><time>2026-09-23T11:07:12Z</time><speed>0.000</speed><sat>39</sat></trkpt>
  <trkpt lat="37.20406753" lon="38.93736006"><ele>631.059</ele><time>2026-09-23T11:07:13Z</time><speed>0.000</speed><sat>39</sat></trkpt>
  <trkpt lat="37.20406710" lon="38.93735935"><ele>631.065</ele><time>2026-09-23T11:07:14Z</time><speed>0.000</speed><sat>39</sat></trkpt>
  <trkpt lat="37.20406688" lon="38.93735898"><ele>631.064</ele><time>2026-09-23T11:07:15Z</time><speed>0.000</speed><sat>39</sat></trkpt>
  <trkpt lat="37.20406860" lon="38.93735734"><ele>630.817</ele><time>2026-09-23T11:07:16Z</time><speed>0.350</speed><sat>39</sat></trkpt>
  <trkpt lat="37.20407254" lon="38.93735142"><ele>631.205</ele><time>2026-09-23T11:07:17Z</time><speed>0.810</speed><sat>39</sat></trkpt>
  <trkpt lat="37.20407638" lon="38.93734521"><ele>630.912</ele><time>2026-09-23T11:07:18Z</time><speed>0.590</speed><sat>39</sat></trkpt>
  <trkpt lat="37.20408093" lon="38.93733764"><ele>630.397</ele><time>2026-09-23T11:07:19Z</time><speed>1.070</speed><sat>39</sat></trkpt>
  <trkpt lat="37.20408507" lon="38.93732620"><ele>630.621</ele><time>2026-09-23T11:07:20Z</time><speed>1.390</speed><sat>39</sat></trkpt>
  <trkpt lat="37.20409088" lon="38.93731605"><ele>630.693</ele><time>2026-09-23T11:07:21Z</time><speed>1.170</speed><sat>38</sat></trkpt>
  <trkpt lat="37.20409622" lon="38.93730927"><ele>630.249</ele><time>2026-09-23T11:07:22Z</time><speed>0.640</speed><sat>38</sat></trkpt>
  <trkpt lat="37.20409889" lon="38.93730716"><ele>630.081</ele><time>2026-09-23T11:07:23Z</time><speed>0.000</speed><sat>38</sat></trkpt>
  <trkpt lat="37.20409909" lon="38.93730719"><ele>630.351</ele><time>2026-09-23T11:07:24Z</time><speed>0.000</speed><sat>38</sat></trkpt>
  <trkpt lat="37.20409850" lon="38.93730831"><ele>630.360</ele><time>2026-09-23T11:07:25Z</time><speed>0.000</speed><sat>38</sat></trkpt>
  <trkpt lat="37.20409813" lon="38.93730892"><ele>630.365</ele><time>2026-09-23T11:07:26Z</time><speed>0.000</speed><sat>39</sat></trkpt>
  <trkpt lat="37.20409687" lon="38.93730895"><ele>630.426</ele><time>2026-09-23T11:07:27Z</time><speed>0.000</speed><sat>39</sat></trkpt>
  <trkpt lat="37.20409574" lon="38.93730874"><ele>630.688</ele><time>2026-09-23T11:07:28Z</time><speed>0.000</speed><sat>39</sat></trkpt>
  <trkpt lat="37.20409436" lon="38.93730845"><ele>630.690</ele><time>2026-09-23T11:07:29Z</time><speed>0.000</speed><sat>39</sat></trkpt>
  <trkpt lat="37.20409374" lon="38.93730815"><ele>630.696</ele><time>2026-09-23T11:07:30Z</time><speed>0.000</speed><sat>39</sat></trkpt>
  <trkpt lat="37.20409344" lon="38.93730801"><ele>630.699</ele><time>2026-09-23T11:07:31Z</time><speed>0.000</speed><sat>39</sat></trkpt>
  <trkpt lat="37.20409330" lon="38.93730789"><ele>630.706</ele><time>2026-09-23T11:07:32Z</time><speed>0.000</speed><sat>39</sat></trkpt>
  <trkpt lat="37.20409322" lon="38.93730780"><ele>630.710</ele><time>2026-09-23T11:07:33Z</time><speed>0.000</speed><sat>39</sat></trkpt>
  <trkpt lat="37.20409410" lon="38.93730682"><ele>630.805</ele><time>2026-09-23T11:07:34Z</time><speed>0.000</speed><sat>39</sat></trkpt>
  <trkpt lat="37.20409790" lon="38.93730406"><ele>630.539</ele><time>2026-09-23T11:07:35Z</time><speed>0.690</speed><sat>39</sat></trkpt>
  <trkpt lat="37.20410524" lon="38.93729692"><ele>630.522</ele><time>2026-09-23T11:07:36Z</time><speed>1.280</speed><sat>39</sat></trkpt>
  <trkpt lat="37.20411421" lon="38.93728810"><ele>630.177</ele><time>2026-09-23T11:07:37Z</time><speed>1.390</speed><sat>39</sat></trkpt>
  <trkpt lat="37.20412197" lon="38.93727756"><ele>629.902</ele><time>2026-09-23T11:07:38Z</time><speed>1.400</speed><sat>39</sat></trkpt>
  <trkpt lat="37.20412930" lon="38.93726674"><ele>629.748</ele><time>2026-09-23T11:07:39Z</time><speed>1.390</speed><sat>39</sat></trkpt>
  <trkpt lat="37.20413476" lon="38.93725703"><ele>630.612</ele><time>2026-09-23T11:07:40Z</time><speed>1.210</speed><sat>39</sat></trkpt>
  <trkpt lat="37.20414178" lon="38.93724942"><ele>630.101</ele><time>2026-09-23T11:07:41Z</time><speed>1.230</speed><sat>38</sat></trkpt>
  <trkpt lat="37.20414976" lon="38.93723995"><ele>630.692</ele><time>2026-09-23T11:07:42Z</time><speed>1.400</speed><sat>38</sat></trkpt>
  <trkpt lat="37.20415867" lon="38.93722811"><ele>630.900</ele><time>2026-09-23T11:07:43Z</time><speed>1.500</speed><sat>38</sat></trkpt>
  <trkpt lat="37.20416408" lon="38.93721557"><ele>630.753</ele><time>2026-09-23T11:07:44Z</time><speed>1.420</speed><sat>39</sat></trkpt>
  <trkpt lat="37.20416960" lon="38.93720078"><ele>631.003</ele><time>2026-09-23T11:07:45Z</time><speed>1.790</speed><sat>39</sat></trkpt>
  <trkpt lat="37.20417646" lon="38.93718377"><ele>631.181</ele><time>2026-09-23T11:07:46Z</time><speed>1.810</speed><sat>39</sat></trkpt>
  <trkpt lat="37.20418442" lon="38.93716823"><ele>631.589</ele><time>2026-09-23T11:07:47Z</time><speed>1.720</speed><sat>39</sat></trkpt>
  <trkpt lat="37.20419333" lon="38.93715799"><ele>631.613</ele><time>2026-09-23T11:07:48Z</time><speed>1.610</speed><sat>39</sat></trkpt>
  <trkpt lat="37.20419683" lon="38.93714789"><ele>632.616</ele><time>2026-09-23T11:07:49Z</time><speed>1.420</speed><sat>39</sat></trkpt>
  <trkpt lat="37.20419719" lon="38.93713737"><ele>632.779</ele><time>2026-09-23T11:07:50Z</time><speed>1.460</speed><sat>39</sat></trkpt>
  <trkpt lat="37.20419788" lon="38.93712560"><ele>632.038</ele><time>2026-09-23T11:07:51Z</time><speed>1.350</speed><sat>39</sat></trkpt>
  <trkpt lat="37.20420066" lon="38.93711318"><ele>631.305</ele><time>2026-09-23T11:07:52Z</time><speed>1.520</speed><sat>39</sat></trkpt>
  <trkpt lat="37.20420848" lon="38.93710192"><ele>631.388</ele><time>2026-09-23T11:07:53Z</time><speed>1.630</speed><sat>38</sat></trkpt>
  <trkpt lat="37.20421953" lon="38.93709201"><ele>631.502</ele><time>2026-09-23T11:07:54Z</time><speed>1.580</speed><sat>34</sat></trkpt>
  <trkpt lat="37.20422917" lon="38.93708309"><ele>632.030</ele><time>2026-09-23T11:07:55Z</time><speed>1.370</speed><sat>33</sat></trkpt>
  <trkpt lat="37.20423662" lon="38.93707251"><ele>632.376</ele><time>2026-09-23T11:07:56Z</time><speed>1.420</speed><sat>35</sat></trkpt>
  <trkpt lat="37.20424244" lon="38.93706118"><ele>633.121</ele><time>2026-09-23T11:07:57Z</time><speed>1.270</speed><sat>37</sat></trkpt>
  <trkpt lat="37.20424959" lon="38.93704896"><ele>633.073</ele><time>2026-09-23T11:07:58Z</time><speed>1.550</speed><sat>37</sat></trkpt>
  <trkpt lat="37.20426011" lon="38.93703635"><ele>633.375</ele><time>2026-09-23T11:07:59Z</time><speed>1.680</speed><sat>37</sat></trkpt>
  <trkpt lat="37.20427247" lon="38.93702293"><ele>633.396</ele><time>2026-09-23T11:08:00Z</time><speed>1.780</speed><sat>37</sat></trkpt>
  <trkpt lat="37.20428597" lon="38.93700583"><ele>633.145</ele><time>2026-09-23T11:08:01Z</time><speed>2.090</speed><sat>37</sat></trkpt>
  <trkpt lat="37.20430177" lon="38.93698323"><ele>632.616</ele><time>2026-09-23T11:08:02Z</time><speed>2.570</speed><sat>37</sat></trkpt>
  <trkpt lat="37.20432576" lon="38.93696754"><ele>632.294</ele><time>2026-09-23T11:08:03Z</time><speed>3.010</speed><sat>36</sat></trkpt>
  <trkpt lat="37.20434530" lon="38.93695377"><ele>631.073</ele><time>2026-09-23T11:08:04Z</time><speed>2.160</speed><sat>34</sat></trkpt>
  <trkpt lat="37.20435973" lon="38.93694515"><ele>630.686</ele><time>2026-09-23T11:08:05Z</time><speed>1.830</speed><sat>36</sat></trkpt>
  <trkpt lat="37.20437304" lon="38.93693456"><ele>631.234</ele><time>2026-09-23T11:08:06Z</time><speed>1.960</speed><sat>36</sat></trkpt>
  <trkpt lat="37.20438150" lon="38.93692142"><ele>631.326</ele><time>2026-09-23T11:08:07Z</time><speed>1.440</speed><sat>35</sat></trkpt>
  <trkpt lat="37.20438628" lon="38.93691186"><ele>631.697</ele><time>2026-09-23T11:08:08Z</time><speed>1.220</speed><sat>35</sat></trkpt>
  <trkpt lat="37.20439168" lon="38.93690197"><ele>632.083</ele><time>2026-09-23T11:08:09Z</time><speed>1.440</speed><sat>35</sat></trkpt>
  <trkpt lat="37.20439518" lon="38.93689061"><ele>632.577</ele><time>2026-09-23T11:08:10Z</time><speed>1.550</speed><sat>35</sat></trkpt>
  <trkpt lat="37.20440117" lon="38.93687860"><ele>632.710</ele><time>2026-09-23T11:08:11Z</time><speed>1.680</speed><sat>35</sat></trkpt>
  <trkpt lat="37.20441098" lon="38.93686207"><ele>634.869</ele><time>2026-09-23T11:08:12Z</time><speed>2.010</speed><sat>35</sat></trkpt>
  <trkpt lat="37.20442219" lon="38.93684340"><ele>634.480</ele><time>2026-09-23T11:08:13Z</time><speed>2.220</speed><sat>34</sat></trkpt>
  <trkpt lat="37.20443061" lon="38.93681744"><ele>634.881</ele><time>2026-09-23T11:08:14Z</time><speed>2.640</speed><sat>34</sat></trkpt>
  <trkpt lat="37.20443799" lon="38.93679424"><ele>634.332</ele><time>2026-09-23T11:08:15Z</time><speed>1.980</speed><sat>34</sat></trkpt>
  <trkpt lat="37.20444252" lon="38.93678333"><ele>633.407</ele><time>2026-09-23T11:08:16Z</time><speed>1.180</speed><sat>36</sat></trkpt>
  <trkpt lat="37.20444958" lon="38.93677574"><ele>632.706</ele><time>2026-09-23T11:08:17Z</time><speed>1.470</speed><sat>36</sat></trkpt>
  <trkpt lat="37.20445941" lon="38.93677372"><ele>632.965</ele><time>2026-09-23T11:08:18Z</time><speed>1.170</speed><sat>36</sat></trkpt>
  <trkpt lat="37.20447339" lon="38.93677750"><ele>633.374</ele><time>2026-09-23T11:08:19Z</time><speed>1.620</speed><sat>36</sat></trkpt>
  <trkpt lat="37.20448578" lon="38.93678057"><ele>634.333</ele><time>2026-09-23T11:08:20Z</time><speed>1.240</speed><sat>37</sat></trkpt>
  <trkpt lat="37.20449842" lon="38.93677990"><ele>634.446</ele><time>2026-09-23T11:08:21Z</time><speed>1.650</speed><sat>37</sat></trkpt>
  <trkpt lat="37.20450737" lon="38.93677223"><ele>633.732</ele><time>2026-09-23T11:08:22Z</time><speed>1.190</speed><sat>37</sat></trkpt>
  <trkpt lat="37.20451398" lon="38.93675788"><ele>634.545</ele><time>2026-09-23T11:08:23Z</time><speed>1.610</speed><sat>37</sat></trkpt>
  <trkpt lat="37.20452131" lon="38.93674049"><ele>634.697</ele><time>2026-09-23T11:08:24Z</time><speed>1.480</speed><sat>38</sat></trkpt>
  <trkpt lat="37.20452894" lon="38.93672323"><ele>635.634</ele><time>2026-09-23T11:08:25Z</time><speed>1.550</speed><sat>38</sat></trkpt>
  <trkpt lat="37.20453783" lon="38.93670527"><ele>635.453</ele><time>2026-09-23T11:08:26Z</time><speed>1.600</speed><sat>38</sat></trkpt>
  <trkpt lat="37.20454746" lon="38.93668779"><ele>634.915</ele><time>2026-09-23T11:08:27Z</time><speed>1.620</speed><sat>38</sat></trkpt>
  <trkpt lat="37.20455715" lon="38.93667091"><ele>634.441</ele><time>2026-09-23T11:08:28Z</time><speed>1.620</speed><sat>38</sat></trkpt>
  <trkpt lat="37.20456651" lon="38.93665551"><ele>634.456</ele><time>2026-09-23T11:08:29Z</time><speed>1.560</speed><sat>38</sat></trkpt>
  <trkpt lat="37.20457573" lon="38.93664243"><ele>634.810</ele><time>2026-09-23T11:08:30Z</time><speed>1.510</speed><sat>38</sat></trkpt>
  <trkpt lat="37.20458573" lon="38.93663028"><ele>635.204</ele><time>2026-09-23T11:08:31Z</time><speed>1.550</speed><sat>38</sat></trkpt>
  <trkpt lat="37.20459621" lon="38.93661885"><ele>635.265</ele><time>2026-09-23T11:08:32Z</time><speed>1.550</speed><sat>38</sat></trkpt>
  <trkpt lat="37.20460558" lon="38.93660499"><ele>635.295</ele><time>2026-09-23T11:08:33Z</time><speed>1.670</speed><sat>38</sat></trkpt>
  <trkpt lat="37.20461463" lon="38.93658801"><ele>634.933</ele><time>2026-09-23T11:08:34Z</time><speed>1.900</speed><sat>38</sat></trkpt>
  <trkpt lat="37.20462263" lon="38.93657117"><ele>634.984</ele><time>2026-09-23T11:08:35Z</time><speed>1.720</speed><sat>38</sat></trkpt>
  <trkpt lat="37.20463019" lon="38.93655588"><ele>635.586</ele><time>2026-09-23T11:08:36Z</time><speed>1.630</speed><sat>37</sat></trkpt>
  <trkpt lat="37.20463476" lon="38.93654573"><ele>635.754</ele><time>2026-09-23T11:08:37Z</time><speed>0.710</speed><sat>37</sat></trkpt>
  <trkpt lat="37.20463645" lon="38.93653751"><ele>636.386</ele><time>2026-09-23T11:08:38Z</time><speed>0.710</speed><sat>37</sat></trkpt>
  <trkpt lat="37.20463708" lon="38.93653459"><ele>636.147</ele><time>2026-09-23T11:08:39Z</time><speed>0.000</speed><sat>38</sat></trkpt>
  <trkpt lat="37.20463695" lon="38.93653717"><ele>636.259</ele><time>2026-09-23T11:08:40Z</time><speed>0.000</speed><sat>38</sat></trkpt>
  <trkpt lat="37.20463695" lon="38.93653869"><ele>636.260</ele><time>2026-09-23T11:08:41Z</time><speed>0.000</speed><sat>38</sat></trkpt>
  <trkpt lat="37.20463696" lon="38.93653944"><ele>636.257</ele><time>2026-09-23T11:08:42Z</time><speed>0.000</speed><sat>38</sat></trkpt>
  <trkpt lat="37.20463699" lon="38.93653982"><ele>636.258</ele><time>2026-09-23T11:08:43Z</time><speed>0.000</speed><sat>38</sat></trkpt>
  <trkpt lat="37.20463701" lon="38.93653997"><ele>636.256</ele><time>2026-09-23T11:08:44Z</time><speed>0.000</speed><sat>38</sat></trkpt>
  <trkpt lat="37.20463706" lon="38.93654004"><ele>636.257</ele><time>2026-09-23T11:08:45Z</time><speed>0.000</speed><sat>38</sat></trkpt>
  <trkpt lat="37.20463696" lon="38.93653760"><ele>636.202</ele><time>2026-09-23T11:08:46Z</time><speed>0.150</speed><sat>38</sat></trkpt>
  <trkpt lat="37.20463918" lon="38.93653395"><ele>636.510</ele><time>2026-09-23T11:08:47Z</time><speed>0.430</speed><sat>38</sat></trkpt>
  <trkpt lat="37.20464657" lon="38.93652272"><ele>635.837</ele><time>2026-09-23T11:08:48Z</time><speed>1.640</speed><sat>38</sat></trkpt>
  <trkpt lat="37.20465818" lon="38.93650437"><ele>635.041</ele><time>2026-09-23T11:08:49Z</time><speed>2.110</speed><sat>38</sat></trkpt>
  <trkpt lat="37.20466846" lon="38.93648417"><ele>635.981</ele><time>2026-09-23T11:08:50Z</time><speed>1.830</speed><sat>38</sat></trkpt>
  <trkpt lat="37.20467619" lon="38.93646996"><ele>635.876</ele><time>2026-09-23T11:08:51Z</time><speed>1.520</speed><sat>38</sat></trkpt>
  <trkpt lat="37.20468155" lon="38.93645641"><ele>635.505</ele><time>2026-09-23T11:08:52Z</time><speed>1.710</speed><sat>38</sat></trkpt>
  <trkpt lat="37.20468764" lon="38.93644266"><ele>635.856</ele><time>2026-09-23T11:08:53Z</time><speed>1.730</speed><sat>38</sat></trkpt>
  <trkpt lat="37.20469543" lon="38.93643098"><ele>635.738</ele><time>2026-09-23T11:08:54Z</time><speed>1.600</speed><sat>38</sat></trkpt>
  <trkpt lat="37.20470452" lon="38.93642089"><ele>635.816</ele><time>2026-09-23T11:08:55Z</time><speed>1.620</speed><sat>38</sat></trkpt>
  <trkpt lat="37.20471509" lon="38.93640927"><ele>637.284</ele><time>2026-09-23T11:08:56Z</time><speed>1.760</speed><sat>37</sat></trkpt>
  <trkpt lat="37.20472648" lon="38.93639638"><ele>637.071</ele><time>2026-09-23T11:08:57Z</time><speed>1.850</speed><sat>37</sat></trkpt>
  <trkpt lat="37.20473809" lon="38.93638300"><ele>636.934</ele><time>2026-09-23T11:08:58Z</time><speed>1.860</speed><sat>37</sat></trkpt>
  <trkpt lat="37.20474886" lon="38.93637063"><ele>635.635</ele><time>2026-09-23T11:08:59Z</time><speed>1.870</speed><sat>37</sat></trkpt>
  <trkpt lat="37.20476042" lon="38.93635406"><ele>636.001</ele><time>2026-09-23T11:09:00Z</time><speed>2.070</speed><sat>37</sat></trkpt>
  <trkpt lat="37.20477114" lon="38.93633659"><ele>636.098</ele><time>2026-09-23T11:09:01Z</time><speed>1.960</speed><sat>37</sat></trkpt>
  <trkpt lat="37.20478125" lon="38.93632181"><ele>636.275</ele><time>2026-09-23T11:09:02Z</time><speed>1.690</speed><sat>37</sat></trkpt>
  <trkpt lat="37.20479140" lon="38.93630961"><ele>636.130</ele><time>2026-09-23T11:09:03Z</time><speed>1.610</speed><sat>37</sat></trkpt>
  <trkpt lat="37.20480291" lon="38.93629991"><ele>638.036</ele><time>2026-09-23T11:09:04Z</time><speed>1.670</speed><sat>37</sat></trkpt>
  <trkpt lat="37.20481415" lon="38.93628683"><ele>637.086</ele><time>2026-09-23T11:09:05Z</time><speed>1.910</speed><sat>37</sat></trkpt>
  <trkpt lat="37.20482066" lon="38.93627335"><ele>637.152</ele><time>2026-09-23T11:09:06Z</time><speed>1.360</speed><sat>37</sat></trkpt>
  <trkpt lat="37.20482799" lon="38.93625607"><ele>636.973</ele><time>2026-09-23T11:09:07Z</time><speed>2.160</speed><sat>37</sat></trkpt>
  <trkpt lat="37.20483611" lon="38.93624145"><ele>637.324</ele><time>2026-09-23T11:09:08Z</time><speed>1.260</speed><sat>37</sat></trkpt>
  <trkpt lat="37.20484379" lon="38.93623187"><ele>637.812</ele><time>2026-09-23T11:09:09Z</time><speed>1.170</speed><sat>37</sat></trkpt>
  <trkpt lat="37.20485116" lon="38.93622255"><ele>636.852</ele><time>2026-09-23T11:09:10Z</time><speed>1.230</speed><sat>37</sat></trkpt>
  <trkpt lat="37.20486089" lon="38.93621035"><ele>636.971</ele><time>2026-09-23T11:09:11Z</time><speed>1.650</speed><sat>37</sat></trkpt>
  <trkpt lat="37.20486899" lon="38.93619721"><ele>637.406</ele><time>2026-09-23T11:09:12Z</time><speed>1.270</speed><sat>37</sat></trkpt>
  <trkpt lat="37.20487608" lon="38.93618544"><ele>637.239</ele><time>2026-09-23T11:09:13Z</time><speed>1.360</speed><sat>37</sat></trkpt>
  <trkpt lat="37.20488349" lon="38.93617318"><ele>636.644</ele><time>2026-09-23T11:09:14Z</time><speed>1.300</speed><sat>37</sat></trkpt>
  <trkpt lat="37.20489333" lon="38.93616135"><ele>636.113</ele><time>2026-09-23T11:09:15Z</time><speed>1.470</speed><sat>37</sat></trkpt>
  <trkpt lat="37.20490329" lon="38.93614893"><ele>636.323</ele><time>2026-09-23T11:09:16Z</time><speed>1.430</speed><sat>37</sat></trkpt>
  <trkpt lat="37.20491282" lon="38.93613595"><ele>636.835</ele><time>2026-09-23T11:09:17Z</time><speed>1.400</speed><sat>37</sat></trkpt>
  <trkpt lat="37.20492211" lon="38.93612244"><ele>636.571</ele><time>2026-09-23T11:09:18Z</time><speed>1.420</speed><sat>37</sat></trkpt>
  <trkpt lat="37.20493126" lon="38.93610636"><ele>636.611</ele><time>2026-09-23T11:09:19Z</time><speed>1.600</speed><sat>37</sat></trkpt>
  <trkpt lat="37.20494013" lon="38.93608907"><ele>637.443</ele><time>2026-09-23T11:09:20Z</time><speed>1.550</speed><sat>37</sat></trkpt>
  <trkpt lat="37.20494574" lon="38.93607118"><ele>637.299</ele><time>2026-09-23T11:09:21Z</time><speed>1.460</speed><sat>37</sat></trkpt>
  <trkpt lat="37.20495296" lon="38.93605735"><ele>637.895</ele><time>2026-09-23T11:09:22Z</time><speed>1.290</speed><sat>37</sat></trkpt>
  <trkpt lat="37.20496186" lon="38.93604398"><ele>637.704</ele><time>2026-09-23T11:09:23Z</time><speed>1.430</speed><sat>37</sat></trkpt>
  <trkpt lat="37.20497398" lon="38.93603319"><ele>638.239</ele><time>2026-09-23T11:09:24Z</time><speed>1.370</speed><sat>37</sat></trkpt>
  <trkpt lat="37.20498555" lon="38.93602344"><ele>638.867</ele><time>2026-09-23T11:09:25Z</time><speed>1.380</speed><sat>37</sat></trkpt>
  <trkpt lat="37.20499837" lon="38.93601237"><ele>639.611</ele><time>2026-09-23T11:09:26Z</time><speed>1.500</speed><sat>37</sat></trkpt>
  <trkpt lat="37.20501076" lon="38.93599939"><ele>640.132</ele><time>2026-09-23T11:09:27Z</time><speed>1.540</speed><sat>37</sat></trkpt>
  <trkpt lat="37.20502164" lon="38.93598504"><ele>639.323</ele><time>2026-09-23T11:09:28Z</time><speed>1.540</speed><sat>37</sat></trkpt>
  <trkpt lat="37.20503091" lon="38.93597109"><ele>638.674</ele><time>2026-09-23T11:09:29Z</time><speed>1.500</speed><sat>37</sat></trkpt>
  <trkpt lat="37.20504205" lon="38.93595672"><ele>639.103</ele><time>2026-09-23T11:09:30Z</time><speed>1.600</speed><sat>37</sat></trkpt>
  <trkpt lat="37.20505296" lon="38.93594183"><ele>638.623</ele><time>2026-09-23T11:09:31Z</time><speed>1.640</speed><sat>37</sat></trkpt>
  <trkpt lat="37.20506375" lon="38.93592660"><ele>638.185</ele><time>2026-09-23T11:09:32Z</time><speed>1.680</speed><sat>37</sat></trkpt>
  <trkpt lat="37.20507288" lon="38.93591039"><ele>637.969</ele><time>2026-09-23T11:09:33Z</time><speed>1.640</speed><sat>37</sat></trkpt>
  <trkpt lat="37.20508215" lon="38.93589269"><ele>638.413</ele><time>2026-09-23T11:09:34Z</time><speed>1.770</speed><sat>37</sat></trkpt>
  <trkpt lat="37.20508917" lon="38.93587921"><ele>639.120</ele><time>2026-09-23T11:09:35Z</time><speed>1.050</speed><sat>37</sat></trkpt>
  <trkpt lat="37.20509556" lon="38.93586595"><ele>639.165</ele><time>2026-09-23T11:09:36Z</time><speed>1.570</speed><sat>37</sat></trkpt>
  <trkpt lat="37.20510413" lon="38.93585099"><ele>638.344</ele><time>2026-09-23T11:09:37Z</time><speed>1.540</speed><sat>37</sat></trkpt>
  <trkpt lat="37.20511166" lon="38.93583687"><ele>639.399</ele><time>2026-09-23T11:09:38Z</time><speed>1.270</speed><sat>37</sat></trkpt>
  <trkpt lat="37.20511976" lon="38.93582104"><ele>639.406</ele><time>2026-09-23T11:09:39Z</time><speed>1.630</speed><sat>37</sat></trkpt>
  <trkpt lat="37.20512974" lon="38.93580519"><ele>639.552</ele><time>2026-09-23T11:09:40Z</time><speed>1.570</speed><sat>37</sat></trkpt>
  <trkpt lat="37.20513988" lon="38.93579080"><ele>640.036</ele><time>2026-09-23T11:09:41Z</time><speed>1.500</speed><sat>37</sat></trkpt>
  <trkpt lat="37.20515021" lon="38.93577643"><ele>640.351</ele><time>2026-09-23T11:09:42Z</time><speed>1.590</speed><sat>37</sat></trkpt>
  <trkpt lat="37.20515951" lon="38.93575995"><ele>640.234</ele><time>2026-09-23T11:09:43Z</time><speed>1.600</speed><sat>37</sat></trkpt>
  <trkpt lat="37.20516507" lon="38.93574076"><ele>640.340</ele><time>2026-09-23T11:09:44Z</time><speed>1.660</speed><sat>37</sat></trkpt>
  <trkpt lat="37.20517019" lon="38.93572163"><ele>640.435</ele><time>2026-09-23T11:09:45Z</time><speed>1.490</speed><sat>37</sat></trkpt>
  <trkpt lat="37.20517692" lon="38.93570789"><ele>640.408</ele><time>2026-09-23T11:09:46Z</time><speed>1.070</speed><sat>37</sat></trkpt>
  <trkpt lat="37.20518680" lon="38.93569377"><ele>640.477</ele><time>2026-09-23T11:09:47Z</time><speed>1.710</speed><sat>37</sat></trkpt>
  <trkpt lat="37.20519963" lon="38.93567909"><ele>639.876</ele><time>2026-09-23T11:09:48Z</time><speed>1.680</speed><sat>37</sat></trkpt>
  <trkpt lat="37.20521057" lon="38.93566368"><ele>640.065</ele><time>2026-09-23T11:09:49Z</time><speed>1.670</speed><sat>37</sat></trkpt>
  <trkpt lat="37.20522181" lon="38.93564754"><ele>639.236</ele><time>2026-09-23T11:09:50Z</time><speed>1.810</speed><sat>37</sat></trkpt>
  <trkpt lat="37.20523396" lon="38.93563117"><ele>639.516</ele><time>2026-09-23T11:09:51Z</time><speed>1.800</speed><sat>37</sat></trkpt>
  <trkpt lat="37.20524623" lon="38.93561652"><ele>640.004</ele><time>2026-09-23T11:09:52Z</time><speed>1.750</speed><sat>37</sat></trkpt>
  <trkpt lat="37.20525846" lon="38.93560239"><ele>640.205</ele><time>2026-09-23T11:09:53Z</time><speed>1.800</speed><sat>37</sat></trkpt>
  <trkpt lat="37.20527090" lon="38.93558798"><ele>639.958</ele><time>2026-09-23T11:09:54Z</time><speed>1.860</speed><sat>37</sat></trkpt>
  <trkpt lat="37.20528194" lon="38.93557272"><ele>640.439</ele><time>2026-09-23T11:09:55Z</time><speed>1.730</speed><sat>37</sat></trkpt>
  <trkpt lat="37.20528995" lon="38.93555679"><ele>639.922</ele><time>2026-09-23T11:09:56Z</time><speed>1.620</speed><sat>37</sat></trkpt>
  <trkpt lat="37.20529667" lon="38.93553947"><ele>639.155</ele><time>2026-09-23T11:09:57Z</time><speed>1.740</speed><sat>37</sat></trkpt>
  <trkpt lat="37.20530274" lon="38.93552015"><ele>639.223</ele><time>2026-09-23T11:09:58Z</time><speed>1.820</speed><sat>37</sat></trkpt>
  <trkpt lat="37.20530892" lon="38.93550293"><ele>639.090</ele><time>2026-09-23T11:09:59Z</time><speed>1.630</speed><sat>37</sat></trkpt>
  <trkpt lat="37.20531528" lon="38.93548662"><ele>639.360</ele><time>2026-09-23T11:10:00Z</time><speed>1.620</speed><sat>37</sat></trkpt>
  <trkpt lat="37.20532149" lon="38.93547114"><ele>638.675</ele><time>2026-09-23T11:10:01Z</time><speed>1.460</speed><sat>37</sat></trkpt>
  <trkpt lat="37.20532893" lon="38.93545723"><ele>638.640</ele><time>2026-09-23T11:10:02Z</time><speed>1.520</speed><sat>37</sat></trkpt>
  <trkpt lat="37.20533898" lon="38.93544360"><ele>639.273</ele><time>2026-09-23T11:10:03Z</time><speed>1.600</speed><sat>37</sat></trkpt>
  <trkpt lat="37.20535277" lon="38.93542714"><ele>640.040</ele><time>2026-09-23T11:10:04Z</time><speed>2.040</speed><sat>37</sat></trkpt>
  <trkpt lat="37.20536727" lon="38.93541422"><ele>639.673</ele><time>2026-09-23T11:10:05Z</time><speed>1.750</speed><sat>37</sat></trkpt>
  <trkpt lat="37.20538115" lon="38.93540216"><ele>639.462</ele><time>2026-09-23T11:10:06Z</time><speed>1.850</speed><sat>37</sat></trkpt>
  <trkpt lat="37.20539506" lon="38.93539060"><ele>639.909</ele><time>2026-09-23T11:10:07Z</time><speed>1.770</speed><sat>37</sat></trkpt>
  <trkpt lat="37.20540617" lon="38.93537832"><ele>639.836</ele><time>2026-09-23T11:10:08Z</time><speed>1.630</speed><sat>37</sat></trkpt>
  <trkpt lat="37.20541754" lon="38.93536372"><ele>639.420</ele><time>2026-09-23T11:10:09Z</time><speed>1.910</speed><sat>37</sat></trkpt>
  <trkpt lat="37.20543009" lon="38.93534892"><ele>639.249</ele><time>2026-09-23T11:10:10Z</time><speed>1.940</speed><sat>37</sat></trkpt>
  <trkpt lat="37.20544220" lon="38.93533634"><ele>639.622</ele><time>2026-09-23T11:10:11Z</time><speed>1.730</speed><sat>37</sat></trkpt>
  <trkpt lat="37.20545410" lon="38.93532401"><ele>639.263</ele><time>2026-09-23T11:10:12Z</time><speed>1.840</speed><sat>37</sat></trkpt>
  <trkpt lat="37.20546534" lon="38.93531083"><ele>639.292</ele><time>2026-09-23T11:10:13Z</time><speed>1.760</speed><sat>37</sat></trkpt>
  <trkpt lat="37.20547582" lon="38.93529602"><ele>638.721</ele><time>2026-09-23T11:10:14Z</time><speed>1.810</speed><sat>37</sat></trkpt>
  <trkpt lat="37.20548646" lon="38.93528041"><ele>639.416</ele><time>2026-09-23T11:10:15Z</time><speed>1.840</speed><sat>37</sat></trkpt>
  <trkpt lat="37.20549655" lon="38.93526488"><ele>639.601</ele><time>2026-09-23T11:10:16Z</time><speed>1.810</speed><sat>37</sat></trkpt>
  <trkpt lat="37.20550349" lon="38.93524410"><ele>638.622</ele><time>2026-09-23T11:10:17Z</time><speed>2.230</speed><sat>37</sat></trkpt>
  <trkpt lat="37.20550433" lon="38.93521991"><ele>638.370</ele><time>2026-09-23T11:10:18Z</time><speed>2.150</speed><sat>37</sat></trkpt>
  <trkpt lat="37.20550422" lon="38.93520062"><ele>637.857</ele><time>2026-09-23T11:10:19Z</time><speed>1.630</speed><sat>37</sat></trkpt>
  <trkpt lat="37.20550443" lon="38.93519180"><ele>637.630</ele><time>2026-09-23T11:10:20Z</time><speed>0.690</speed><sat>37</sat></trkpt>
  <trkpt lat="37.20551113" lon="38.93518642"><ele>638.830</ele><time>2026-09-23T11:10:21Z</time><speed>0.800</speed><sat>37</sat></trkpt>
  <trkpt lat="37.20551793" lon="38.93518538"><ele>638.784</ele><time>2026-09-23T11:10:22Z</time><speed>0.490</speed><sat>37</sat></trkpt>
  <trkpt lat="37.20552798" lon="38.93518410"><ele>638.934</ele><time>2026-09-23T11:10:23Z</time><speed>0.790</speed><sat>37</sat></trkpt>
  <trkpt lat="37.20554166" lon="38.93518053"><ele>638.463</ele><time>2026-09-23T11:10:24Z</time><speed>1.450</speed><sat>37</sat></trkpt>
  <trkpt lat="37.20555666" lon="38.93517662"><ele>638.906</ele><time>2026-09-23T11:10:25Z</time><speed>1.380</speed><sat>37</sat></trkpt>
  <trkpt lat="37.20557265" lon="38.93517249"><ele>639.405</ele><time>2026-09-23T11:10:26Z</time><speed>1.570</speed><sat>36</sat></trkpt>
  <trkpt lat="37.20558174" lon="38.93517838"><ele>639.382</ele><time>2026-09-23T11:10:27Z</time><speed>0.000</speed><sat>36</sat></trkpt>
  <trkpt lat="37.20558321" lon="38.93518303"><ele>639.387</ele><time>2026-09-23T11:10:28Z</time><speed>0.000</speed><sat>36</sat></trkpt>
  <trkpt lat="37.20558362" lon="38.93518522"><ele>639.842</ele><time>2026-09-23T11:10:29Z</time><speed>0.370</speed><sat>36</sat></trkpt>
  <trkpt lat="37.20558491" lon="38.93518446"><ele>640.184</ele><time>2026-09-23T11:10:30Z</time><speed>0.600</speed><sat>36</sat></trkpt>
  <trkpt lat="37.20558918" lon="38.93517744"><ele>640.834</ele><time>2026-09-23T11:10:31Z</time><speed>1.240</speed><sat>36</sat></trkpt>
  <trkpt lat="37.20559549" lon="38.93516473"><ele>641.186</ele><time>2026-09-23T11:10:32Z</time><speed>1.740</speed><sat>35</sat></trkpt>
  <trkpt lat="37.20560080" lon="38.93514872"><ele>640.970</ele><time>2026-09-23T11:10:33Z</time><speed>1.610</speed><sat>36</sat></trkpt>
  <trkpt lat="37.20560412" lon="38.93513251"><ele>640.829</ele><time>2026-09-23T11:10:34Z</time><speed>1.660</speed><sat>37</sat></trkpt>
  <trkpt lat="37.20560720" lon="38.93511879"><ele>641.304</ele><time>2026-09-23T11:10:35Z</time><speed>1.290</speed><sat>37</sat></trkpt>
  <trkpt lat="37.20561207" lon="38.93510828"><ele>640.927</ele><time>2026-09-23T11:10:36Z</time><speed>1.400</speed><sat>37</sat></trkpt>
  <trkpt lat="37.20561988" lon="38.93509763"><ele>641.263</ele><time>2026-09-23T11:10:37Z</time><speed>1.450</speed><sat>37</sat></trkpt>
  <trkpt lat="37.20562780" lon="38.93508494"><ele>640.932</ele><time>2026-09-23T11:10:38Z</time><speed>1.570</speed><sat>37</sat></trkpt>
  <trkpt lat="37.20563567" lon="38.93507167"><ele>640.807</ele><time>2026-09-23T11:10:39Z</time><speed>1.570</speed><sat>37</sat></trkpt>
  <trkpt lat="37.20564419" lon="38.93505615"><ele>640.771</ele><time>2026-09-23T11:10:40Z</time><speed>1.680</speed><sat>37</sat></trkpt>
  <trkpt lat="37.20565242" lon="38.93504265"><ele>640.685</ele><time>2026-09-23T11:10:41Z</time><speed>1.410</speed><sat>37</sat></trkpt>
  <trkpt lat="37.20566192" lon="38.93503131"><ele>640.880</ele><time>2026-09-23T11:10:42Z</time><speed>1.460</speed><sat>37</sat></trkpt>
  <trkpt lat="37.20567293" lon="38.93501783"><ele>640.980</ele><time>2026-09-23T11:10:43Z</time><speed>1.710</speed><sat>37</sat></trkpt>
  <trkpt lat="37.20568438" lon="38.93500300"><ele>641.327</ele><time>2026-09-23T11:10:44Z</time><speed>1.700</speed><sat>37</sat></trkpt>
  <trkpt lat="37.20569618" lon="38.93498755"><ele>641.369</ele><time>2026-09-23T11:10:45Z</time><speed>1.750</speed><sat>37</sat></trkpt>
  <trkpt lat="37.20570886" lon="38.93497115"><ele>642.068</ele><time>2026-09-23T11:10:46Z</time><speed>1.820</speed><sat>37</sat></trkpt>
  <trkpt lat="37.20572004" lon="38.93495312"><ele>641.732</ele><time>2026-09-23T11:10:47Z</time><speed>1.830</speed><sat>37</sat></trkpt>
  <trkpt lat="37.20573053" lon="38.93493497"><ele>642.240</ele><time>2026-09-23T11:10:48Z</time><speed>1.820</speed><sat>37</sat></trkpt>
  <trkpt lat="37.20573973" lon="38.93491744"><ele>642.134</ele><time>2026-09-23T11:10:49Z</time><speed>1.810</speed><sat>37</sat></trkpt>
  <trkpt lat="37.20574873" lon="38.93490085"><ele>641.900</ele><time>2026-09-23T11:10:50Z</time><speed>1.730</speed><sat>37</sat></trkpt>
  <trkpt lat="37.20575931" lon="38.93488565"><ele>641.655</ele><time>2026-09-23T11:10:51Z</time><speed>1.810</speed><sat>37</sat></trkpt>
  <trkpt lat="37.20577055" lon="38.93487103"><ele>641.764</ele><time>2026-09-23T11:10:52Z</time><speed>1.800</speed><sat>37</sat></trkpt>
  <trkpt lat="37.20578292" lon="38.93485697"><ele>641.540</ele><time>2026-09-23T11:10:53Z</time><speed>1.880</speed><sat>37</sat></trkpt>
  <trkpt lat="37.20579572" lon="38.93484371"><ele>642.229</ele><time>2026-09-23T11:10:54Z</time><speed>1.850</speed><sat>37</sat></trkpt>
  <trkpt lat="37.20580962" lon="38.93483155"><ele>642.292</ele><time>2026-09-23T11:10:55Z</time><speed>1.840</speed><sat>37</sat></trkpt>
  <trkpt lat="37.20582242" lon="38.93481970"><ele>642.217</ele><time>2026-09-23T11:10:56Z</time><speed>1.780</speed><sat>37</sat></trkpt>
  <trkpt lat="37.20583349" lon="38.93480712"><ele>641.823</ele><time>2026-09-23T11:10:57Z</time><speed>1.720</speed><sat>37</sat></trkpt>
  <trkpt lat="37.20584455" lon="38.93479417"><ele>641.757</ele><time>2026-09-23T11:10:58Z</time><speed>1.770</speed><sat>37</sat></trkpt>
  <trkpt lat="37.20585451" lon="38.93477960"><ele>641.764</ele><time>2026-09-23T11:10:59Z</time><speed>1.830</speed><sat>37</sat></trkpt>
  <trkpt lat="37.20586475" lon="38.93476523"><ele>641.824</ele><time>2026-09-23T11:11:00Z</time><speed>1.780</speed><sat>37</sat></trkpt>
  <trkpt lat="37.20587405" lon="38.93475145"><ele>643.260</ele><time>2026-09-23T11:11:01Z</time><speed>1.710</speed><sat>37</sat></trkpt>
  <trkpt lat="37.20588282" lon="38.93473792"><ele>643.494</ele><time>2026-09-23T11:11:02Z</time><speed>1.760</speed><sat>37</sat></trkpt>
  <trkpt lat="37.20589190" lon="38.93472696"><ele>644.429</ele><time>2026-09-23T11:11:03Z</time><speed>1.560</speed><sat>37</sat></trkpt>
  <trkpt lat="37.20590180" lon="38.93471462"><ele>644.090</ele><time>2026-09-23T11:11:04Z</time><speed>1.810</speed><sat>37</sat></trkpt>
  <trkpt lat="37.20591157" lon="38.93470132"><ele>643.238</ele><time>2026-09-23T11:11:05Z</time><speed>1.760</speed><sat>37</sat></trkpt>
  <trkpt lat="37.20592173" lon="38.93468714"><ele>642.308</ele><time>2026-09-23T11:11:06Z</time><speed>1.830</speed><sat>37</sat></trkpt>
  <trkpt lat="37.20593256" lon="38.93467101"><ele>641.532</ele><time>2026-09-23T11:11:07Z</time><speed>1.930</speed><sat>37</sat></trkpt>
  <trkpt lat="37.20594267" lon="38.93465552"><ele>640.748</ele><time>2026-09-23T11:11:08Z</time><speed>1.840</speed><sat>37</sat></trkpt>
  <trkpt lat="37.20595282" lon="38.93464077"><ele>640.286</ele><time>2026-09-23T11:11:09Z</time><speed>1.870</speed><sat>37</sat></trkpt>
  <trkpt lat="37.20595886" lon="38.93462872"><ele>640.044</ele><time>2026-09-23T11:11:10Z</time><speed>1.520</speed><sat>37</sat></trkpt>
  <trkpt lat="37.20596575" lon="38.93461577"><ele>642.232</ele><time>2026-09-23T11:11:11Z</time><speed>1.700</speed><sat>36</sat></trkpt>
  <trkpt lat="37.20597483" lon="38.93460162"><ele>641.811</ele><time>2026-09-23T11:11:12Z</time><speed>1.730</speed><sat>36</sat></trkpt>
  <trkpt lat="37.20598484" lon="38.93458643"><ele>642.235</ele><time>2026-09-23T11:11:13Z</time><speed>1.770</speed><sat>37</sat></trkpt>
  <trkpt lat="37.20599517" lon="38.93457189"><ele>641.865</ele><time>2026-09-23T11:11:14Z</time><speed>1.780</speed><sat>37</sat></trkpt>
  <trkpt lat="37.20600517" lon="38.93455823"><ele>641.583</ele><time>2026-09-23T11:11:15Z</time><speed>1.720</speed><sat>37</sat></trkpt>
  <trkpt lat="37.20601470" lon="38.93454553"><ele>641.539</ele><time>2026-09-23T11:11:16Z</time><speed>1.500</speed><sat>37</sat></trkpt>
  <trkpt lat="37.20602415" lon="38.93453141"><ele>641.181</ele><time>2026-09-23T11:11:17Z</time><speed>1.910</speed><sat>37</sat></trkpt>
  <trkpt lat="37.20603370" lon="38.93451609"><ele>641.357</ele><time>2026-09-23T11:11:18Z</time><speed>1.700</speed><sat>37</sat></trkpt>
  <trkpt lat="37.20604245" lon="38.93450101"><ele>641.560</ele><time>2026-09-23T11:11:19Z</time><speed>1.750</speed><sat>37</sat></trkpt>
  <trkpt lat="37.20605229" lon="38.93448565"><ele>642.265</ele><time>2026-09-23T11:11:20Z</time><speed>1.730</speed><sat>37</sat></trkpt>
  <trkpt lat="37.20606123" lon="38.93447303"><ele>641.608</ele><time>2026-09-23T11:11:21Z</time><speed>1.480</speed><sat>37</sat></trkpt>
  <trkpt lat="37.20606806" lon="38.93446470"><ele>642.868</ele><time>2026-09-23T11:11:22Z</time><speed>0.920</speed><sat>37</sat></trkpt>
  <trkpt lat="37.20607687" lon="38.93445680"><ele>642.997</ele><time>2026-09-23T11:11:23Z</time><speed>1.520</speed><sat>37</sat></trkpt>
  <trkpt lat="37.20608747" lon="38.93444558"><ele>642.524</ele><time>2026-09-23T11:11:24Z</time><speed>1.630</speed><sat>37</sat></trkpt>
  <trkpt lat="37.20609916" lon="38.93443086"><ele>641.886</ele><time>2026-09-23T11:11:25Z</time><speed>1.780</speed><sat>37</sat></trkpt>
  <trkpt lat="37.20611104" lon="38.93441441"><ele>641.816</ele><time>2026-09-23T11:11:26Z</time><speed>1.840</speed><sat>37</sat></trkpt>
  <trkpt lat="37.20612232" lon="38.93439825"><ele>642.474</ele><time>2026-09-23T11:11:27Z</time><speed>1.790</speed><sat>37</sat></trkpt>
  <trkpt lat="37.20613376" lon="38.93438191"><ele>642.948</ele><time>2026-09-23T11:11:28Z</time><speed>1.850</speed><sat>37</sat></trkpt>
  <trkpt lat="37.20614585" lon="38.93436660"><ele>642.789</ele><time>2026-09-23T11:11:29Z</time><speed>1.830</speed><sat>37</sat></trkpt>
  <trkpt lat="37.20615837" lon="38.93435231"><ele>642.375</ele><time>2026-09-23T11:11:30Z</time><speed>1.850</speed><sat>37</sat></trkpt>
  <trkpt lat="37.20617121" lon="38.93433601"><ele>642.410</ele><time>2026-09-23T11:11:31Z</time><speed>1.990</speed><sat>37</sat></trkpt>
  <trkpt lat="37.20618343" lon="38.93431826"><ele>643.155</ele><time>2026-09-23T11:11:32Z</time><speed>1.990</speed><sat>37</sat></trkpt>
  <trkpt lat="37.20619436" lon="38.93430182"><ele>643.125</ele><time>2026-09-23T11:11:33Z</time><speed>1.850</speed><sat>37</sat></trkpt>
  <trkpt lat="37.20620474" lon="38.93428559"><ele>643.392</ele><time>2026-09-23T11:11:34Z</time><speed>1.840</speed><sat>37</sat></trkpt>
  <trkpt lat="37.20621510" lon="38.93426976"><ele>643.536</ele><time>2026-09-23T11:11:35Z</time><speed>1.880</speed><sat>37</sat></trkpt>
  <trkpt lat="37.20622488" lon="38.93425452"><ele>643.124</ele><time>2026-09-23T11:11:36Z</time><speed>1.850</speed><sat>37</sat></trkpt>
  <trkpt lat="37.20623519" lon="38.93424026"><ele>643.284</ele><time>2026-09-23T11:11:37Z</time><speed>1.880</speed><sat>37</sat></trkpt>
  <trkpt lat="37.20624446" lon="38.93422586"><ele>644.343</ele><time>2026-09-23T11:11:38Z</time><speed>1.710</speed><sat>37</sat></trkpt>
  <trkpt lat="37.20625266" lon="38.93421014"><ele>644.296</ele><time>2026-09-23T11:11:39Z</time><speed>1.970</speed><sat>37</sat></trkpt>
  <trkpt lat="37.20626008" lon="38.93419481"><ele>644.061</ele><time>2026-09-23T11:11:40Z</time><speed>1.630</speed><sat>37</sat></trkpt>
  <trkpt lat="37.20626785" lon="38.93418130"><ele>644.117</ele><time>2026-09-23T11:11:41Z</time><speed>1.710</speed><sat>37</sat></trkpt>
  <trkpt lat="37.20627611" lon="38.93416785"><ele>644.402</ele><time>2026-09-23T11:11:42Z</time><speed>1.670</speed><sat>37</sat></trkpt>
  <trkpt lat="37.20628435" lon="38.93415412"><ele>644.260</ele><time>2026-09-23T11:11:43Z</time><speed>1.660</speed><sat>37</sat></trkpt>
  <trkpt lat="37.20629214" lon="38.93413925"><ele>644.271</ele><time>2026-09-23T11:11:44Z</time><speed>1.710</speed><sat>37</sat></trkpt>
  <trkpt lat="37.20629937" lon="38.93412361"><ele>644.109</ele><time>2026-09-23T11:11:45Z</time><speed>1.640</speed><sat>37</sat></trkpt>
  <trkpt lat="37.20630643" lon="38.93410824"><ele>643.574</ele><time>2026-09-23T11:11:46Z</time><speed>1.670</speed><sat>37</sat></trkpt>
  <trkpt lat="37.20631395" lon="38.93409171"><ele>642.496</ele><time>2026-09-23T11:11:47Z</time><speed>1.700</speed><sat>37</sat></trkpt>
  <trkpt lat="37.20632285" lon="38.93407520"><ele>642.245</ele><time>2026-09-23T11:11:48Z</time><speed>1.720</speed><sat>37</sat></trkpt>
  <trkpt lat="37.20633018" lon="38.93405610"><ele>641.473</ele><time>2026-09-23T11:11:49Z</time><speed>1.990</speed><sat>37</sat></trkpt>
  <trkpt lat="37.20633851" lon="38.93403844"><ele>642.201</ele><time>2026-09-23T11:11:50Z</time><speed>1.720</speed><sat>37</sat></trkpt>
  <trkpt lat="37.20634855" lon="38.93402376"><ele>641.469</ele><time>2026-09-23T11:11:51Z</time><speed>1.700</speed><sat>37</sat></trkpt>
  <trkpt lat="37.20636044" lon="38.93401086"><ele>642.012</ele><time>2026-09-23T11:11:52Z</time><speed>1.620</speed><sat>37</sat></trkpt>
  <trkpt lat="37.20637247" lon="38.93399776"><ele>641.648</ele><time>2026-09-23T11:11:53Z</time><speed>1.730</speed><sat>37</sat></trkpt>
  <trkpt lat="37.20638464" lon="38.93398544"><ele>642.259</ele><time>2026-09-23T11:11:54Z</time><speed>1.600</speed><sat>37</sat></trkpt>
  <trkpt lat="37.20639558" lon="38.93397126"><ele>642.328</ele><time>2026-09-23T11:11:55Z</time><speed>1.740</speed><sat>37</sat></trkpt>
  <trkpt lat="37.20640556" lon="38.93395687"><ele>642.527</ele><time>2026-09-23T11:11:56Z</time><speed>1.630</speed><sat>37</sat></trkpt>
  <trkpt lat="37.20641483" lon="38.93394187"><ele>642.980</ele><time>2026-09-23T11:11:57Z</time><speed>1.690</speed><sat>37</sat></trkpt>
  <trkpt lat="37.20642559" lon="38.93392671"><ele>643.239</ele><time>2026-09-23T11:11:58Z</time><speed>1.760</speed><sat>37</sat></trkpt>
  <trkpt lat="37.20643812" lon="38.93391263"><ele>643.594</ele><time>2026-09-23T11:11:59Z</time><speed>1.770</speed><sat>37</sat></trkpt>
  <trkpt lat="37.20645140" lon="38.93390204"><ele>642.192</ele><time>2026-09-23T11:12:00Z</time><speed>1.650</speed><sat>37</sat></trkpt>
  <trkpt lat="37.20646503" lon="38.93389294"><ele>643.848</ele><time>2026-09-23T11:12:01Z</time><speed>1.670</speed><sat>37</sat></trkpt>
  <trkpt lat="37.20647839" lon="38.93388112"><ele>643.590</ele><time>2026-09-23T11:12:02Z</time><speed>1.890</speed><sat>37</sat></trkpt>
  <trkpt lat="37.20648884" lon="38.93386747"><ele>643.995</ele><time>2026-09-23T11:12:03Z</time><speed>1.510</speed><sat>37</sat></trkpt>
  <trkpt lat="37.20649650" lon="38.93385312"><ele>643.834</ele><time>2026-09-23T11:12:04Z</time><speed>1.580</speed><sat>37</sat></trkpt>
  <trkpt lat="37.20650437" lon="38.93383743"><ele>644.085</ele><time>2026-09-23T11:12:05Z</time><speed>1.630</speed><sat>37</sat></trkpt>
  <trkpt lat="37.20651407" lon="38.93382095"><ele>643.521</ele><time>2026-09-23T11:12:06Z</time><speed>1.760</speed><sat>37</sat></trkpt>
  <trkpt lat="37.20652482" lon="38.93380532"><ele>643.286</ele><time>2026-09-23T11:12:07Z</time><speed>1.730</speed><sat>37</sat></trkpt>
  <trkpt lat="37.20653388" lon="38.93378966"><ele>643.368</ele><time>2026-09-23T11:12:08Z</time><speed>1.610</speed><sat>37</sat></trkpt>
  <trkpt lat="37.20654137" lon="38.93377634"><ele>643.868</ele><time>2026-09-23T11:12:09Z</time><speed>1.400</speed><sat>37</sat></trkpt>
  <trkpt lat="37.20654898" lon="38.93376446"><ele>643.938</ele><time>2026-09-23T11:12:10Z</time><speed>1.440</speed><sat>37</sat></trkpt>
  <trkpt lat="37.20655598" lon="38.93375326"><ele>643.298</ele><time>2026-09-23T11:12:11Z</time><speed>1.270</speed><sat>37</sat></trkpt>
  <trkpt lat="37.20656359" lon="38.93374288"><ele>644.154</ele><time>2026-09-23T11:12:12Z</time><speed>1.330</speed><sat>37</sat></trkpt>
  <trkpt lat="37.20657150" lon="38.93373009"><ele>644.791</ele><time>2026-09-23T11:12:13Z</time><speed>1.490</speed><sat>37</sat></trkpt>
  <trkpt lat="37.20658193" lon="38.93371504"><ele>644.013</ele><time>2026-09-23T11:12:14Z</time><speed>1.920</speed><sat>37</sat></trkpt>
  <trkpt lat="37.20659324" lon="38.93369941"><ele>643.181</ele><time>2026-09-23T11:12:15Z</time><speed>1.800</speed><sat>37</sat></trkpt>
  <trkpt lat="37.20660558" lon="38.93368392"><ele>643.170</ele><time>2026-09-23T11:12:16Z</time><speed>1.970</speed><sat>37</sat></trkpt>
  <trkpt lat="37.20661873" lon="38.93366919"><ele>643.235</ele><time>2026-09-23T11:12:17Z</time><speed>1.850</speed><sat>37</sat></trkpt>
  <trkpt lat="37.20663133" lon="38.93365533"><ele>644.284</ele><time>2026-09-23T11:12:18Z</time><speed>1.790</speed><sat>37</sat></trkpt>
  <trkpt lat="37.20664454" lon="38.93364270"><ele>645.109</ele><time>2026-09-23T11:12:19Z</time><speed>1.820</speed><sat>37</sat></trkpt>
  <trkpt lat="37.20665720" lon="38.93363155"><ele>645.655</ele><time>2026-09-23T11:12:20Z</time><speed>1.660</speed><sat>37</sat></trkpt>
  <trkpt lat="37.20666962" lon="38.93361819"><ele>646.059</ele><time>2026-09-23T11:12:21Z</time><speed>2.000</speed><sat>37</sat></trkpt>
  <trkpt lat="37.20668191" lon="38.93360196"><ele>646.064</ele><time>2026-09-23T11:12:22Z</time><speed>1.930</speed><sat>37</sat></trkpt>
  <trkpt lat="37.20669289" lon="38.93358435"><ele>645.773</ele><time>2026-09-23T11:12:23Z</time><speed>1.920</speed><sat>37</sat></trkpt>
  <trkpt lat="37.20670227" lon="38.93356784"><ele>645.255</ele><time>2026-09-23T11:12:24Z</time><speed>1.720</speed><sat>37</sat></trkpt>
  <trkpt lat="37.20671029" lon="38.93355415"><ele>646.072</ele><time>2026-09-23T11:12:25Z</time><speed>1.450</speed><sat>37</sat></trkpt>
  <trkpt lat="37.20671777" lon="38.93354404"><ele>646.295</ele><time>2026-09-23T11:12:26Z</time><speed>1.210</speed><sat>37</sat></trkpt>
  <trkpt lat="37.20672767" lon="38.93353407"><ele>646.176</ele><time>2026-09-23T11:12:27Z</time><speed>1.500</speed><sat>37</sat></trkpt>
  <trkpt lat="37.20673804" lon="38.93352222"><ele>645.781</ele><time>2026-09-23T11:12:28Z</time><speed>1.550</speed><sat>37</sat></trkpt>
  <trkpt lat="37.20674591" lon="38.93350345"><ele>645.250</ele><time>2026-09-23T11:12:29Z</time><speed>1.990</speed><sat>37</sat></trkpt>
  <trkpt lat="37.20675322" lon="38.93348279"><ele>645.126</ele><time>2026-09-23T11:12:30Z</time><speed>1.780</speed><sat>37</sat></trkpt>
  <trkpt lat="37.20675412" lon="38.93346639"><ele>644.376</ele><time>2026-09-23T11:12:31Z</time><speed>1.440</speed><sat>37</sat></trkpt>
  <trkpt lat="37.20675612" lon="38.93345327"><ele>644.298</ele><time>2026-09-23T11:12:32Z</time><speed>1.410</speed><sat>37</sat></trkpt>
  <trkpt lat="37.20675754" lon="38.93345074"><ele>644.250</ele><time>2026-09-23T11:12:33Z</time><speed>0.000</speed><sat>37</sat></trkpt>
  <trkpt lat="37.20675819" lon="38.93345959"><ele>644.266</ele><time>2026-09-23T11:12:34Z</time><speed>0.000</speed><sat>37</sat></trkpt>
  <trkpt lat="37.20675855" lon="38.93346402"><ele>644.271</ele><time>2026-09-23T11:12:35Z</time><speed>0.000</speed><sat>36</sat></trkpt>
  <trkpt lat="37.20675753" lon="38.93346268"><ele>644.277</ele><time>2026-09-23T11:12:36Z</time><speed>0.470</speed><sat>36</sat></trkpt>
  <trkpt lat="37.20675815" lon="38.93345739"><ele>644.585</ele><time>2026-09-23T11:12:37Z</time><speed>0.460</speed><sat>36</sat></trkpt>
  <trkpt lat="37.20675869" lon="38.93345188"><ele>644.875</ele><time>2026-09-23T11:12:38Z</time><speed>0.520</speed><sat>36</sat></trkpt>
  <trkpt lat="37.20675847" lon="38.93344898"><ele>644.344</ele><time>2026-09-23T11:12:39Z</time><speed>0.000</speed><sat>36</sat></trkpt>
  <trkpt lat="37.20675838" lon="38.93344898"><ele>644.182</ele><time>2026-09-23T11:12:40Z</time><speed>0.000</speed><sat>36</sat></trkpt>
  <trkpt lat="37.20675840" lon="38.93344957"><ele>642.911</ele><time>2026-09-23T11:12:41Z</time><speed>0.000</speed><sat>34</sat></trkpt>
  <trkpt lat="37.20675923" lon="38.93344933"><ele>642.844</ele><time>2026-09-23T11:12:42Z</time><speed>0.150</speed><sat>33</sat></trkpt>
  <trkpt lat="37.20675979" lon="38.93345065"><ele>643.592</ele><time>2026-09-23T11:12:43Z</time><speed>0.000</speed><sat>34</sat></trkpt>
  <trkpt lat="37.20675930" lon="38.93345089"><ele>644.349</ele><time>2026-09-23T11:12:44Z</time><speed>0.240</speed><sat>34</sat></trkpt>
  <trkpt lat="37.20675342" lon="38.93344820"><ele>644.539</ele><time>2026-09-23T11:12:45Z</time><speed>0.000</speed><sat>34</sat></trkpt>
  <trkpt lat="37.20675371" lon="38.93344602"><ele>643.708</ele><time>2026-09-23T11:12:46Z</time><speed>0.550</speed><sat>35</sat></trkpt>
  <trkpt lat="37.20675925" lon="38.93343885"><ele>645.117</ele><time>2026-09-23T11:12:47Z</time><speed>1.140</speed><sat>36</sat></trkpt>
  <trkpt lat="37.20676172" lon="38.93343652"><ele>645.157</ele><time>2026-09-23T11:12:48Z</time><speed>0.000</speed><sat>36</sat></trkpt>
  <trkpt lat="37.20676154" lon="38.93343746"><ele>645.162</ele><time>2026-09-23T11:12:49Z</time><speed>0.000</speed><sat>36</sat></trkpt>
  <trkpt lat="37.20676144" lon="38.93343791"><ele>645.161</ele><time>2026-09-23T11:12:50Z</time><speed>0.000</speed><sat>35</sat></trkpt>
  <trkpt lat="37.20676558" lon="38.93342859"><ele>645.056</ele><time>2026-09-23T11:12:51Z</time><speed>0.990</speed><sat>35</sat></trkpt>
  <trkpt lat="37.20676854" lon="38.93342179"><ele>645.078</ele><time>2026-09-23T11:12:52Z</time><speed>0.000</speed><sat>34</sat></trkpt>
  <trkpt lat="37.20677459" lon="38.93341087"><ele>645.279</ele><time>2026-09-23T11:12:53Z</time><speed>1.140</speed><sat>33</sat></trkpt>
  <trkpt lat="37.20677941" lon="38.93340292"><ele>645.300</ele><time>2026-09-23T11:12:54Z</time><speed>0.000</speed><sat>32</sat></trkpt>
  <trkpt lat="37.20680197" lon="38.93336549"><ele>645.986</ele><time>2026-09-23T11:12:55Z</time><speed>6.390</speed><sat>32</sat></trkpt>
  <trkpt lat="37.20698535" lon="38.93317642"><ele>648.202</ele><time>2026-09-23T11:12:56Z</time><speed>5.850</speed><sat>32</sat></trkpt>
  <trkpt lat="37.20701965" lon="38.93313289"><ele>649.339</ele><time>2026-09-23T11:12:57Z</time><speed>5.300</speed><sat>32</sat></trkpt>
  <trkpt lat="37.20705572" lon="38.93308130"><ele>649.303</ele><time>2026-09-23T11:12:58Z</time><speed>6.060</speed><sat>32</sat></trkpt>
  <trkpt lat="37.20709392" lon="38.93301963"><ele>650.264</ele><time>2026-09-23T11:12:59Z</time><speed>6.810</speed><sat>24</sat></trkpt>
  <trkpt lat="37.20713896" lon="38.93295918"><ele>650.936</ele><time>2026-09-23T11:13:00Z</time><speed>7.740</speed><sat>25</sat></trkpt>
  <trkpt lat="37.20719113" lon="38.93288889"><ele>651.445</ele><time>2026-09-23T11:13:01Z</time><speed>8.780</speed><sat>29</sat></trkpt>
  <trkpt lat="37.20724387" lon="38.93281221"><ele>650.819</ele><time>2026-09-23T11:13:02Z</time><speed>9.460</speed><sat>31</sat></trkpt>
  <trkpt lat="37.20729882" lon="38.93273543"><ele>651.380</ele><time>2026-09-23T11:13:03Z</time><speed>9.400</speed><sat>34</sat></trkpt>
  <trkpt lat="37.20736792" lon="38.93262543"><ele>650.285</ele><time>2026-09-23T11:13:04Z</time><speed>11.200</speed><sat>34</sat></trkpt>
  <trkpt lat="37.20742766" lon="38.93253977"><ele>650.130</ele><time>2026-09-23T11:13:05Z</time><speed>10.880</speed><sat>34</sat></trkpt>
  <trkpt lat="37.20749519" lon="38.93246197"><ele>651.141</ele><time>2026-09-23T11:13:06Z</time><speed>10.590</speed><sat>34</sat></trkpt>
  <trkpt lat="37.20755595" lon="38.93236551"><ele>650.942</ele><time>2026-09-23T11:13:07Z</time><speed>10.950</speed><sat>34</sat></trkpt>
  <trkpt lat="37.20756920" lon="38.93228072"><ele>649.632</ele><time>2026-09-23T11:13:08Z</time><speed>8.350</speed><sat>34</sat></trkpt>
  <trkpt lat="37.20757940" lon="38.93215310"><ele>649.269</ele><time>2026-09-23T11:13:09Z</time><speed>10.480</speed><sat>30</sat></trkpt>
  <trkpt lat="37.20765425" lon="38.93207109"><ele>648.445</ele><time>2026-09-23T11:13:10Z</time><speed>9.730</speed><sat>29</sat></trkpt>
  <trkpt lat="37.20779558" lon="38.93199048"><ele>648.893</ele><time>2026-09-23T11:13:11Z</time><speed>10.800</speed><sat>25</sat></trkpt>
  <trkpt lat="37.20788557" lon="38.93190919"><ele>649.157</ele><time>2026-09-23T11:13:12Z</time><speed>11.430</speed><sat>21</sat></trkpt>
  <trkpt lat="37.20798415" lon="38.93181451"><ele>649.098</ele><time>2026-09-23T11:13:13Z</time><speed>12.000</speed><sat>20</sat></trkpt>
  <trkpt lat="37.20809551" lon="38.93174295"><ele>651.484</ele><time>2026-09-23T11:13:14Z</time><speed>11.800</speed><sat>20</sat></trkpt>
  <trkpt lat="37.20818458" lon="38.93165857"><ele>652.305</ele><time>2026-09-23T11:13:15Z</time><speed>11.670</speed><sat>23</sat></trkpt>
  <trkpt lat="37.20823882" lon="38.93154891"><ele>652.129</ele><time>2026-09-23T11:13:16Z</time><speed>11.970</speed><sat>24</sat></trkpt>
  <trkpt lat="37.20830068" lon="38.93145118"><ele>652.765</ele><time>2026-09-23T11:13:17Z</time><speed>11.370</speed><sat>25</sat></trkpt>
  <trkpt lat="37.20834219" lon="38.93131408"><ele>652.569</ele><time>2026-09-23T11:13:18Z</time><speed>12.630</speed><sat>27</sat></trkpt>
  <trkpt lat="37.20838809" lon="38.93119639"><ele>652.529</ele><time>2026-09-23T11:13:19Z</time><speed>12.220</speed><sat>28</sat></trkpt>
  <trkpt lat="37.20843264" lon="38.93107729"><ele>651.443</ele><time>2026-09-23T11:13:20Z</time><speed>11.470</speed><sat>27</sat></trkpt>
  <trkpt lat="37.20846901" lon="38.93093847"><ele>650.653</ele><time>2026-09-23T11:13:21Z</time><speed>12.570</speed><sat>27</sat></trkpt>
  <trkpt lat="37.20851529" lon="38.93081695"><ele>652.195</ele><time>2026-09-23T11:13:22Z</time><speed>12.270</speed><sat>28</sat></trkpt>
  <trkpt lat="37.20855449" lon="38.93069493"><ele>651.215</ele><time>2026-09-23T11:13:23Z</time><speed>11.760</speed><sat>28</sat></trkpt>
  <trkpt lat="37.20858723" lon="38.93056191"><ele>651.065</ele><time>2026-09-23T11:13:24Z</time><speed>12.240</speed><sat>28</sat></trkpt>
  <trkpt lat="37.20862088" lon="38.93043412"><ele>650.696</ele><time>2026-09-23T11:13:25Z</time><speed>11.990</speed><sat>27</sat></trkpt>
  <trkpt lat="37.20865350" lon="38.93030488"><ele>650.748</ele><time>2026-09-23T11:13:26Z</time><speed>12.060</speed><sat>26</sat></trkpt>
  <trkpt lat="37.20867107" lon="38.93017457"><ele>651.650</ele><time>2026-09-23T11:13:27Z</time><speed>11.320</speed><sat>26</sat></trkpt>
  <trkpt lat="37.20870944" lon="38.93007014"><ele>652.547</ele><time>2026-09-23T11:13:28Z</time><speed>11.340</speed><sat>28</sat></trkpt>
  <trkpt lat="37.20875160" lon="38.92993169"><ele>652.152</ele><time>2026-09-23T11:13:29Z</time><speed>12.150</speed><sat>29</sat></trkpt>
  <trkpt lat="37.20880527" lon="38.92981871"><ele>653.223</ele><time>2026-09-23T11:13:30Z</time><speed>11.850</speed><sat>30</sat></trkpt>
  <trkpt lat="37.20888269" lon="38.92971407"><ele>653.828</ele><time>2026-09-23T11:13:31Z</time><speed>12.810</speed><sat>31</sat></trkpt>
  <trkpt lat="37.20896579" lon="38.92961135"><ele>654.493</ele><time>2026-09-23T11:13:32Z</time><speed>13.200</speed><sat>34</sat></trkpt>
  <trkpt lat="37.20904648" lon="38.92949923"><ele>654.549</ele><time>2026-09-23T11:13:33Z</time><speed>13.520</speed><sat>36</sat></trkpt>
  <trkpt lat="37.20912938" lon="38.92938960"><ele>653.968</ele><time>2026-09-23T11:13:34Z</time><speed>13.770</speed><sat>36</sat></trkpt>
  <trkpt lat="37.20923784" lon="38.92928714"><ele>654.124</ele><time>2026-09-23T11:13:35Z</time><speed>14.940</speed><sat>36</sat></trkpt>
  <trkpt lat="37.20933748" lon="38.92916975"><ele>653.906</ele><time>2026-09-23T11:13:36Z</time><speed>14.980</speed><sat>36</sat></trkpt>
  <trkpt lat="37.20942315" lon="38.92907247"><ele>655.403</ele><time>2026-09-23T11:13:37Z</time><speed>13.870</speed><sat>36</sat></trkpt>
  <trkpt lat="37.20952789" lon="38.92896283"><ele>654.486</ele><time>2026-09-23T11:13:38Z</time><speed>14.830</speed><sat>36</sat></trkpt>
  <trkpt lat="37.20963786" lon="38.92885976"><ele>654.007</ele><time>2026-09-23T11:13:39Z</time><speed>14.680</speed><sat>36</sat></trkpt>
  <trkpt lat="37.20973530" lon="38.92876108"><ele>653.062</ele><time>2026-09-23T11:13:40Z</time><speed>14.270</speed><sat>37</sat></trkpt>
  <trkpt lat="37.20982137" lon="38.92865106"><ele>652.252</ele><time>2026-09-23T11:13:41Z</time><speed>13.980</speed><sat>37</sat></trkpt>
  <trkpt lat="37.20990713" lon="38.92853590"><ele>653.111</ele><time>2026-09-23T11:13:42Z</time><speed>14.290</speed><sat>36</sat></trkpt>
  <trkpt lat="37.20998119" lon="38.92842045"><ele>653.839</ele><time>2026-09-23T11:13:43Z</time><speed>13.800</speed><sat>35</sat></trkpt>
  <trkpt lat="37.21006113" lon="38.92831098"><ele>655.851</ele><time>2026-09-23T11:13:44Z</time><speed>13.860</speed><sat>35</sat></trkpt>
  <trkpt lat="37.21013075" lon="38.92819114"><ele>655.571</ele><time>2026-09-23T11:13:45Z</time><speed>13.790</speed><sat>35</sat></trkpt>
  <trkpt lat="37.21017605" lon="38.92806276"><ele>658.930</ele><time>2026-09-23T11:13:46Z</time><speed>13.500</speed><sat>34</sat></trkpt>
  <trkpt lat="37.21022869" lon="38.92793326"><ele>659.453</ele><time>2026-09-23T11:13:47Z</time><speed>13.210</speed><sat>34</sat></trkpt>
  <trkpt lat="37.21028050" lon="38.92779493"><ele>659.597</ele><time>2026-09-23T11:13:48Z</time><speed>12.790</speed><sat>31</sat></trkpt>
  <trkpt lat="37.21035225" lon="38.92767081"><ele>660.234</ele><time>2026-09-23T11:13:49Z</time><speed>13.160</speed><sat>30</sat></trkpt>
  <trkpt lat="37.21040478" lon="38.92754418"><ele>660.080</ele><time>2026-09-23T11:13:50Z</time><speed>12.970</speed><sat>30</sat></trkpt>
  <trkpt lat="37.21047102" lon="38.92742759"><ele>661.108</ele><time>2026-09-23T11:13:51Z</time><speed>12.660</speed><sat>30</sat></trkpt>
  <trkpt lat="37.21052810" lon="38.92732291"><ele>660.402</ele><time>2026-09-23T11:13:52Z</time><speed>11.780</speed><sat>31</sat></trkpt>
  <trkpt lat="37.21064807" lon="38.92724040"><ele>661.721</ele><time>2026-09-23T11:13:53Z</time><speed>12.890</speed><sat>30</sat></trkpt>
  <trkpt lat="37.21073977" lon="38.92715116"><ele>664.239</ele><time>2026-09-23T11:13:54Z</time><speed>12.160</speed><sat>30</sat></trkpt>
  <trkpt lat="37.21081843" lon="38.92705968"><ele>665.355</ele><time>2026-09-23T11:13:55Z</time><speed>12.500</speed><sat>31</sat></trkpt>
  <trkpt lat="37.21089406" lon="38.92696473"><ele>664.594</ele><time>2026-09-23T11:13:56Z</time><speed>12.210</speed><sat>30</sat></trkpt>
  <trkpt lat="37.21098331" lon="38.92683762"><ele>665.265</ele><time>2026-09-23T11:13:57Z</time><speed>13.880</speed><sat>30</sat></trkpt>
  <trkpt lat="37.21105811" lon="38.92674550"><ele>663.386</ele><time>2026-09-23T11:13:58Z</time><speed>12.410</speed><sat>29</sat></trkpt>
  <trkpt lat="37.21113858" lon="38.92665245"><ele>665.258</ele><time>2026-09-23T11:13:59Z</time><speed>12.520</speed><sat>30</sat></trkpt>
  <trkpt lat="37.21121178" lon="38.92655325"><ele>665.947</ele><time>2026-09-23T11:14:00Z</time><speed>11.930</speed><sat>30</sat></trkpt>
  <trkpt lat="37.21120972" lon="38.92645822"><ele>666.051</ele><time>2026-09-23T11:14:01Z</time><speed>9.710</speed><sat>29</sat></trkpt>
  <trkpt lat="37.21128324" lon="38.92632962"><ele>665.801</ele><time>2026-09-23T11:14:02Z</time><speed>13.320</speed><sat>28</sat></trkpt>
  <trkpt lat="37.21133080" lon="38.92621290"><ele>668.458</ele><time>2026-09-23T11:14:03Z</time><speed>12.790</speed><sat>29</sat></trkpt>
  <trkpt lat="37.21138628" lon="38.92608386"><ele>669.083</ele><time>2026-09-23T11:14:04Z</time><speed>12.360</speed><sat>30</sat></trkpt>
  <trkpt lat="37.21143598" lon="38.92594516"><ele>669.683</ele><time>2026-09-23T11:14:05Z</time><speed>12.710</speed><sat>30</sat></trkpt>
  <trkpt lat="37.21147319" lon="38.92581796"><ele>671.023</ele><time>2026-09-23T11:14:06Z</time><speed>12.370</speed><sat>30</sat></trkpt>
  <trkpt lat="37.21149245" lon="38.92567979"><ele>671.535</ele><time>2026-09-23T11:14:07Z</time><speed>12.430</speed><sat>29</sat></trkpt>
  <trkpt lat="37.21151136" lon="38.92553338"><ele>672.271</ele><time>2026-09-23T11:14:08Z</time><speed>12.840</speed><sat>30</sat></trkpt>
  <trkpt lat="37.21155821" lon="38.92539274"><ele>673.760</ele><time>2026-09-23T11:14:09Z</time><speed>13.070</speed><sat>30</sat></trkpt>
  <trkpt lat="37.21158558" lon="38.92527196"><ele>674.318</ele><time>2026-09-23T11:14:10Z</time><speed>12.340</speed><sat>28</sat></trkpt>
  <trkpt lat="37.21160063" lon="38.92513390"><ele>674.131</ele><time>2026-09-23T11:14:11Z</time><speed>12.730</speed><sat>29</sat></trkpt>
  <trkpt lat="37.21158597" lon="38.92496272"><ele>674.100</ele><time>2026-09-23T11:14:12Z</time><speed>13.740</speed><sat>28</sat></trkpt>
  <trkpt lat="37.21161979" lon="38.92478942"><ele>674.317</ele><time>2026-09-23T11:14:13Z</time><speed>14.620</speed><sat>28</sat></trkpt>
  <trkpt lat="37.21168072" lon="38.92462302"><ele>675.240</ele><time>2026-09-23T11:14:14Z</time><speed>15.180</speed><sat>30</sat></trkpt>
  <trkpt lat="37.21167108" lon="38.92448072"><ele>675.246</ele><time>2026-09-23T11:14:15Z</time><speed>14.640</speed><sat>29</sat></trkpt>
  <trkpt lat="37.21164115" lon="38.92441523"><ele>678.958</ele><time>2026-09-23T11:14:16Z</time><speed>11.910</speed><sat>28</sat></trkpt>
  <trkpt lat="37.21165424" lon="38.92433050"><ele>682.280</ele><time>2026-09-23T11:14:17Z</time><speed>10.880</speed><sat>27</sat></trkpt>
  <trkpt lat="37.21170240" lon="38.92415915"><ele>683.722</ele><time>2026-09-23T11:14:18Z</time><speed>12.730</speed><sat>25</sat></trkpt>
  <trkpt lat="37.21172268" lon="38.92400190"><ele>686.373</ele><time>2026-09-23T11:14:19Z</time><speed>13.260</speed><sat>25</sat></trkpt>
  <trkpt lat="37.21174886" lon="38.92384079"><ele>687.543</ele><time>2026-09-23T11:14:20Z</time><speed>13.840</speed><sat>26</sat></trkpt>
  <trkpt lat="37.21178875" lon="38.92368228"><ele>688.634</ele><time>2026-09-23T11:14:21Z</time><speed>13.880</speed><sat>27</sat></trkpt>
  <trkpt lat="37.21180369" lon="38.92354791"><ele>688.062</ele><time>2026-09-23T11:14:22Z</time><speed>13.030</speed><sat>29</sat></trkpt>
  <trkpt lat="37.21181634" lon="38.92339283"><ele>690.487</ele><time>2026-09-23T11:14:23Z</time><speed>13.620</speed><sat>29</sat></trkpt>
  <trkpt lat="37.21185760" lon="38.92325955"><ele>691.493</ele><time>2026-09-23T11:14:24Z</time><speed>13.340</speed><sat>31</sat></trkpt>
  <trkpt lat="37.21186533" lon="38.92310986"><ele>692.932</ele><time>2026-09-23T11:14:25Z</time><speed>13.290</speed><sat>31</sat></trkpt>
  <trkpt lat="37.21192063" lon="38.92295526"><ele>695.726</ele><time>2026-09-23T11:14:26Z</time><speed>13.790</speed><sat>31</sat></trkpt>
  <trkpt lat="37.21194240" lon="38.92280036"><ele>695.341</ele><time>2026-09-23T11:14:27Z</time><speed>13.810</speed><sat>31</sat></trkpt>
  <trkpt lat="37.21199166" lon="38.92265512"><ele>695.799</ele><time>2026-09-23T11:14:28Z</time><speed>13.620</speed><sat>30</sat></trkpt>
  <trkpt lat="37.21200551" lon="38.92251750"><ele>697.947</ele><time>2026-09-23T11:14:29Z</time><speed>13.330</speed><sat>30</sat></trkpt>
  <trkpt lat="37.21204703" lon="38.92237480"><ele>699.786</ele><time>2026-09-23T11:14:30Z</time><speed>13.310</speed><sat>31</sat></trkpt>
  <trkpt lat="37.21206972" lon="38.92223512"><ele>700.860</ele><time>2026-09-23T11:14:31Z</time><speed>13.240</speed><sat>31</sat></trkpt>
  <trkpt lat="37.21211229" lon="38.92208911"><ele>702.191</ele><time>2026-09-23T11:14:32Z</time><speed>13.270</speed><sat>31</sat></trkpt>
  <trkpt lat="37.21215549" lon="38.92194076"><ele>702.673</ele><time>2026-09-23T11:14:33Z</time><speed>13.610</speed><sat>31</sat></trkpt>
  <trkpt lat="37.21218981" lon="38.92180419"><ele>703.421</ele><time>2026-09-23T11:14:34Z</time><speed>13.220</speed><sat>32</sat></trkpt>
  <trkpt lat="37.21222456" lon="38.92165260"><ele>704.505</ele><time>2026-09-23T11:14:35Z</time><speed>13.590</speed><sat>33</sat></trkpt>
  <trkpt lat="37.21223687" lon="38.92153660"><ele>704.732</ele><time>2026-09-23T11:14:36Z</time><speed>11.950</speed><sat>32</sat></trkpt>
  <trkpt lat="37.21226073" lon="38.92139616"><ele>704.603</ele><time>2026-09-23T11:14:37Z</time><speed>12.170</speed><sat>32</sat></trkpt>
  <trkpt lat="37.21228652" lon="38.92127144"><ele>704.865</ele><time>2026-09-23T11:14:38Z</time><speed>11.870</speed><sat>30</sat></trkpt>
  <trkpt lat="37.21232752" lon="38.92113845"><ele>704.197</ele><time>2026-09-23T11:14:39Z</time><speed>12.250</speed><sat>29</sat></trkpt>
  <trkpt lat="37.21237819" lon="38.92101550"><ele>704.300</ele><time>2026-09-23T11:14:40Z</time><speed>12.040</speed><sat>23</sat></trkpt>
  <trkpt lat="37.21242985" lon="38.92090363"><ele>705.756</ele><time>2026-09-23T11:14:41Z</time><speed>11.710</speed><sat>20</sat></trkpt>
  <trkpt lat="37.21248413" lon="38.92081029"><ele>706.347</ele><time>2026-09-23T11:14:42Z</time><speed>10.660</speed><sat>22</sat></trkpt>
  <trkpt lat="37.21256175" lon="38.92069490"><ele>707.530</ele><time>2026-09-23T11:14:43Z</time><speed>12.050</speed><sat>22</sat></trkpt>
  <trkpt lat="37.21263605" lon="38.92059041"><ele>710.170</ele><time>2026-09-23T11:14:44Z</time><speed>12.070</speed><sat>24</sat></trkpt>
  <trkpt lat="37.21270269" lon="38.92048495"><ele>711.930</ele><time>2026-09-23T11:14:45Z</time><speed>12.040</speed><sat>24</sat></trkpt>
  <trkpt lat="37.21275048" lon="38.92039911"><ele>712.489</ele><time>2026-09-23T11:14:46Z</time><speed>10.590</speed><sat>26</sat></trkpt>
  <trkpt lat="37.21278538" lon="38.92031932"><ele>712.847</ele><time>2026-09-23T11:14:47Z</time><speed>9.290</speed><sat>27</sat></trkpt>
  <trkpt lat="37.21284108" lon="38.92024394"><ele>714.654</ele><time>2026-09-23T11:14:48Z</time><speed>9.530</speed><sat>27</sat></trkpt>
  <trkpt lat="37.21292549" lon="38.92016929"><ele>717.497</ele><time>2026-09-23T11:14:49Z</time><speed>9.290</speed><sat>28</sat></trkpt>
  <trkpt lat="37.21300393" lon="38.92009763"><ele>717.109</ele><time>2026-09-23T11:14:50Z</time><speed>9.210</speed><sat>27</sat></trkpt>
  <trkpt lat="37.21307817" lon="38.92002935"><ele>718.780</ele><time>2026-09-23T11:14:51Z</time><speed>9.480</speed><sat>29</sat></trkpt>
  <trkpt lat="37.21316689" lon="38.91997987"><ele>719.517</ele><time>2026-09-23T11:14:52Z</time><speed>9.610</speed><sat>29</sat></trkpt>
  <trkpt lat="37.21325280" lon="38.91992495"><ele>721.928</ele><time>2026-09-23T11:14:53Z</time><speed>9.680</speed><sat>29</sat></trkpt>
  <trkpt lat="37.21335146" lon="38.91986160"><ele>723.737</ele><time>2026-09-23T11:14:54Z</time><speed>10.830</speed><sat>31</sat></trkpt>
  <trkpt lat="37.21343342" lon="38.91978702"><ele>725.664</ele><time>2026-09-23T11:14:55Z</time><speed>10.280</speed><sat>32</sat></trkpt>
  <trkpt lat="37.21350910" lon="38.91973263"><ele>728.165</ele><time>2026-09-23T11:14:56Z</time><speed>10.200</speed><sat>31</sat></trkpt>
  <trkpt lat="37.21358239" lon="38.91966843"><ele>729.097</ele><time>2026-09-23T11:14:57Z</time><speed>10.110</speed><sat>32</sat></trkpt>
  <trkpt lat="37.21365570" lon="38.91959784"><ele>730.654</ele><time>2026-09-23T11:14:58Z</time><speed>9.880</speed><sat>33</sat></trkpt>
  <trkpt lat="37.21372812" lon="38.91952810"><ele>731.486</ele><time>2026-09-23T11:14:59Z</time><speed>9.760</speed><sat>33</sat></trkpt>
  <trkpt lat="37.21378968" lon="38.91945627"><ele>732.902</ele><time>2026-09-23T11:15:00Z</time><speed>9.720</speed><sat>34</sat></trkpt>
  <trkpt lat="37.21384974" lon="38.91937441"><ele>734.387</ele><time>2026-09-23T11:15:01Z</time><speed>9.780</speed><sat>34</sat></trkpt>
  <trkpt lat="37.21390562" lon="38.91928738"><ele>735.839</ele><time>2026-09-23T11:15:02Z</time><speed>9.970</speed><sat>34</sat></trkpt>
  <trkpt lat="37.21395732" lon="38.91918915"><ele>735.576</ele><time>2026-09-23T11:15:03Z</time><speed>10.180</speed><sat>35</sat></trkpt>
  <trkpt lat="37.21401139" lon="38.91909471"><ele>736.860</ele><time>2026-09-23T11:15:04Z</time><speed>10.420</speed><sat>35</sat></trkpt>
  <trkpt lat="37.21405476" lon="38.91899640"><ele>737.420</ele><time>2026-09-23T11:15:05Z</time><speed>10.320</speed><sat>34</sat></trkpt>
  <trkpt lat="37.21411007" lon="38.91890649"><ele>738.960</ele><time>2026-09-23T11:15:06Z</time><speed>10.170</speed><sat>34</sat></trkpt>
  <trkpt lat="37.21416150" lon="38.91880361"><ele>739.511</ele><time>2026-09-23T11:15:07Z</time><speed>10.330</speed><sat>34</sat></trkpt>
  <trkpt lat="37.21421475" lon="38.91871288"><ele>739.959</ele><time>2026-09-23T11:15:08Z</time><speed>10.230</speed><sat>33</sat></trkpt>
  <trkpt lat="37.21427273" lon="38.91863160"><ele>740.595</ele><time>2026-09-23T11:15:09Z</time><speed>10.000</speed><sat>32</sat></trkpt>
  <trkpt lat="37.21432232" lon="38.91854716"><ele>741.992</ele><time>2026-09-23T11:15:10Z</time><speed>10.480</speed><sat>32</sat></trkpt>
  <trkpt lat="37.21440437" lon="38.91846032"><ele>744.175</ele><time>2026-09-23T11:15:11Z</time><speed>11.760</speed><sat>32</sat></trkpt>
  <trkpt lat="37.21446135" lon="38.91837256"><ele>743.932</ele><time>2026-09-23T11:15:12Z</time><speed>9.930</speed><sat>33</sat></trkpt>
  <trkpt lat="37.21455068" lon="38.91828752"><ele>744.865</ele><time>2026-09-23T11:15:13Z</time><speed>10.970</speed><sat>33</sat></trkpt>
  <trkpt lat="37.21461659" lon="38.91816985"><ele>746.233</ele><time>2026-09-23T11:15:14Z</time><speed>11.350</speed><sat>33</sat></trkpt>
  <trkpt lat="37.21468790" lon="38.91808741"><ele>747.656</ele><time>2026-09-23T11:15:15Z</time><speed>11.540</speed><sat>34</sat></trkpt>
  <trkpt lat="37.21475841" lon="38.91798079"><ele>749.128</ele><time>2026-09-23T11:15:16Z</time><speed>11.950</speed><sat>34</sat></trkpt>
  <trkpt lat="37.21482185" lon="38.91788853"><ele>749.278</ele><time>2026-09-23T11:15:17Z</time><speed>10.800</speed><sat>34</sat></trkpt>
  <trkpt lat="37.21489927" lon="38.91779558"><ele>750.258</ele><time>2026-09-23T11:15:18Z</time><speed>11.610</speed><sat>35</sat></trkpt>
  <trkpt lat="37.21497642" lon="38.91771083"><ele>750.452</ele><time>2026-09-23T11:15:19Z</time><speed>11.160</speed><sat>35</sat></trkpt>
  <trkpt lat="37.21505030" lon="38.91761241"><ele>751.518</ele><time>2026-09-23T11:15:20Z</time><speed>11.770</speed><sat>35</sat></trkpt>
  <trkpt lat="37.21512591" lon="38.91751566"><ele>751.963</ele><time>2026-09-23T11:15:21Z</time><speed>12.460</speed><sat>35</sat></trkpt>
  <trkpt lat="37.21520805" lon="38.91743287"><ele>751.954</ele><time>2026-09-23T11:15:22Z</time><speed>11.410</speed><sat>34</sat></trkpt>
  <trkpt lat="37.21529829" lon="38.91737007"><ele>752.306</ele><time>2026-09-23T11:15:23Z</time><speed>11.160</speed><sat>34</sat></trkpt>
  <trkpt lat="37.21539590" lon="38.91728845"><ele>753.977</ele><time>2026-09-23T11:15:24Z</time><speed>12.100</speed><sat>33</sat></trkpt>
  <trkpt lat="37.21547592" lon="38.91723552"><ele>754.150</ele><time>2026-09-23T11:15:25Z</time><speed>11.320</speed><sat>33</sat></trkpt>
  <trkpt lat="37.21556092" lon="38.91718224"><ele>755.006</ele><time>2026-09-23T11:15:26Z</time><speed>10.970</speed><sat>37</sat></trkpt>
  <trkpt lat="37.21565188" lon="38.91712781"><ele>756.340</ele><time>2026-09-23T11:15:27Z</time><speed>10.650</speed><sat>37</sat></trkpt>
  <trkpt lat="37.21573918" lon="38.91707196"><ele>756.762</ele><time>2026-09-23T11:15:28Z</time><speed>10.640</speed><sat>37</sat></trkpt>
  <trkpt lat="37.21582738" lon="38.91701314"><ele>757.284</ele><time>2026-09-23T11:15:29Z</time><speed>10.870</speed><sat>37</sat></trkpt>
  <trkpt lat="37.21591130" lon="38.91694512"><ele>757.499</ele><time>2026-09-23T11:15:30Z</time><speed>11.330</speed><sat>37</sat></trkpt>
  <trkpt lat="37.21599051" lon="38.91686871"><ele>756.864</ele><time>2026-09-23T11:15:31Z</time><speed>11.590</speed><sat>36</sat></trkpt>
  <trkpt lat="37.21606848" lon="38.91678275"><ele>756.906</ele><time>2026-09-23T11:15:32Z</time><speed>11.590</speed><sat>36</sat></trkpt>
  <trkpt lat="37.21613903" lon="38.91667530"><ele>757.006</ele><time>2026-09-23T11:15:33Z</time><speed>12.330</speed><sat>36</sat></trkpt>
  <trkpt lat="37.21620059" lon="38.91655907"><ele>757.322</ele><time>2026-09-23T11:15:34Z</time><speed>11.960</speed><sat>36</sat></trkpt>
  <trkpt lat="37.21625100" lon="38.91644507"><ele>756.862</ele><time>2026-09-23T11:15:35Z</time><speed>11.660</speed><sat>36</sat></trkpt>
  <trkpt lat="37.21629120" lon="38.91632657"><ele>756.773</ele><time>2026-09-23T11:15:36Z</time><speed>11.840</speed><sat>35</sat></trkpt>
  <trkpt lat="37.21633186" lon="38.91620269"><ele>756.872</ele><time>2026-09-23T11:15:37Z</time><speed>11.880</speed><sat>35</sat></trkpt>
  <trkpt lat="37.21637102" lon="38.91607728"><ele>757.086</ele><time>2026-09-23T11:15:38Z</time><speed>12.050</speed><sat>35</sat></trkpt>
  <trkpt lat="37.21641077" lon="38.91595152"><ele>757.481</ele><time>2026-09-23T11:15:39Z</time><speed>12.120</speed><sat>36</sat></trkpt>
  <trkpt lat="37.21645260" lon="38.91582153"><ele>757.745</ele><time>2026-09-23T11:15:40Z</time><speed>12.110</speed><sat>37</sat></trkpt>
  <trkpt lat="37.21649385" lon="38.91569689"><ele>757.931</ele><time>2026-09-23T11:15:41Z</time><speed>11.940</speed><sat>37</sat></trkpt>
  <trkpt lat="37.21653524" lon="38.91557922"><ele>758.496</ele><time>2026-09-23T11:15:42Z</time><speed>11.600</speed><sat>37</sat></trkpt>
  <trkpt lat="37.21658179" lon="38.91546421"><ele>758.964</ele><time>2026-09-23T11:15:43Z</time><speed>11.370</speed><sat>37</sat></trkpt>
  <trkpt lat="37.21663459" lon="38.91535322"><ele>759.273</ele><time>2026-09-23T11:15:44Z</time><speed>11.250</speed><sat>37</sat></trkpt>
  <trkpt lat="37.21668729" lon="38.91524761"><ele>759.116</ele><time>2026-09-23T11:15:45Z</time><speed>11.130</speed><sat>37</sat></trkpt>
  <trkpt lat="37.21674345" lon="38.91514516"><ele>758.805</ele><time>2026-09-23T11:15:46Z</time><speed>11.000</speed><sat>37</sat></trkpt>
  <trkpt lat="37.21680060" lon="38.91504731"><ele>758.707</ele><time>2026-09-23T11:15:47Z</time><speed>10.950</speed><sat>37</sat></trkpt>
  <trkpt lat="37.21685894" lon="38.91494940"><ele>758.698</ele><time>2026-09-23T11:15:48Z</time><speed>10.890</speed><sat>36</sat></trkpt>
  <trkpt lat="37.21691866" lon="38.91485416"><ele>759.145</ele><time>2026-09-23T11:15:49Z</time><speed>10.620</speed><sat>35</sat></trkpt>
  <trkpt lat="37.21697348" lon="38.91476451"><ele>759.204</ele><time>2026-09-23T11:15:50Z</time><speed>10.140</speed><sat>35</sat></trkpt>
  <trkpt lat="37.21702541" lon="38.91467328"><ele>759.033</ele><time>2026-09-23T11:15:51Z</time><speed>9.770</speed><sat>35</sat></trkpt>
  <trkpt lat="37.21707755" lon="38.91458940"><ele>758.947</ele><time>2026-09-23T11:15:52Z</time><speed>9.430</speed><sat>37</sat></trkpt>
  <trkpt lat="37.21712777" lon="38.91450758"><ele>758.912</ele><time>2026-09-23T11:15:53Z</time><speed>9.130</speed><sat>37</sat></trkpt>
  <trkpt lat="37.21717374" lon="38.91442591"><ele>758.577</ele><time>2026-09-23T11:15:54Z</time><speed>8.930</speed><sat>37</sat></trkpt>
  <trkpt lat="37.21721766" lon="38.91434847"><ele>758.187</ele><time>2026-09-23T11:15:55Z</time><speed>8.540</speed><sat>37</sat></trkpt>
  <trkpt lat="37.21726374" lon="38.91427589"><ele>757.532</ele><time>2026-09-23T11:15:56Z</time><speed>8.230</speed><sat>36</sat></trkpt>
  <trkpt lat="37.21730374" lon="38.91420315"><ele>756.956</ele><time>2026-09-23T11:15:57Z</time><speed>7.950</speed><sat>36</sat></trkpt>
  <trkpt lat="37.21734570" lon="38.91413369"><ele>756.582</ele><time>2026-09-23T11:15:58Z</time><speed>7.620</speed><sat>35</sat></trkpt>
  <trkpt lat="37.21738560" lon="38.91406424"><ele>756.083</ele><time>2026-09-23T11:15:59Z</time><speed>7.080</speed><sat>35</sat></trkpt>
  <trkpt lat="37.21742343" lon="38.91399554"><ele>755.740</ele><time>2026-09-23T11:16:00Z</time><speed>7.130</speed><sat>36</sat></trkpt>
  <trkpt lat="37.21745268" lon="38.91393925"><ele>755.104</ele><time>2026-09-23T11:16:01Z</time><speed>5.860</speed><sat>36</sat></trkpt>
  <trkpt lat="37.21748738" lon="38.91389467"><ele>754.120</ele><time>2026-09-23T11:16:02Z</time><speed>5.690</speed><sat>36</sat></trkpt>
  <trkpt lat="37.21750459" lon="38.91386039"><ele>753.524</ele><time>2026-09-23T11:16:03Z</time><speed>3.460</speed><sat>36</sat></trkpt>
  <trkpt lat="37.21753182" lon="38.91382872"><ele>753.124</ele><time>2026-09-23T11:16:04Z</time><speed>3.730</speed><sat>36</sat></trkpt>
  <trkpt lat="37.21754509" lon="38.91379650"><ele>752.545</ele><time>2026-09-23T11:16:05Z</time><speed>2.550</speed><sat>36</sat></trkpt>
  <trkpt lat="37.21755620" lon="38.91378107"><ele>751.276</ele><time>2026-09-23T11:16:06Z</time><speed>1.530</speed><sat>35</sat></trkpt>
  <trkpt lat="37.21755523" lon="38.91377154"><ele>752.030</ele><time>2026-09-23T11:16:07Z</time><speed>0.580</speed><sat>35</sat></trkpt>
  <trkpt lat="37.21755133" lon="38.91377464"><ele>751.949</ele><time>2026-09-23T11:16:08Z</time><speed>0.000</speed><sat>34</sat></trkpt>
  <trkpt lat="37.21754157" lon="38.91377589"><ele>752.124</ele><time>2026-09-23T11:16:09Z</time><speed>0.000</speed><sat>33</sat></trkpt>
  <trkpt lat="37.21753982" lon="38.91377539"><ele>752.269</ele><time>2026-09-23T11:16:10Z</time><speed>0.000</speed><sat>34</sat></trkpt>
  <trkpt lat="37.21754317" lon="38.91377596"><ele>752.500</ele><time>2026-09-23T11:16:11Z</time><speed>0.000</speed><sat>34</sat></trkpt>
  <trkpt lat="37.21754396" lon="38.91377748"><ele>752.848</ele><time>2026-09-23T11:16:12Z</time><speed>0.000</speed><sat>34</sat></trkpt>
  <trkpt lat="37.21754379" lon="38.91377834"><ele>752.460</ele><time>2026-09-23T11:16:13Z</time><speed>0.000</speed><sat>35</sat></trkpt>
  <trkpt lat="37.21754437" lon="38.91377720"><ele>752.532</ele><time>2026-09-23T11:16:14Z</time><speed>0.000</speed><sat>35</sat></trkpt>
  <trkpt lat="37.21756683" lon="38.91374153"><ele>752.646</ele><time>2026-09-23T11:16:15Z</time><speed>3.320</speed><sat>36</sat></trkpt>
  <trkpt lat="37.21758079" lon="38.91372163"><ele>752.353</ele><time>2026-09-23T11:16:16Z</time><speed>2.620</speed><sat>36</sat></trkpt>
  <trkpt lat="37.21760528" lon="38.91370318"><ele>752.018</ele><time>2026-09-23T11:16:17Z</time><speed>2.650</speed><sat>35</sat></trkpt>
  <trkpt lat="37.21762825" lon="38.91368808"><ele>751.543</ele><time>2026-09-23T11:16:18Z</time><speed>2.180</speed><sat>34</sat></trkpt>
  <trkpt lat="37.21765120" lon="38.91367578"><ele>751.522</ele><time>2026-09-23T11:16:19Z</time><speed>2.740</speed><sat>35</sat></trkpt>
  <trkpt lat="37.21767034" lon="38.91367850"><ele>751.558</ele><time>2026-09-23T11:16:20Z</time><speed>1.770</speed><sat>36</sat></trkpt>
  <trkpt lat="37.21768599" lon="38.91368540"><ele>752.855</ele><time>2026-09-23T11:16:21Z</time><speed>2.160</speed><sat>36</sat></trkpt>
  <trkpt lat="37.21770320" lon="38.91369244"><ele>753.998</ele><time>2026-09-23T11:16:22Z</time><speed>2.120</speed><sat>35</sat></trkpt>
  <trkpt lat="37.21770379" lon="38.91369541"><ele>753.415</ele><time>2026-09-23T11:16:23Z</time><speed>0.000</speed><sat>35</sat></trkpt>
  <trkpt lat="37.21770847" lon="38.91370199"><ele>753.024</ele><time>2026-09-23T11:16:24Z</time><speed>1.400</speed><sat>35</sat></trkpt>
  <trkpt lat="37.21771778" lon="38.91371398"><ele>754.117</ele><time>2026-09-23T11:16:25Z</time><speed>1.600</speed><sat>34</sat></trkpt>
  <trkpt lat="37.21772770" lon="38.91372805"><ele>754.560</ele><time>2026-09-23T11:16:26Z</time><speed>1.660</speed><sat>34</sat></trkpt>
  <trkpt lat="37.21773822" lon="38.91374535"><ele>755.613</ele><time>2026-09-23T11:16:27Z</time><speed>1.880</speed><sat>33</sat></trkpt>
  <trkpt lat="37.21774971" lon="38.91376841"><ele>755.496</ele><time>2026-09-23T11:16:28Z</time><speed>2.600</speed><sat>34</sat></trkpt>
  <trkpt lat="37.21776394" lon="38.91379609"><ele>756.586</ele><time>2026-09-23T11:16:29Z</time><speed>2.740</speed><sat>35</sat></trkpt>
  <trkpt lat="37.21777738" lon="38.91382429"><ele>756.319</ele><time>2026-09-23T11:16:30Z</time><speed>2.690</speed><sat>36</sat></trkpt>
  <trkpt lat="37.21779690" lon="38.91384463"><ele>756.980</ele><time>2026-09-23T11:16:31Z</time><speed>2.500</speed><sat>37</sat></trkpt>
  <trkpt lat="37.21782462" lon="38.91385563"><ele>758.519</ele><time>2026-09-23T11:16:32Z</time><speed>2.770</speed><sat>37</sat></trkpt>
  <trkpt lat="37.21785295" lon="38.91385853"><ele>758.637</ele><time>2026-09-23T11:16:33Z</time><speed>2.690</speed><sat>37</sat></trkpt>
  <trkpt lat="37.21787792" lon="38.91384833"><ele>759.259</ele><time>2026-09-23T11:16:34Z</time><speed>2.580</speed><sat>37</sat></trkpt>
  <trkpt lat="37.21789741" lon="38.91382282"><ele>758.407</ele><time>2026-09-23T11:16:35Z</time><speed>3.310</speed><sat>37</sat></trkpt>
  <trkpt lat="37.21790750" lon="38.91379191"><ele>758.111</ele><time>2026-09-23T11:16:36Z</time><speed>2.420</speed><sat>37</sat></trkpt>
  <trkpt lat="37.21791155" lon="38.91377175"><ele>757.630</ele><time>2026-09-23T11:16:37Z</time><speed>1.470</speed><sat>37</sat></trkpt>
  <trkpt lat="37.21791329" lon="38.91376339"><ele>756.789</ele><time>2026-09-23T11:16:38Z</time><speed>0.290</speed><sat>37</sat></trkpt>
  <trkpt lat="37.21792175" lon="38.91376497"><ele>756.432</ele><time>2026-09-23T11:16:39Z</time><speed>0.000</speed><sat>36</sat></trkpt>
  <trkpt lat="37.21792677" lon="38.91376596"><ele>756.111</ele><time>2026-09-23T11:16:40Z</time><speed>0.000</speed><sat>36</sat></trkpt>
  <trkpt lat="37.21793017" lon="38.91376624"><ele>755.680</ele><time>2026-09-23T11:16:41Z</time><speed>0.000</speed><sat>35</sat></trkpt>
  <trkpt lat="37.21793115" lon="38.91376479"><ele>755.757</ele><time>2026-09-23T11:16:42Z</time><speed>0.000</speed><sat>30</sat></trkpt>
  <trkpt lat="37.21793196" lon="38.91376521"><ele>755.470</ele><time>2026-09-23T11:16:43Z</time><speed>0.000</speed><sat>31</sat></trkpt>
  <trkpt lat="37.21793107" lon="38.91376308"><ele>754.938</ele><time>2026-09-23T11:16:44Z</time><speed>0.220</speed><sat>31</sat></trkpt>
  <trkpt lat="37.21792817" lon="38.91376341"><ele>754.463</ele><time>2026-09-23T11:16:45Z</time><speed>0.590</speed><sat>31</sat></trkpt>
  <trkpt lat="37.21792257" lon="38.91376747"><ele>754.313</ele><time>2026-09-23T11:16:46Z</time><speed>0.930</speed><sat>31</sat></trkpt>
  <trkpt lat="37.21791611" lon="38.91377190"><ele>755.150</ele><time>2026-09-23T11:16:47Z</time><speed>0.660</speed><sat>33</sat></trkpt>
  <trkpt lat="37.21791200" lon="38.91377549"><ele>755.570</ele><time>2026-09-23T11:16:48Z</time><speed>0.630</speed><sat>34</sat></trkpt>
  <trkpt lat="37.21790825" lon="38.91378088"><ele>754.908</ele><time>2026-09-23T11:16:49Z</time><speed>0.920</speed><sat>36</sat></trkpt>
  <trkpt lat="37.21790445" lon="38.91378822"><ele>754.450</ele><time>2026-09-23T11:16:50Z</time><speed>0.840</speed><sat>36</sat></trkpt>
  <trkpt lat="37.21790216" lon="38.91379242"><ele>754.828</ele><time>2026-09-23T11:16:51Z</time><speed>0.490</speed><sat>36</sat></trkpt>
  <trkpt lat="37.21789908" lon="38.91379415"><ele>755.031</ele><time>2026-09-23T11:16:52Z</time><speed>0.340</speed><sat>35</sat></trkpt>
  <trkpt lat="37.21789673" lon="38.91379921"><ele>755.336</ele><time>2026-09-23T11:16:53Z</time><speed>0.840</speed><sat>35</sat></trkpt>
  <trkpt lat="37.21789739" lon="38.91381071"><ele>755.532</ele><time>2026-09-23T11:16:54Z</time><speed>1.200</speed><sat>31</sat></trkpt>
  <trkpt lat="37.21790025" lon="38.91382635"><ele>755.496</ele><time>2026-09-23T11:16:55Z</time><speed>1.560</speed><sat>30</sat></trkpt>
  <trkpt lat="37.21790660" lon="38.91384121"><ele>754.923</ele><time>2026-09-23T11:16:56Z</time><speed>1.590</speed><sat>29</sat></trkpt>
  <trkpt lat="37.21791002" lon="38.91385701"><ele>755.226</ele><time>2026-09-23T11:16:57Z</time><speed>1.270</speed><sat>30</sat></trkpt>
  <trkpt lat="37.21791347" lon="38.91387298"><ele>754.773</ele><time>2026-09-23T11:16:58Z</time><speed>1.480</speed><sat>30</sat></trkpt>
  <trkpt lat="37.21791248" lon="38.91388688"><ele>754.746</ele><time>2026-09-23T11:16:59Z</time><speed>0.590</speed><sat>31</sat></trkpt>
  <trkpt lat="37.21791152" lon="38.91389895"><ele>755.170</ele><time>2026-09-23T11:17:00Z</time><speed>0.860</speed><sat>32</sat></trkpt>
  <trkpt lat="37.21791210" lon="38.91390977"><ele>755.171</ele><time>2026-09-23T11:17:01Z</time><speed>0.750</speed><sat>31</sat></trkpt>
  <trkpt lat="37.21790900" lon="38.91391877"><ele>755.602</ele><time>2026-09-23T11:17:02Z</time><speed>0.290</speed><sat>32</sat></trkpt>
  <trkpt lat="37.21790270" lon="38.91392558"><ele>755.828</ele><time>2026-09-23T11:17:03Z</time><speed>0.180</speed><sat>33</sat></trkpt>
  <trkpt lat="37.21789687" lon="38.91393242"><ele>756.347</ele><time>2026-09-23T11:17:04Z</time><speed>0.370</speed><sat>35</sat></trkpt>
  <trkpt lat="37.21789010" lon="38.91393862"><ele>756.872</ele><time>2026-09-23T11:17:05Z</time><speed>0.160</speed><sat>35</sat></trkpt>
  <trkpt lat="37.21788182" lon="38.91394489"><ele>757.571</ele><time>2026-09-23T11:17:06Z</time><speed>0.000</speed><sat>35</sat></trkpt>
  <trkpt lat="37.21785790" lon="38.91396017"><ele>756.068</ele><time>2026-09-23T11:17:07Z</time><speed>0.000</speed><sat>34</sat></trkpt>
  <trkpt lat="37.21784967" lon="38.91396369"><ele>756.049</ele><time>2026-09-23T11:17:08Z</time><speed>0.000</speed><sat>35</sat></trkpt>
  <trkpt lat="37.21784608" lon="38.91396417"><ele>755.947</ele><time>2026-09-23T11:17:09Z</time><speed>0.000</speed><sat>35</sat></trkpt>
  <trkpt lat="37.21784548" lon="38.91396395"><ele>755.690</ele><time>2026-09-23T11:17:10Z</time><speed>0.000</speed><sat>34</sat></trkpt>
  <trkpt lat="37.21784637" lon="38.91396486"><ele>755.554</ele><time>2026-09-23T11:17:11Z</time><speed>0.000</speed><sat>33</sat></trkpt>
  <trkpt lat="37.21784661" lon="38.91396569"><ele>755.652</ele><time>2026-09-23T11:17:12Z</time><speed>0.000</speed><sat>32</sat></trkpt>
  <trkpt lat="37.21784722" lon="38.91396570"><ele>755.921</ele><time>2026-09-23T11:17:13Z</time><speed>0.000</speed><sat>33</sat></trkpt>
  <trkpt lat="37.21784789" lon="38.91396562"><ele>755.683</ele><time>2026-09-23T11:17:14Z</time><speed>0.000</speed><sat>31</sat></trkpt>
  <trkpt lat="37.21784851" lon="38.91396545"><ele>755.645</ele><time>2026-09-23T11:17:15Z</time><speed>0.000</speed><sat>31</sat></trkpt>
  <trkpt lat="37.21784842" lon="38.91396554"><ele>755.490</ele><time>2026-09-23T11:17:16Z</time><speed>0.000</speed><sat>31</sat></trkpt>
  <trkpt lat="37.21784860" lon="38.91396559"><ele>755.487</ele><time>2026-09-23T11:17:17Z</time><speed>0.000</speed><sat>31</sat></trkpt>
  <trkpt lat="37.21784859" lon="38.91396561"><ele>755.499</ele><time>2026-09-23T11:17:18Z</time><speed>0.000</speed><sat>32</sat></trkpt>
  <trkpt lat="37.21784857" lon="38.91396562"><ele>755.492</ele><time>2026-09-23T11:17:19Z</time><speed>0.000</speed><sat>30</sat></trkpt>
  <trkpt lat="37.21784898" lon="38.91396556"><ele>755.618</ele><time>2026-09-23T11:17:20Z</time><speed>0.000</speed><sat>26</sat></trkpt>
  <trkpt lat="37.21784921" lon="38.91396557"><ele>755.686</ele><time>2026-09-23T11:17:21Z</time><speed>0.000</speed><sat>32</sat></trkpt>
  <trkpt lat="37.21784945" lon="38.91396613"><ele>755.882</ele><time>2026-09-23T11:17:22Z</time><speed>0.000</speed><sat>34</sat></trkpt>
  <trkpt lat="37.21784960" lon="38.91396638"><ele>755.877</ele><time>2026-09-23T11:17:23Z</time><speed>0.000</speed><sat>34</sat></trkpt>
  <trkpt lat="37.21784967" lon="38.91396651"><ele>755.875</ele><time>2026-09-23T11:17:24Z</time><speed>0.000</speed><sat>35</sat></trkpt>
  <trkpt lat="37.21784986" lon="38.91396661"><ele>755.886</ele><time>2026-09-23T11:17:25Z</time><speed>0.000</speed><sat>35</sat></trkpt>
  <trkpt lat="37.21784993" lon="38.91396668"><ele>755.880</ele><time>2026-09-23T11:17:26Z</time><speed>0.000</speed><sat>35</sat></trkpt>
  <trkpt lat="37.21784995" lon="38.91396674"><ele>755.877</ele><time>2026-09-23T11:17:27Z</time><speed>0.000</speed><sat>34</sat></trkpt>
  <trkpt lat="37.21784997" lon="38.91396679"><ele>755.873</ele><time>2026-09-23T11:17:28Z</time><speed>0.000</speed><sat>33</sat></trkpt>
  <trkpt lat="37.21784995" lon="38.91396683"><ele>755.867</ele><time>2026-09-23T11:17:29Z</time><speed>0.000</speed><sat>30</sat></trkpt>
  <trkpt lat="37.21785024" lon="38.91396673"><ele>755.954</ele><time>2026-09-23T11:17:30Z</time><speed>0.000</speed><sat>24</sat></trkpt>
  <trkpt lat="37.21785053" lon="38.91396671"><ele>755.966</ele><time>2026-09-23T11:17:31Z</time><speed>0.000</speed><sat>32</sat></trkpt>
  <trkpt lat="37.21785118" lon="38.91396676"><ele>756.001</ele><time>2026-09-23T11:17:32Z</time><speed>0.000</speed><sat>32</sat></trkpt>
  <trkpt lat="37.21785159" lon="38.91396656"><ele>756.087</ele><time>2026-09-23T11:17:33Z</time><speed>0.000</speed><sat>34</sat></trkpt>
  <trkpt lat="37.21785179" lon="38.91396644"><ele>756.088</ele><time>2026-09-23T11:17:34Z</time><speed>0.000</speed><sat>36</sat></trkpt>
  <trkpt lat="37.21785189" lon="38.91396636"><ele>756.090</ele><time>2026-09-23T11:17:35Z</time><speed>0.000</speed><sat>36</sat></trkpt>
  <trkpt lat="37.21785362" lon="38.91396621"><ele>756.111</ele><time>2026-09-23T11:17:36Z</time><speed>0.190</speed><sat>36</sat></trkpt>
  <trkpt lat="37.21785475" lon="38.91396807"><ele>755.707</ele><time>2026-09-23T11:17:37Z</time><speed>0.000</speed><sat>35</sat></trkpt>
  <trkpt lat="37.21785496" lon="38.91396879"><ele>755.542</ele><time>2026-09-23T11:17:38Z</time><speed>0.000</speed><sat>36</sat></trkpt>
  <trkpt lat="37.21785498" lon="38.91396926"><ele>755.551</ele><time>2026-09-23T11:17:39Z</time><speed>0.000</speed><sat>35</sat></trkpt>
  <trkpt lat="37.21785471" lon="38.91396939"><ele>755.429</ele><time>2026-09-23T11:17:40Z</time><speed>0.000</speed><sat>34</sat></trkpt>
  <trkpt lat="37.21785517" lon="38.91396986"><ele>755.449</ele><time>2026-09-23T11:17:41Z</time><speed>0.000</speed><sat>32</sat></trkpt>
  <trkpt lat="37.21785517" lon="38.91396985"><ele>755.352</ele><time>2026-09-23T11:17:42Z</time><speed>0.000</speed><sat>33</sat></trkpt>
  <trkpt lat="37.21785456" lon="38.91397015"><ele>755.183</ele><time>2026-09-23T11:17:43Z</time><speed>0.000</speed><sat>33</sat></trkpt>
  <trkpt lat="37.21785438" lon="38.91396749"><ele>755.488</ele><time>2026-09-23T11:17:44Z</time><speed>0.810</speed><sat>29</sat></trkpt>
  <trkpt lat="37.21785443" lon="38.91395953"><ele>755.670</ele><time>2026-09-23T11:17:45Z</time><speed>1.130</speed><sat>29</sat></trkpt>
  <trkpt lat="37.21785209" lon="38.91395144"><ele>755.643</ele><time>2026-09-23T11:17:46Z</time><speed>0.910</speed><sat>31</sat></trkpt>
  <trkpt lat="37.21784982" lon="38.91394397"><ele>755.638</ele><time>2026-09-23T11:17:47Z</time><speed>0.450</speed><sat>31</sat></trkpt>
  <trkpt lat="37.21784799" lon="38.91393975"><ele>755.071</ele><time>2026-09-23T11:17:48Z</time><speed>0.450</speed><sat>29</sat></trkpt>
  <trkpt lat="37.21784495" lon="38.91392887"><ele>754.897</ele><time>2026-09-23T11:17:49Z</time><speed>0.410</speed><sat>28</sat></trkpt>
  <trkpt lat="37.21784328" lon="38.91391172"><ele>755.341</ele><time>2026-09-23T11:17:50Z</time><speed>0.000</speed><sat>32</sat></trkpt>
  <trkpt lat="37.21784395" lon="38.91389606"><ele>755.396</ele><time>2026-09-23T11:17:51Z</time><speed>0.000</speed><sat>33</sat></trkpt>
  <trkpt lat="37.21784449" lon="38.91389985"><ele>754.558</ele><time>2026-09-23T11:17:52Z</time><speed>0.720</speed><sat>35</sat></trkpt>
  <trkpt lat="37.21784648" lon="38.91390315"><ele>754.920</ele><time>2026-09-23T11:17:53Z</time><speed>0.000</speed><sat>37</sat></trkpt>
  <trkpt lat="37.21785522" lon="38.91390544"><ele>755.261</ele><time>2026-09-23T11:17:54Z</time><speed>0.000</speed><sat>37</sat></trkpt>
  <trkpt lat="37.21785742" lon="38.91390651"><ele>754.793</ele><time>2026-09-23T11:17:55Z</time><speed>0.340</speed><sat>37</sat></trkpt>
  <trkpt lat="37.21785790" lon="38.91390343"><ele>754.410</ele><time>2026-09-23T11:17:56Z</time><speed>0.590</speed><sat>37</sat></trkpt>
  <trkpt lat="37.21786128" lon="38.91389823"><ele>754.876</ele><time>2026-09-23T11:17:57Z</time><speed>0.000</speed><sat>37</sat></trkpt>
  <trkpt lat="37.21786529" lon="38.91389756"><ele>755.041</ele><time>2026-09-23T11:17:58Z</time><speed>0.000</speed><sat>37</sat></trkpt>
 </trkseg>
</trk>

</gpx>
 