<?xml version="1.0" encoding="UTF-8"?>
<!-- Created with BasicAirData GPS Logger for Android - ver. 3.3.0 -->
<!-- Track 85 = 341 TrackPoints + 0 Placemarks -->

<!-- Track Statistics (based on Total Time | Time in Movement): -->
<!--  Distance = 3.23 km -->
<!--  Duration = 06:55 | 06:04 -->
<!--  Altitude Gap = 65 m -->
<!--  Max Speed = 60 km/h -->
<!--  Avg Speed = 28.1 | 32.0 km/h -->
<!--  Direction = ESE -->
<!--  Activity = car -->
<!--  Altitudes = Raw -->

<gpx version="1.0"
     creator="BasicAirData GPS Logger 3.3.0"
     xmlns="http://www.topografix.com/GPX/1/0"
     xmlns:xsi="http://www.w3.org/2001/XMLSchema-instance"
     xsi:schemaLocation="http://www.topografix.com/GPX/1/0 http://www.topografix.com/GPX/1/0/gpx.xsd">
<name>GPS Logger 20261008-045615</name>
<time>2026-10-08T21:50:12Z</time>
<keywords>car</keywords>
<bounds minlat="41.68195557" minlon="26.55840878" maxlat="41.69126803" maxlon="26.58055707" />

<trk>
 <name>Track 20261008-045615</name>
 <trkseg>
  <trkpt lat="41.69122167" lon="26.55932132"><ele>83.410</ele><time>2026-10-08T01:56:15Z</time><speed>0.000</speed><sat>17</sat></trkpt>
  <trkpt lat="41.69122668" lon="26.55930788"><ele>83.405</ele><time>2026-10-08T01:56:16Z</time><speed>0.000</speed><sat>17</sat></trkpt>
  <trkpt lat="41.69123750" lon="26.55928111"><ele>83.380</ele><time>2026-10-08T01:56:17Z</time><speed>0.000</speed><sat>17</sat></trkpt>
  <trkpt lat="41.69123385" lon="26.55927081"><ele>83.385</ele><time>2026-10-08T01:56:18Z</time><speed>0.000</speed><sat>20</sat></trkpt>
  <trkpt lat="41.69122250" lon="26.55926712"><ele>83.464</ele><time>2026-10-08T01:56:19Z</time><speed>0.000</speed><sat>21</sat></trkpt>
  <trkpt lat="41.69123009" lon="26.55927070"><ele>83.475</ele><time>2026-10-08T01:56:20Z</time><speed>0.000</speed><sat>21</sat></trkpt>
  <trkpt lat="41.69122896" lon="26.55927033"><ele>83.492</ele><time>2026-10-08T01:56:21Z</time><speed>0.000</speed><sat>22</sat></trkpt>
  <trkpt lat="41.69123163" lon="26.55927548"><ele>83.529</ele><time>2026-10-08T01:56:22Z</time><speed>0.000</speed><sat>22</sat></trkpt>
  <trkpt lat="41.69123569" lon="26.55927896"><ele>83.606</ele><time>2026-10-08T01:56:23Z</time><speed>0.300</speed><sat>22</sat></trkpt>
  <trkpt lat="41.69125531" lon="26.55928177"><ele>83.334</ele><time>2026-10-08T01:56:24Z</time><speed>1.870</speed><sat>22</sat></trkpt>
  <trkpt lat="41.69126803" lon="26.55929800"><ele>82.891</ele><time>2026-10-08T01:56:25Z</time><speed>1.920</speed><sat>23</sat></trkpt>
  <trkpt lat="41.69126423" lon="26.55932509"><ele>83.570</ele><time>2026-10-08T01:56:26Z</time><speed>2.050</speed><sat>24</sat></trkpt>
  <trkpt lat="41.69124772" lon="26.55933212"><ele>82.564</ele><time>2026-10-08T01:56:27Z</time><speed>1.660</speed><sat>24</sat></trkpt>
  <trkpt lat="41.69124269" lon="26.55932733"><ele>81.981</ele><time>2026-10-08T01:56:28Z</time><speed>0.000</speed><sat>24</sat></trkpt>
  <trkpt lat="41.69124179" lon="26.55932391"><ele>82.008</ele><time>2026-10-08T01:56:29Z</time><speed>0.000</speed><sat>23</sat></trkpt>
  <trkpt lat="41.69124575" lon="26.55931100"><ele>81.120</ele><time>2026-10-08T01:56:30Z</time><speed>0.750</speed><sat>21</sat></trkpt>
  <trkpt lat="41.69123933" lon="26.55929454"><ele>80.934</ele><time>2026-10-08T01:56:31Z</time><speed>1.830</speed><sat>24</sat></trkpt>
  <trkpt lat="41.69123693" lon="26.55927965"><ele>80.956</ele><time>2026-10-08T01:56:32Z</time><speed>1.370</speed><sat>24</sat></trkpt>
  <trkpt lat="41.69123779" lon="26.55926955"><ele>80.673</ele><time>2026-10-08T01:56:33Z</time><speed>0.770</speed><sat>24</sat></trkpt>
  <trkpt lat="41.69123713" lon="26.55926933"><ele>80.512</ele><time>2026-10-08T01:56:34Z</time><speed>0.000</speed><sat>24</sat></trkpt>
  <trkpt lat="41.69123693" lon="26.55926844"><ele>80.387</ele><time>2026-10-08T01:56:35Z</time><speed>0.000</speed><sat>24</sat></trkpt>
  <trkpt lat="41.69123454" lon="26.55928156"><ele>80.119</ele><time>2026-10-08T01:56:36Z</time><speed>0.880</speed><sat>23</sat></trkpt>
  <trkpt lat="41.69121814" lon="26.55930078"><ele>79.725</ele><time>2026-10-08T01:56:37Z</time><speed>3.210</speed><sat>19</sat></trkpt>
  <trkpt lat="41.69119190" lon="26.55932417"><ele>80.263</ele><time>2026-10-08T01:56:38Z</time><speed>3.670</speed><sat>22</sat></trkpt>
  <trkpt lat="41.69116411" lon="26.55934692"><ele>80.934</ele><time>2026-10-08T01:56:39Z</time><speed>3.430</speed><sat>22</sat></trkpt>
  <trkpt lat="41.69113596" lon="26.55936915"><ele>81.374</ele><time>2026-10-08T01:56:40Z</time><speed>3.560</speed><sat>23</sat></trkpt>
  <trkpt lat="41.69096571" lon="26.55928947"><ele>80.301</ele><time>2026-10-08T01:56:41Z</time><speed>13.200</speed><sat>24</sat></trkpt>
  <trkpt lat="41.69088708" lon="26.55928844"><ele>79.832</ele><time>2026-10-08T01:56:42Z</time><speed>9.870</speed><sat>24</sat></trkpt>
  <trkpt lat="41.69076971" lon="26.55924288"><ele>80.603</ele><time>2026-10-08T01:56:43Z</time><speed>12.840</speed><sat>25</sat></trkpt>
  <trkpt lat="41.69066763" lon="26.55922348"><ele>80.067</ele><time>2026-10-08T01:56:44Z</time><speed>11.530</speed><sat>22</sat></trkpt>
  <trkpt lat="41.69055888" lon="26.55918933"><ele>80.784</ele><time>2026-10-08T01:56:45Z</time><speed>12.280</speed><sat>22</sat></trkpt>
  <trkpt lat="41.69045418" lon="26.55916257"><ele>81.061</ele><time>2026-10-08T01:56:46Z</time><speed>11.920</speed><sat>21</sat></trkpt>
  <trkpt lat="41.69035469" lon="26.55913048"><ele>80.645</ele><time>2026-10-08T01:56:47Z</time><speed>11.710</speed><sat>20</sat></trkpt>
  <trkpt lat="41.69024490" lon="26.55909113"><ele>80.309</ele><time>2026-10-08T01:56:48Z</time><speed>12.340</speed><sat>21</sat></trkpt>
  <trkpt lat="41.69011303" lon="26.55908635"><ele>80.309</ele><time>2026-10-08T01:56:49Z</time><speed>13.750</speed><sat>19</sat></trkpt>
  <trkpt lat="41.69000780" lon="26.55904593"><ele>80.269</ele><time>2026-10-08T01:56:50Z</time><speed>13.520</speed><sat>21</sat></trkpt>
  <trkpt lat="41.68987659" lon="26.55901443"><ele>80.641</ele><time>2026-10-08T01:56:51Z</time><speed>14.800</speed><sat>24</sat></trkpt>
  <trkpt lat="41.68974585" lon="26.55899296"><ele>80.517</ele><time>2026-10-08T01:56:52Z</time><speed>15.000</speed><sat>24</sat></trkpt>
  <trkpt lat="41.68961599" lon="26.55897156"><ele>80.238</ele><time>2026-10-08T01:56:53Z</time><speed>14.820</speed><sat>25</sat></trkpt>
  <trkpt lat="41.68947362" lon="26.55893634"><ele>80.409</ele><time>2026-10-08T01:56:54Z</time><speed>15.430</speed><sat>24</sat></trkpt>
  <trkpt lat="41.68934420" lon="26.55890741"><ele>80.656</ele><time>2026-10-08T01:56:55Z</time><speed>15.080</speed><sat>24</sat></trkpt>
  <trkpt lat="41.68921599" lon="26.55886951"><ele>81.370</ele><time>2026-10-08T01:56:56Z</time><speed>15.110</speed><sat>23</sat></trkpt>
  <trkpt lat="41.68907757" lon="26.55882509"><ele>81.069</ele><time>2026-10-08T01:56:57Z</time><speed>15.520</speed><sat>21</sat></trkpt>
  <trkpt lat="41.68895163" lon="26.55878402"><ele>81.330</ele><time>2026-10-08T01:56:58Z</time><speed>15.390</speed><sat>21</sat></trkpt>
  <trkpt lat="41.68880317" lon="26.55871898"><ele>81.298</ele><time>2026-10-08T01:56:59Z</time><speed>16.580</speed><sat>20</sat></trkpt>
  <trkpt lat="41.68867592" lon="26.55870027"><ele>81.079</ele><time>2026-10-08T01:57:00Z</time><speed>15.950</speed><sat>20</sat></trkpt>
  <trkpt lat="41.68853911" lon="26.55864436"><ele>81.486</ele><time>2026-10-08T01:57:01Z</time><speed>16.000</speed><sat>21</sat></trkpt>
  <trkpt lat="41.68840488" lon="26.55862695"><ele>81.395</ele><time>2026-10-08T01:57:02Z</time><speed>15.630</speed><sat>20</sat></trkpt>
  <trkpt lat="41.68827358" lon="26.55857871"><ele>81.322</ele><time>2026-10-08T01:57:03Z</time><speed>15.210</speed><sat>23</sat></trkpt>
  <trkpt lat="41.68812690" lon="26.55854786"><ele>81.734</ele><time>2026-10-08T01:57:04Z</time><speed>15.890</speed><sat>23</sat></trkpt>
  <trkpt lat="41.68797901" lon="26.55851302"><ele>81.129</ele><time>2026-10-08T01:57:05Z</time><speed>15.850</speed><sat>23</sat></trkpt>
  <trkpt lat="41.68782316" lon="26.55847707"><ele>80.661</ele><time>2026-10-08T01:57:06Z</time><speed>16.800</speed><sat>23</sat></trkpt>
  <trkpt lat="41.68770225" lon="26.55844025"><ele>80.354</ele><time>2026-10-08T01:57:07Z</time><speed>15.600</speed><sat>23</sat></trkpt>
  <trkpt lat="41.68760103" lon="26.55845475"><ele>76.006</ele><time>2026-10-08T01:57:08Z</time><speed>14.620</speed><sat>23</sat></trkpt>
  <trkpt lat="41.68750533" lon="26.55840878"><ele>77.145</ele><time>2026-10-08T01:57:09Z</time><speed>13.090</speed><sat>25</sat></trkpt>
  <trkpt lat="41.68748079" lon="26.55841009"><ele>77.787</ele><time>2026-10-08T01:57:10Z</time><speed>8.450</speed><sat>26</sat></trkpt>
  <trkpt lat="41.68742209" lon="26.55844675"><ele>78.026</ele><time>2026-10-08T01:57:11Z</time><speed>7.030</speed><sat>26</sat></trkpt>
  <trkpt lat="41.68736032" lon="26.55847693"><ele>78.443</ele><time>2026-10-08T01:57:12Z</time><speed>7.520</speed><sat>25</sat></trkpt>
  <trkpt lat="41.68732006" lon="26.55853956"><ele>78.844</ele><time>2026-10-08T01:57:13Z</time><speed>6.920</speed><sat>26</sat></trkpt>
  <trkpt lat="41.68724998" lon="26.55854948"><ele>78.547</ele><time>2026-10-08T01:57:14Z</time><speed>7.870</speed><sat>27</sat></trkpt>
  <trkpt lat="41.68718846" lon="26.55856707"><ele>78.510</ele><time>2026-10-08T01:57:15Z</time><speed>7.080</speed><sat>27</sat></trkpt>
  <trkpt lat="41.68712659" lon="26.55867587"><ele>78.871</ele><time>2026-10-08T01:57:16Z</time><speed>8.970</speed><sat>27</sat></trkpt>
  <trkpt lat="41.68707093" lon="26.55871547"><ele>78.925</ele><time>2026-10-08T01:57:17Z</time><speed>7.880</speed><sat>24</sat></trkpt>
  <trkpt lat="41.68697081" lon="26.55876827"><ele>78.897</ele><time>2026-10-08T01:57:18Z</time><speed>10.190</speed><sat>21</sat></trkpt>
  <trkpt lat="41.68689927" lon="26.55879991"><ele>78.786</ele><time>2026-10-08T01:57:19Z</time><speed>9.330</speed><sat>13</sat></trkpt>
  <trkpt lat="41.68681743" lon="26.55884316"><ele>78.804</ele><time>2026-10-08T01:57:20Z</time><speed>9.360</speed><sat>5</sat></trkpt>
  <trkpt lat="41.68677969" lon="26.55886635"><ele>78.981</ele><time>2026-10-08T01:57:21Z</time><speed>8.610</speed><sat>5</sat></trkpt>
  <trkpt lat="41.68667821" lon="26.55888430"><ele>79.062</ele><time>2026-10-08T01:57:22Z</time><speed>9.000</speed><sat>5</sat></trkpt>
  <trkpt lat="41.68663968" lon="26.55889552"><ele>79.205</ele><time>2026-10-08T01:57:23Z</time><speed>8.540</speed><sat>5</sat></trkpt>
  <trkpt lat="41.68654557" lon="26.55900888"><ele>78.911</ele><time>2026-10-08T01:57:24Z</time><speed>10.220</speed><sat>5</sat></trkpt>
  <trkpt lat="41.68649686" lon="26.55906660"><ele>78.934</ele><time>2026-10-08T01:57:25Z</time><speed>8.200</speed><sat>8</sat></trkpt>
  <trkpt lat="41.68640730" lon="26.55907866"><ele>78.725</ele><time>2026-10-08T01:57:26Z</time><speed>9.620</speed><sat>9</sat></trkpt>
  <trkpt lat="41.68630721" lon="26.55905732"><ele>78.247</ele><time>2026-10-08T01:57:27Z</time><speed>9.440</speed><sat>10</sat></trkpt>
  <trkpt lat="41.68618662" lon="26.55910686"><ele>78.261</ele><time>2026-10-08T01:57:28Z</time><speed>10.650</speed><sat>10</sat></trkpt>
  <trkpt lat="41.68612880" lon="26.55915339"><ele>78.319</ele><time>2026-10-08T01:57:29Z</time><speed>8.420</speed><sat>10</sat></trkpt>
  <trkpt lat="41.68607146" lon="26.55917866"><ele>78.598</ele><time>2026-10-08T01:57:30Z</time><speed>9.130</speed><sat>10</sat></trkpt>
  <trkpt lat="41.68598710" lon="26.55924325"><ele>78.471</ele><time>2026-10-08T01:57:31Z</time><speed>10.420</speed><sat>7</sat></trkpt>
  <trkpt lat="41.68588580" lon="26.55932218"><ele>78.478</ele><time>2026-10-08T01:57:32Z</time><speed>11.250</speed><sat>6</sat></trkpt>
  <trkpt lat="41.68572208" lon="26.55940946"><ele>78.460</ele><time>2026-10-08T01:57:33Z</time><speed>13.900</speed><sat>6</sat></trkpt>
  <trkpt lat="41.68561270" lon="26.55945098"><ele>78.513</ele><time>2026-10-08T01:57:34Z</time><speed>12.680</speed><sat>5</sat></trkpt>
  <trkpt lat="41.68549331" lon="26.55951423"><ele>78.594</ele><time>2026-10-08T01:57:35Z</time><speed>12.670</speed><sat>6</sat></trkpt>
  <trkpt lat="41.68541031" lon="26.55957997"><ele>78.502</ele><time>2026-10-08T01:57:36Z</time><speed>12.040</speed><sat>6</sat></trkpt>
  <trkpt lat="41.68532894" lon="26.55966807"><ele>78.281</ele><time>2026-10-08T01:57:37Z</time><speed>11.760</speed><sat>7</sat></trkpt>
  <trkpt lat="41.68525235" lon="26.55972146"><ele>78.318</ele><time>2026-10-08T01:57:38Z</time><speed>10.950</speed><sat>9</sat></trkpt>
  <trkpt lat="41.68515024" lon="26.55974964"><ele>78.091</ele><time>2026-10-08T01:57:39Z</time><speed>10.710</speed><sat>9</sat></trkpt>
  <trkpt lat="41.68506364" lon="26.55980598"><ele>77.977</ele><time>2026-10-08T01:57:40Z</time><speed>10.700</speed><sat>10</sat></trkpt>
  <trkpt lat="41.68496919" lon="26.55985592"><ele>77.983</ele><time>2026-10-08T01:57:41Z</time><speed>10.700</speed><sat>10</sat></trkpt>
  <trkpt lat="41.68488379" lon="26.55991600"><ele>78.011</ele><time>2026-10-08T01:57:42Z</time><speed>10.470</speed><sat>10</sat></trkpt>
  <trkpt lat="41.68473820" lon="26.56006473"><ele>77.812</ele><time>2026-10-08T01:57:43Z</time><speed>11.680</speed><sat>7</sat></trkpt>
  <trkpt lat="41.68473171" lon="26.56015566"><ele>77.882</ele><time>2026-10-08T01:57:44Z</time><speed>10.960</speed><sat>5</sat></trkpt>
  <trkpt lat="41.68467526" lon="26.56022522"><ele>77.743</ele><time>2026-10-08T01:57:45Z</time><speed>10.670</speed><sat>6</sat></trkpt>
  <trkpt lat="41.68465245" lon="26.56023421"><ele>77.679</ele><time>2026-10-08T01:57:46Z</time><speed>9.670</speed><sat>4</sat></trkpt>
  <trkpt lat="41.68473772" lon="26.56289566"><ele>74.810</ele><time>2026-10-08T01:58:05Z</time><speed>11.990</speed><sat>7</sat></trkpt>
  <trkpt lat="41.68476803" lon="26.56305159"><ele>75.495</ele><time>2026-10-08T01:58:06Z</time><speed>11.720</speed><sat>7</sat></trkpt>
  <trkpt lat="41.68484562" lon="26.56312435"><ele>74.899</ele><time>2026-10-08T01:58:07Z</time><speed>11.200</speed><sat>7</sat></trkpt>
  <trkpt lat="41.68484202" lon="26.56329551"><ele>75.068</ele><time>2026-10-08T01:58:08Z</time><speed>10.840</speed><sat>8</sat></trkpt>
  <trkpt lat="41.68482884" lon="26.56343097"><ele>75.164</ele><time>2026-10-08T01:58:09Z</time><speed>10.250</speed><sat>8</sat></trkpt>
  <trkpt lat="41.68483208" lon="26.56356309"><ele>75.063</ele><time>2026-10-08T01:58:10Z</time><speed>10.300</speed><sat>8</sat></trkpt>
  <trkpt lat="41.68483372" lon="26.56369530"><ele>74.904</ele><time>2026-10-08T01:58:11Z</time><speed>10.060</speed><sat>8</sat></trkpt>
  <trkpt lat="41.68484269" lon="26.56380346"><ele>74.467</ele><time>2026-10-08T01:58:12Z</time><speed>8.850</speed><sat>8</sat></trkpt>
  <trkpt lat="41.68487021" lon="26.56387720"><ele>74.602</ele><time>2026-10-08T01:58:13Z</time><speed>8.270</speed><sat>7</sat></trkpt>
  <trkpt lat="41.68485379" lon="26.56396176"><ele>74.601</ele><time>2026-10-08T01:58:14Z</time><speed>7.210</speed><sat>5</sat></trkpt>
  <trkpt lat="41.68485543" lon="26.56405254"><ele>74.894</ele><time>2026-10-08T01:58:15Z</time><speed>7.210</speed><sat>4</sat></trkpt>
  <trkpt lat="41.68487644" lon="26.56415291"><ele>74.741</ele><time>2026-10-08T01:58:16Z</time><speed>7.460</speed><sat>4</sat></trkpt>
  <trkpt lat="41.68484431" lon="26.56430400"><ele>74.854</ele><time>2026-10-08T01:58:17Z</time><speed>8.170</speed><sat>6</sat></trkpt>
  <trkpt lat="41.68489143" lon="26.56442200"><ele>74.651</ele><time>2026-10-08T01:58:18Z</time><speed>8.290</speed><sat>6</sat></trkpt>
  <trkpt lat="41.68492394" lon="26.56450914"><ele>74.899</ele><time>2026-10-08T01:58:19Z</time><speed>7.870</speed><sat>6</sat></trkpt>
  <trkpt lat="41.68487245" lon="26.56459935"><ele>75.223</ele><time>2026-10-08T01:58:20Z</time><speed>7.860</speed><sat>7</sat></trkpt>
  <trkpt lat="41.68486199" lon="26.56470931"><ele>75.221</ele><time>2026-10-08T01:58:21Z</time><speed>8.370</speed><sat>7</sat></trkpt>
  <trkpt lat="41.68490561" lon="26.56482474"><ele>74.876</ele><time>2026-10-08T01:58:22Z</time><speed>8.360</speed><sat>7</sat></trkpt>
  <trkpt lat="41.68478798" lon="26.56492967"><ele>75.436</ele><time>2026-10-08T01:58:23Z</time><speed>8.480</speed><sat>7</sat></trkpt>
  <trkpt lat="41.68483533" lon="26.56503556"><ele>75.422</ele><time>2026-10-08T01:58:24Z</time><speed>8.650</speed><sat>7</sat></trkpt>
  <trkpt lat="41.68483686" lon="26.56518438"><ele>75.199</ele><time>2026-10-08T01:58:25Z</time><speed>9.920</speed><sat>7</sat></trkpt>
  <trkpt lat="41.68489074" lon="26.56533297"><ele>75.343</ele><time>2026-10-08T01:58:26Z</time><speed>10.500</speed><sat>6</sat></trkpt>
  <trkpt lat="41.68489168" lon="26.56550236"><ele>75.389</ele><time>2026-10-08T01:58:27Z</time><speed>11.370</speed><sat>6</sat></trkpt>
  <trkpt lat="41.68486031" lon="26.56569215"><ele>75.502</ele><time>2026-10-08T01:58:28Z</time><speed>12.060</speed><sat>4</sat></trkpt>
  <trkpt lat="41.68488690" lon="26.56582411"><ele>75.481</ele><time>2026-10-08T01:58:29Z</time><speed>11.950</speed><sat>4</sat></trkpt>
  <trkpt lat="41.68508598" lon="26.56827605"><ele>71.577</ele><time>2026-10-08T01:58:44Z</time><speed>10.900</speed><sat>8</sat></trkpt>
  <trkpt lat="41.68513434" lon="26.56836936"><ele>71.718</ele><time>2026-10-08T01:58:45Z</time><speed>10.730</speed><sat>8</sat></trkpt>
  <trkpt lat="41.68526271" lon="26.56843201"><ele>71.657</ele><time>2026-10-08T01:58:46Z</time><speed>10.800</speed><sat>8</sat></trkpt>
  <trkpt lat="41.68536207" lon="26.56851564"><ele>72.027</ele><time>2026-10-08T01:58:47Z</time><speed>11.560</speed><sat>7</sat></trkpt>
  <trkpt lat="41.68557197" lon="26.56853936"><ele>69.895</ele><time>2026-10-08T01:58:48Z</time><speed>12.300</speed><sat>5</sat></trkpt>
  <trkpt lat="41.68566486" lon="26.56863321"><ele>69.995</ele><time>2026-10-08T01:58:49Z</time><speed>12.650</speed><sat>5</sat></trkpt>
  <trkpt lat="41.68584361" lon="26.56868784"><ele>69.804</ele><time>2026-10-08T01:58:50Z</time><speed>13.530</speed><sat>5</sat></trkpt>
  <trkpt lat="41.68595937" lon="26.56880153"><ele>69.936</ele><time>2026-10-08T01:58:51Z</time><speed>12.770</speed><sat>6</sat></trkpt>
  <trkpt lat="41.68614247" lon="26.56883651"><ele>69.777</ele><time>2026-10-08T01:58:52Z</time><speed>12.620</speed><sat>8</sat></trkpt>
  <trkpt lat="41.68622490" lon="26.56885766"><ele>69.653</ele><time>2026-10-08T01:58:53Z</time><speed>11.350</speed><sat>9</sat></trkpt>
  <trkpt lat="41.68632589" lon="26.56899106"><ele>70.343</ele><time>2026-10-08T01:58:54Z</time><speed>10.630</speed><sat>10</sat></trkpt>
  <trkpt lat="41.68642966" lon="26.56908004"><ele>69.753</ele><time>2026-10-08T01:58:55Z</time><speed>11.080</speed><sat>9</sat></trkpt>
  <trkpt lat="41.68650351" lon="26.56914808"><ele>69.448</ele><time>2026-10-08T01:58:56Z</time><speed>10.970</speed><sat>9</sat></trkpt>
  <trkpt lat="41.68659177" lon="26.56921582"><ele>69.690</ele><time>2026-10-08T01:58:57Z</time><speed>11.000</speed><sat>8</sat></trkpt>
  <trkpt lat="41.68666824" lon="26.56932119"><ele>69.356</ele><time>2026-10-08T01:58:58Z</time><speed>11.140</speed><sat>7</sat></trkpt>
  <trkpt lat="41.68681212" lon="26.56940731"><ele>69.376</ele><time>2026-10-08T01:58:59Z</time><speed>11.510</speed><sat>6</sat></trkpt>
  <trkpt lat="41.68686554" lon="26.56948831"><ele>69.487</ele><time>2026-10-08T01:59:00Z</time><speed>10.760</speed><sat>6</sat></trkpt>
  <trkpt lat="41.68695455" lon="26.56955216"><ele>69.647</ele><time>2026-10-08T01:59:01Z</time><speed>10.940</speed><sat>6</sat></trkpt>
  <trkpt lat="41.68704010" lon="26.56963863"><ele>68.775</ele><time>2026-10-08T01:59:02Z</time><speed>11.350</speed><sat>6</sat></trkpt>
  <trkpt lat="41.68710309" lon="26.56972358"><ele>69.257</ele><time>2026-10-08T01:59:03Z</time><speed>11.210</speed><sat>10</sat></trkpt>
  <trkpt lat="41.68718808" lon="26.56979518"><ele>69.349</ele><time>2026-10-08T01:59:04Z</time><speed>11.170</speed><sat>9</sat></trkpt>
  <trkpt lat="41.68806903" lon="26.57070458"><ele>67.545</ele><time>2026-10-08T01:59:20Z</time><speed>3.850</speed><sat>8</sat></trkpt>
  <trkpt lat="41.68806418" lon="26.57073124"><ele>66.710</ele><time>2026-10-08T01:59:21Z</time><speed>3.080</speed><sat>8</sat></trkpt>
  <trkpt lat="41.68807244" lon="26.57075178"><ele>64.094</ele><time>2026-10-08T01:59:22Z</time><speed>3.450</speed><sat>8</sat></trkpt>
  <trkpt lat="41.68806579" lon="26.57075740"><ele>62.858</ele><time>2026-10-08T01:59:23Z</time><speed>2.240</speed><sat>8</sat></trkpt>
  <trkpt lat="41.68801508" lon="26.57081685"><ele>63.546</ele><time>2026-10-08T01:59:24Z</time><speed>2.250</speed><sat>7</sat></trkpt>
  <trkpt lat="41.68783394" lon="26.57089045"><ele>65.736</ele><time>2026-10-08T01:59:25Z</time><speed>0.920</speed><sat>9</sat></trkpt>
  <trkpt lat="41.68788452" lon="26.57086272"><ele>65.055</ele><time>2026-10-08T01:59:26Z</time><speed>0.820</speed><sat>12</sat></trkpt>
  <trkpt lat="41.68779854" lon="26.57084587"><ele>67.948</ele><time>2026-10-08T01:59:27Z</time><speed>3.030</speed><sat>14</sat></trkpt>
  <trkpt lat="41.68776061" lon="26.57082577"><ele>67.892</ele><time>2026-10-08T01:59:28Z</time><speed>4.070</speed><sat>14</sat></trkpt>
  <trkpt lat="41.68770778" lon="26.57082285"><ele>68.695</ele><time>2026-10-08T01:59:29Z</time><speed>4.360</speed><sat>14</sat></trkpt>
  <trkpt lat="41.68765659" lon="26.57081478"><ele>69.597</ele><time>2026-10-08T01:59:30Z</time><speed>4.910</speed><sat>11</sat></trkpt>
  <trkpt lat="41.68761206" lon="26.57078209"><ele>65.327</ele><time>2026-10-08T01:59:31Z</time><speed>5.560</speed><sat>10</sat></trkpt>
  <trkpt lat="41.68758097" lon="26.57077244"><ele>64.949</ele><time>2026-10-08T01:59:32Z</time><speed>5.190</speed><sat>12</sat></trkpt>
  <trkpt lat="41.68752934" lon="26.57076638"><ele>64.664</ele><time>2026-10-08T01:59:33Z</time><speed>5.470</speed><sat>12</sat></trkpt>
  <trkpt lat="41.68743757" lon="26.57074803"><ele>63.547</ele><time>2026-10-08T01:59:34Z</time><speed>6.540</speed><sat>11</sat></trkpt>
  <trkpt lat="41.68732500" lon="26.57074232"><ele>63.829</ele><time>2026-10-08T01:59:35Z</time><speed>7.910</speed><sat>12</sat></trkpt>
  <trkpt lat="41.68721184" lon="26.57072813"><ele>62.982</ele><time>2026-10-08T01:59:36Z</time><speed>9.240</speed><sat>12</sat></trkpt>
  <trkpt lat="41.68709341" lon="26.57070563"><ele>64.166</ele><time>2026-10-08T01:59:37Z</time><speed>9.540</speed><sat>12</sat></trkpt>
  <trkpt lat="41.68701026" lon="26.57072027"><ele>66.264</ele><time>2026-10-08T01:59:38Z</time><speed>8.910</speed><sat>11</sat></trkpt>
  <trkpt lat="41.68692947" lon="26.57073903"><ele>66.242</ele><time>2026-10-08T01:59:39Z</time><speed>9.430</speed><sat>11</sat></trkpt>
  <trkpt lat="41.68681811" lon="26.57073597"><ele>66.245</ele><time>2026-10-08T01:59:40Z</time><speed>9.560</speed><sat>10</sat></trkpt>
  <trkpt lat="41.68672853" lon="26.57076702"><ele>66.745</ele><time>2026-10-08T01:59:41Z</time><speed>10.140</speed><sat>9</sat></trkpt>
  <trkpt lat="41.68664184" lon="26.57077199"><ele>66.026</ele><time>2026-10-08T01:59:42Z</time><speed>10.230</speed><sat>7</sat></trkpt>
  <trkpt lat="41.68653903" lon="26.57078927"><ele>65.865</ele><time>2026-10-08T01:59:43Z</time><speed>10.800</speed><sat>6</sat></trkpt>
  <trkpt lat="41.68644633" lon="26.57079459"><ele>66.041</ele><time>2026-10-08T01:59:44Z</time><speed>10.560</speed><sat>7</sat></trkpt>
  <trkpt lat="41.68636702" lon="26.57080303"><ele>65.699</ele><time>2026-10-08T01:59:45Z</time><speed>10.310</speed><sat>6</sat></trkpt>
  <trkpt lat="41.68624300" lon="26.57082379"><ele>66.148</ele><time>2026-10-08T01:59:46Z</time><speed>11.300</speed><sat>7</sat></trkpt>
  <trkpt lat="41.68610877" lon="26.57076420"><ele>66.009</ele><time>2026-10-08T01:59:47Z</time><speed>11.650</speed><sat>8</sat></trkpt>
  <trkpt lat="41.68597623" lon="26.57077363"><ele>66.091</ele><time>2026-10-08T01:59:48Z</time><speed>12.310</speed><sat>8</sat></trkpt>
  <trkpt lat="41.68581364" lon="26.57075169"><ele>66.212</ele><time>2026-10-08T01:59:49Z</time><speed>13.110</speed><sat>8</sat></trkpt>
  <trkpt lat="41.68566599" lon="26.57067212"><ele>66.481</ele><time>2026-10-08T01:59:50Z</time><speed>13.380</speed><sat>7</sat></trkpt>
  <trkpt lat="41.68555872" lon="26.57068415"><ele>66.336</ele><time>2026-10-08T01:59:51Z</time><speed>13.250</speed><sat>9</sat></trkpt>
  <trkpt lat="41.68541943" lon="26.57067815"><ele>66.289</ele><time>2026-10-08T01:59:52Z</time><speed>13.640</speed><sat>8</sat></trkpt>
  <trkpt lat="41.68528070" lon="26.57067740"><ele>66.602</ele><time>2026-10-08T01:59:53Z</time><speed>13.630</speed><sat>6</sat></trkpt>
  <trkpt lat="41.68514565" lon="26.57067346"><ele>66.464</ele><time>2026-10-08T01:59:54Z</time><speed>13.690</speed><sat>7</sat></trkpt>
  <trkpt lat="41.68501821" lon="26.57068941"><ele>66.468</ele><time>2026-10-08T01:59:55Z</time><speed>13.710</speed><sat>6</sat></trkpt>
  <trkpt lat="41.68490830" lon="26.57070434"><ele>66.256</ele><time>2026-10-08T01:59:56Z</time><speed>13.590</speed><sat>7</sat></trkpt>
  <trkpt lat="41.68479150" lon="26.57072143"><ele>66.299</ele><time>2026-10-08T01:59:57Z</time><speed>13.440</speed><sat>7</sat></trkpt>
  <trkpt lat="41.68465684" lon="26.57074438"><ele>66.380</ele><time>2026-10-08T01:59:58Z</time><speed>13.430</speed><sat>7</sat></trkpt>
  <trkpt lat="41.68452174" lon="26.57073344"><ele>66.337</ele><time>2026-10-08T01:59:59Z</time><speed>13.640</speed><sat>8</sat></trkpt>
  <trkpt lat="41.68439366" lon="26.57070234"><ele>66.672</ele><time>2026-10-08T02:00:00Z</time><speed>13.480</speed><sat>7</sat></trkpt>
  <trkpt lat="41.68439732" lon="26.57070731"><ele>66.332</ele><time>2026-10-08T02:00:01Z</time><speed>11.170</speed><sat>6</sat></trkpt>
  <trkpt lat="41.68448828" lon="26.57069409"><ele>67.827</ele><time>2026-10-08T02:00:02Z</time><speed>9.070</speed><sat>5</sat></trkpt>
  <trkpt lat="41.68441503" lon="26.57074072"><ele>67.610</ele><time>2026-10-08T02:00:03Z</time><speed>9.060</speed><sat>6</sat></trkpt>
  <trkpt lat="41.68434230" lon="26.57077347"><ele>67.415</ele><time>2026-10-08T02:00:04Z</time><speed>9.000</speed><sat>6</sat></trkpt>
  <trkpt lat="41.68426869" lon="26.57080962"><ele>67.306</ele><time>2026-10-08T02:00:05Z</time><speed>9.000</speed><sat>5</sat></trkpt>
  <trkpt lat="41.68430969" lon="26.57076282"><ele>66.358</ele><time>2026-10-08T02:00:06Z</time><speed>7.600</speed><sat>5</sat></trkpt>
  <trkpt lat="41.68434055" lon="26.57076775"><ele>66.401</ele><time>2026-10-08T02:00:07Z</time><speed>6.230</speed><sat>5</sat></trkpt>
  <trkpt lat="41.68430062" lon="26.57079152"><ele>66.227</ele><time>2026-10-08T02:00:08Z</time><speed>5.920</speed><sat>4</sat></trkpt>
  <trkpt lat="41.68424081" lon="26.57082283"><ele>66.048</ele><time>2026-10-08T02:00:09Z</time><speed>5.720</speed><sat>4</sat></trkpt>
  <trkpt lat="41.68418281" lon="26.57083423"><ele>65.888</ele><time>2026-10-08T02:00:10Z</time><speed>6.040</speed><sat>4</sat></trkpt>
  <trkpt lat="41.68214298" lon="26.57318630"><ele>72.604</ele><time>2026-10-08T02:00:36Z</time><speed>10.810</speed><sat>7</sat></trkpt>
  <trkpt lat="41.68209475" lon="26.57320605"><ele>76.116</ele><time>2026-10-08T02:00:37Z</time><speed>10.380</speed><sat>6</sat></trkpt>
  <trkpt lat="41.68200875" lon="26.57341191"><ele>77.550</ele><time>2026-10-08T02:00:38Z</time><speed>11.480</speed><sat>7</sat></trkpt>
  <trkpt lat="41.68200325" lon="26.57352209"><ele>78.188</ele><time>2026-10-08T02:00:39Z</time><speed>11.230</speed><sat>7</sat></trkpt>
  <trkpt lat="41.68197913" lon="26.57362173"><ele>80.886</ele><time>2026-10-08T02:00:40Z</time><speed>11.180</speed><sat>7</sat></trkpt>
  <trkpt lat="41.68198841" lon="26.57379274"><ele>80.764</ele><time>2026-10-08T02:00:41Z</time><speed>11.940</speed><sat>6</sat></trkpt>
  <trkpt lat="41.68198803" lon="26.57388536"><ele>81.954</ele><time>2026-10-08T02:00:42Z</time><speed>10.710</speed><sat>6</sat></trkpt>
  <trkpt lat="41.68195557" lon="26.57403381"><ele>84.007</ele><time>2026-10-08T02:00:43Z</time><speed>10.480</speed><sat>6</sat></trkpt>
  <trkpt lat="41.68198027" lon="26.57414808"><ele>83.591</ele><time>2026-10-08T02:00:44Z</time><speed>10.010</speed><sat>7</sat></trkpt>
  <trkpt lat="41.68199243" lon="26.57426225"><ele>83.574</ele><time>2026-10-08T02:00:45Z</time><speed>9.790</speed><sat>7</sat></trkpt>
  <trkpt lat="41.68203865" lon="26.57434399"><ele>83.791</ele><time>2026-10-08T02:00:46Z</time><speed>9.560</speed><sat>7</sat></trkpt>
  <trkpt lat="41.68208887" lon="26.57446356"><ele>83.911</ele><time>2026-10-08T02:00:47Z</time><speed>10.420</speed><sat>8</sat></trkpt>
  <trkpt lat="41.68208153" lon="26.57454709"><ele>85.259</ele><time>2026-10-08T02:00:48Z</time><speed>10.280</speed><sat>8</sat></trkpt>
  <trkpt lat="41.68209862" lon="26.57468109"><ele>85.509</ele><time>2026-10-08T02:00:49Z</time><speed>10.630</speed><sat>8</sat></trkpt>
  <trkpt lat="41.68210237" lon="26.57479658"><ele>86.233</ele><time>2026-10-08T02:00:50Z</time><speed>10.450</speed><sat>8</sat></trkpt>
  <trkpt lat="41.68211663" lon="26.57490808"><ele>86.152</ele><time>2026-10-08T02:00:51Z</time><speed>10.180</speed><sat>8</sat></trkpt>
  <trkpt lat="41.68214770" lon="26.57506258"><ele>86.027</ele><time>2026-10-08T02:00:52Z</time><speed>10.890</speed><sat>8</sat></trkpt>
  <trkpt lat="41.68220693" lon="26.57520987"><ele>85.987</ele><time>2026-10-08T02:00:53Z</time><speed>12.290</speed><sat>7</sat></trkpt>
  <trkpt lat="41.68226796" lon="26.57539732"><ele>84.720</ele><time>2026-10-08T02:00:54Z</time><speed>12.240</speed><sat>7</sat></trkpt>
  <trkpt lat="41.68227059" lon="26.57553368"><ele>86.559</ele><time>2026-10-08T02:00:55Z</time><speed>12.170</speed><sat>7</sat></trkpt>
  <trkpt lat="41.68233140" lon="26.57563779"><ele>86.626</ele><time>2026-10-08T02:00:56Z</time><speed>11.270</speed><sat>6</sat></trkpt>
  <trkpt lat="41.68233273" lon="26.57572799"><ele>87.201</ele><time>2026-10-08T02:00:57Z</time><speed>10.400</speed><sat>6</sat></trkpt>
  <trkpt lat="41.68232523" lon="26.57587363"><ele>86.819</ele><time>2026-10-08T02:00:58Z</time><speed>10.090</speed><sat>6</sat></trkpt>
  <trkpt lat="41.68233257" lon="26.57593803"><ele>87.998</ele><time>2026-10-08T02:00:59Z</time><speed>9.330</speed><sat>6</sat></trkpt>
  <trkpt lat="41.68237747" lon="26.57605664"><ele>88.110</ele><time>2026-10-08T02:01:00Z</time><speed>10.340</speed><sat>7</sat></trkpt>
  <trkpt lat="41.68243532" lon="26.57616513"><ele>88.476</ele><time>2026-10-08T02:01:01Z</time><speed>9.960</speed><sat>7</sat></trkpt>
  <trkpt lat="41.68243562" lon="26.57626933"><ele>90.272</ele><time>2026-10-08T02:01:02Z</time><speed>9.770</speed><sat>6</sat></trkpt>
  <trkpt lat="41.68246112" lon="26.57636693"><ele>90.331</ele><time>2026-10-08T02:01:03Z</time><speed>9.660</speed><sat>7</sat></trkpt>
  <trkpt lat="41.68248802" lon="26.57646872"><ele>90.397</ele><time>2026-10-08T02:01:04Z</time><speed>9.510</speed><sat>7</sat></trkpt>
  <trkpt lat="41.68252700" lon="26.57660891"><ele>90.285</ele><time>2026-10-08T02:01:05Z</time><speed>10.270</speed><sat>7</sat></trkpt>
  <trkpt lat="41.68256114" lon="26.57675009"><ele>90.465</ele><time>2026-10-08T02:01:06Z</time><speed>10.370</speed><sat>6</sat></trkpt>
  <trkpt lat="41.68257413" lon="26.57684263"><ele>90.143</ele><time>2026-10-08T02:01:07Z</time><speed>9.640</speed><sat>6</sat></trkpt>
  <trkpt lat="41.68258360" lon="26.57688175"><ele>90.121</ele><time>2026-10-08T02:01:08Z</time><speed>7.530</speed><sat>6</sat></trkpt>
  <trkpt lat="41.68258712" lon="26.57702905"><ele>90.578</ele><time>2026-10-08T02:01:09Z</time><speed>8.780</speed><sat>5</sat></trkpt>
  <trkpt lat="41.68261094" lon="26.57711201"><ele>90.717</ele><time>2026-10-08T02:01:10Z</time><speed>8.130</speed><sat>6</sat></trkpt>
  <trkpt lat="41.68263407" lon="26.57724430"><ele>90.381</ele><time>2026-10-08T02:01:11Z</time><speed>9.130</speed><sat>6</sat></trkpt>
  <trkpt lat="41.68262204" lon="26.57736149"><ele>90.721</ele><time>2026-10-08T02:01:12Z</time><speed>9.360</speed><sat>7</sat></trkpt>
  <trkpt lat="41.68263893" lon="26.57743511"><ele>91.172</ele><time>2026-10-08T02:01:13Z</time><speed>8.130</speed><sat>7</sat></trkpt>
  <trkpt lat="41.68275677" lon="26.57752159"><ele>83.890</ele><time>2026-10-08T02:01:14Z</time><speed>8.510</speed><sat>7</sat></trkpt>
  <trkpt lat="41.68278526" lon="26.57760135"><ele>83.361</ele><time>2026-10-08T02:01:15Z</time><speed>8.280</speed><sat>8</sat></trkpt>
  <trkpt lat="41.68280526" lon="26.57769329"><ele>83.408</ele><time>2026-10-08T02:01:16Z</time><speed>8.220</speed><sat>7</sat></trkpt>
  <trkpt lat="41.68279650" lon="26.57781114"><ele>83.880</ele><time>2026-10-08T02:01:17Z</time><speed>8.340</speed><sat>7</sat></trkpt>
  <trkpt lat="41.68278453" lon="26.57791337"><ele>84.278</ele><time>2026-10-08T02:01:18Z</time><speed>8.040</speed><sat>6</sat></trkpt>
  <trkpt lat="41.68279178" lon="26.57797267"><ele>83.157</ele><time>2026-10-08T02:01:19Z</time><speed>7.880</speed><sat>6</sat></trkpt>
  <trkpt lat="41.68274486" lon="26.57819834"><ele>83.479</ele><time>2026-10-08T02:01:21Z</time><speed>8.180</speed><sat>5</sat></trkpt>
  <trkpt lat="41.68267299" lon="26.57848723"><ele>84.410</ele><time>2026-10-08T02:01:24Z</time><speed>7.950</speed><sat>5</sat></trkpt>
  <trkpt lat="41.68264182" lon="26.57860262"><ele>84.584</ele><time>2026-10-08T02:01:25Z</time><speed>8.010</speed><sat>6</sat></trkpt>
  <trkpt lat="41.68261523" lon="26.57870567"><ele>86.315</ele><time>2026-10-08T02:01:26Z</time><speed>7.400</speed><sat>8</sat></trkpt>
  <trkpt lat="41.68258031" lon="26.57873540"><ele>87.148</ele><time>2026-10-08T02:01:27Z</time><speed>6.410</speed><sat>8</sat></trkpt>
  <trkpt lat="41.68255113" lon="26.57880295"><ele>86.916</ele><time>2026-10-08T02:01:28Z</time><speed>6.490</speed><sat>8</sat></trkpt>
  <trkpt lat="41.68250622" lon="26.57885237"><ele>87.190</ele><time>2026-10-08T02:01:29Z</time><speed>7.100</speed><sat>8</sat></trkpt>
  <trkpt lat="41.68246644" lon="26.57895072"><ele>88.568</ele><time>2026-10-08T02:01:30Z</time><speed>7.490</speed><sat>8</sat></trkpt>
  <trkpt lat="41.68243734" lon="26.57911967"><ele>95.052</ele><time>2026-10-08T02:01:31Z</time><speed>7.140</speed><sat>8</sat></trkpt>
  <trkpt lat="41.68234878" lon="26.57920831"><ele>100.315</ele><time>2026-10-08T02:01:32Z</time><speed>7.450</speed><sat>8</sat></trkpt>
  <trkpt lat="41.68237800" lon="26.57923131"><ele>103.621</ele><time>2026-10-08T02:01:33Z</time><speed>5.960</speed><sat>9</sat></trkpt>
  <trkpt lat="41.68238462" lon="26.57924517"><ele>106.463</ele><time>2026-10-08T02:01:34Z</time><speed>4.600</speed><sat>9</sat></trkpt>
  <trkpt lat="41.68243066" lon="26.57920509"><ele>110.215</ele><time>2026-10-08T02:01:35Z</time><speed>3.670</speed><sat>9</sat></trkpt>
  <trkpt lat="41.68249081" lon="26.57919832"><ele>113.194</ele><time>2026-10-08T02:01:36Z</time><speed>3.530</speed><sat>10</sat></trkpt>
  <trkpt lat="41.68242614" lon="26.57926922"><ele>115.707</ele><time>2026-10-08T02:01:37Z</time><speed>4.430</speed><sat>11</sat></trkpt>
  <trkpt lat="41.68239453" lon="26.57927016"><ele>115.719</ele><time>2026-10-08T02:01:38Z</time><speed>4.310</speed><sat>11</sat></trkpt>
  <trkpt lat="41.68237239" lon="26.57932029"><ele>116.381</ele><time>2026-10-08T02:01:39Z</time><speed>4.350</speed><sat>11</sat></trkpt>
  <trkpt lat="41.68236016" lon="26.57935589"><ele>116.517</ele><time>2026-10-08T02:01:40Z</time><speed>3.810</speed><sat>12</sat></trkpt>
  <trkpt lat="41.68233940" lon="26.57940882"><ele>116.905</ele><time>2026-10-08T02:01:41Z</time><speed>3.640</speed><sat>12</sat></trkpt>
  <trkpt lat="41.68233769" lon="26.57942998"><ele>117.518</ele><time>2026-10-08T02:01:42Z</time><speed>3.860</speed><sat>12</sat></trkpt>
  <trkpt lat="41.68233632" lon="26.57947934"><ele>117.096</ele><time>2026-10-08T02:01:43Z</time><speed>3.570</speed><sat>12</sat></trkpt>
  <trkpt lat="41.68233143" lon="26.57950503"><ele>120.131</ele><time>2026-10-08T02:01:44Z</time><speed>3.690</speed><sat>12</sat></trkpt>
  <trkpt lat="41.68233695" lon="26.57952635"><ele>122.233</ele><time>2026-10-08T02:01:45Z</time><speed>3.740</speed><sat>12</sat></trkpt>
  <trkpt lat="41.68234646" lon="26.57959962"><ele>120.716</ele><time>2026-10-08T02:01:46Z</time><speed>5.170</speed><sat>11</sat></trkpt>
  <trkpt lat="41.68235390" lon="26.57961737"><ele>122.238</ele><time>2026-10-08T02:01:47Z</time><speed>4.410</speed><sat>12</sat></trkpt>
  <trkpt lat="41.68237703" lon="26.57973139"><ele>122.644</ele><time>2026-10-08T02:01:48Z</time><speed>6.640</speed><sat>12</sat></trkpt>
  <trkpt lat="41.68243938" lon="26.57986000"><ele>121.482</ele><time>2026-10-08T02:01:49Z</time><speed>8.360</speed><sat>12</sat></trkpt>
  <trkpt lat="41.68247153" lon="26.57993570"><ele>122.121</ele><time>2026-10-08T02:01:50Z</time><speed>8.530</speed><sat>13</sat></trkpt>
  <trkpt lat="41.68251485" lon="26.58001155"><ele>122.366</ele><time>2026-10-08T02:01:51Z</time><speed>8.660</speed><sat>13</sat></trkpt>
  <trkpt lat="41.68256722" lon="26.58011425"><ele>124.192</ele><time>2026-10-08T02:01:52Z</time><speed>9.350</speed><sat>13</sat></trkpt>
  <trkpt lat="41.68267705" lon="26.58019289"><ele>122.969</ele><time>2026-10-08T02:01:53Z</time><speed>9.560</speed><sat>13</sat></trkpt>
  <trkpt lat="41.68272538" lon="26.58029248"><ele>122.440</ele><time>2026-10-08T02:01:54Z</time><speed>9.430</speed><sat>14</sat></trkpt>
  <trkpt lat="41.68276993" lon="26.58040020"><ele>121.961</ele><time>2026-10-08T02:01:55Z</time><speed>9.030</speed><sat>12</sat></trkpt>
  <trkpt lat="41.68281789" lon="26.58047505"><ele>122.109</ele><time>2026-10-08T02:01:56Z</time><speed>8.820</speed><sat>12</sat></trkpt>
  <trkpt lat="41.68282450" lon="26.58052152"><ele>122.357</ele><time>2026-10-08T02:01:57Z</time><speed>7.610</speed><sat>12</sat></trkpt>
  <trkpt lat="41.68277952" lon="26.58047409"><ele>122.319</ele><time>2026-10-08T02:01:58Z</time><speed>3.870</speed><sat>12</sat></trkpt>
  <trkpt lat="41.68279128" lon="26.58049703"><ele>123.146</ele><time>2026-10-08T02:01:59Z</time><speed>3.640</speed><sat>11</sat></trkpt>
  <trkpt lat="41.68279917" lon="26.58048211"><ele>123.749</ele><time>2026-10-08T02:02:00Z</time><speed>2.930</speed><sat>10</sat></trkpt>
  <trkpt lat="41.68278056" lon="26.58048121"><ele>124.421</ele><time>2026-10-08T02:02:01Z</time><speed>1.780</speed><sat>11</sat></trkpt>
  <trkpt lat="41.68276661" lon="26.58049637"><ele>125.228</ele><time>2026-10-08T02:02:02Z</time><speed>1.800</speed><sat>10</sat></trkpt>
  <trkpt lat="41.68271619" lon="26.58050106"><ele>127.305</ele><time>2026-10-08T02:02:03Z</time><speed>1.790</speed><sat>13</sat></trkpt>
  <trkpt lat="41.68270789" lon="26.58051941"><ele>127.448</ele><time>2026-10-08T02:02:04Z</time><speed>1.350</speed><sat>12</sat></trkpt>
  <trkpt lat="41.68270124" lon="26.58052910"><ele>127.416</ele><time>2026-10-08T02:02:05Z</time><speed>1.020</speed><sat>10</sat></trkpt>
  <trkpt lat="41.68272323" lon="26.58053707"><ele>126.597</ele><time>2026-10-08T02:02:06Z</time><speed>0.750</speed><sat>9</sat></trkpt>
  <trkpt lat="41.68272172" lon="26.58053487"><ele>126.941</ele><time>2026-10-08T02:02:07Z</time><speed>0.530</speed><sat>9</sat></trkpt>
  <trkpt lat="41.68273259" lon="26.58055707"><ele>127.386</ele><time>2026-10-08T02:02:08Z</time><speed>0.230</speed><sat>8</sat></trkpt>
  <trkpt lat="41.68275926" lon="26.58052488"><ele>127.487</ele><time>2026-10-08T02:02:09Z</time><speed>0.000</speed><sat>11</sat></trkpt>
  <trkpt lat="41.68277146" lon="26.58050908"><ele>127.981</ele><time>2026-10-08T02:02:10Z</time><speed>0.000</speed><sat>15</sat></trkpt>
  <trkpt lat="41.68277694" lon="26.58050077"><ele>128.141</ele><time>2026-10-08T02:02:11Z</time><speed>0.000</speed><sat>21</sat></trkpt>
  <trkpt lat="41.68277763" lon="26.58049749"><ele>127.888</ele><time>2026-10-08T02:02:12Z</time><speed>0.000</speed><sat>21</sat></trkpt>
  <trkpt lat="41.68278127" lon="26.58049510"><ele>129.003</ele><time>2026-10-08T02:02:13Z</time><speed>0.260</speed><sat>22</sat></trkpt>
  <trkpt lat="41.68278505" lon="26.58049006"><ele>136.107</ele><time>2026-10-08T02:02:14Z</time><speed>0.320</speed><sat>26</sat></trkpt>
  <trkpt lat="41.68278878" lon="26.58049050"><ele>140.027</ele><time>2026-10-08T02:02:15Z</time><speed>0.460</speed><sat>26</sat></trkpt>
  <trkpt lat="41.68279510" lon="26.58049194"><ele>143.086</ele><time>2026-10-08T02:02:16Z</time><speed>0.150</speed><sat>28</sat></trkpt>
  <trkpt lat="41.68279837" lon="26.58048596"><ele>144.960</ele><time>2026-10-08T02:02:17Z</time><speed>0.810</speed><sat>29</sat></trkpt>
  <trkpt lat="41.68281203" lon="26.58047610"><ele>145.938</ele><time>2026-10-08T02:02:18Z</time><speed>0.000</speed><sat>29</sat></trkpt>
  <trkpt lat="41.68282077" lon="26.58047286"><ele>145.990</ele><time>2026-10-08T02:02:19Z</time><speed>0.000</speed><sat>29</sat></trkpt>
  <trkpt lat="41.68282535" lon="26.58047115"><ele>146.674</ele><time>2026-10-08T02:02:20Z</time><speed>0.000</speed><sat>29</sat></trkpt>
  <trkpt lat="41.68283021" lon="26.58047178"><ele>147.509</ele><time>2026-10-08T02:02:21Z</time><speed>0.000</speed><sat>29</sat></trkpt>
  <trkpt lat="41.68283147" lon="26.58047125"><ele>147.939</ele><time>2026-10-08T02:02:22Z</time><speed>0.000</speed><sat>29</sat></trkpt>
  <trkpt lat="41.68283103" lon="26.58047105"><ele>147.194</ele><time>2026-10-08T02:02:23Z</time><speed>0.000</speed><sat>27</sat></trkpt>
  <trkpt lat="41.68283024" lon="26.58047164"><ele>147.206</ele><time>2026-10-08T02:02:24Z</time><speed>0.210</speed><sat>27</sat></trkpt>
  <trkpt lat="41.68283020" lon="26.58047363"><ele>147.069</ele><time>2026-10-08T02:02:25Z</time><speed>0.000</speed><sat>27</sat></trkpt>
  <trkpt lat="41.68283036" lon="26.58047447"><ele>146.974</ele><time>2026-10-08T02:02:26Z</time><speed>0.000</speed><sat>27</sat></trkpt>
  <trkpt lat="41.68283229" lon="26.58047424"><ele>147.285</ele><time>2026-10-08T02:02:27Z</time><speed>0.000</speed><sat>27</sat></trkpt>
  <trkpt lat="41.68283313" lon="26.58047314"><ele>146.982</ele><time>2026-10-08T02:02:28Z</time><speed>0.000</speed><sat>27</sat></trkpt>
  <trkpt lat="41.68283337" lon="26.58047288"><ele>146.872</ele><time>2026-10-08T02:02:29Z</time><speed>0.000</speed><sat>27</sat></trkpt>
  <trkpt lat="41.68283347" lon="26.58047212"><ele>146.969</ele><time>2026-10-08T02:02:30Z</time><speed>0.000</speed><sat>27</sat></trkpt>
  <trkpt lat="41.68283477" lon="26.58047089"><ele>147.499</ele><time>2026-10-08T02:02:31Z</time><speed>0.000</speed><sat>27</sat></trkpt>
  <trkpt lat="41.68283557" lon="26.58047226"><ele>146.370</ele><time>2026-10-08T02:02:32Z</time><speed>0.000</speed><sat>27</sat></trkpt>
  <trkpt lat="41.68283945" lon="26.58047934"><ele>146.381</ele><time>2026-10-08T02:02:33Z</time><speed>0.000</speed><sat>26</sat></trkpt>
  <trkpt lat="41.68284265" lon="26.58048356"><ele>146.142</ele><time>2026-10-08T02:02:34Z</time><speed>0.000</speed><sat>29</sat></trkpt>
  <trkpt lat="41.68284340" lon="26.58048535"><ele>145.748</ele><time>2026-10-08T02:02:35Z</time><speed>0.000</speed><sat>30</sat></trkpt>
  <trkpt lat="41.68284455" lon="26.58048749"><ele>145.713</ele><time>2026-10-08T02:02:36Z</time><speed>0.000</speed><sat>30</sat></trkpt>
  <trkpt lat="41.68284604" lon="26.58048920"><ele>145.576</ele><time>2026-10-08T02:02:37Z</time><speed>0.000</speed><sat>30</sat></trkpt>
  <trkpt lat="41.68284934" lon="26.58048809"><ele>146.078</ele><time>2026-10-08T02:02:38Z</time><speed>0.400</speed><sat>30</sat></trkpt>
  <trkpt lat="41.68285159" lon="26.58048903"><ele>147.427</ele><time>2026-10-08T02:02:39Z</time><speed>0.000</speed><sat>30</sat></trkpt>
  <trkpt lat="41.68285185" lon="26.58049088"><ele>147.299</ele><time>2026-10-08T02:02:40Z</time><speed>0.000</speed><sat>29</sat></trkpt>
  <trkpt lat="41.68285201" lon="26.58049189"><ele>147.521</ele><time>2026-10-08T02:02:41Z</time><speed>0.000</speed><sat>29</sat></trkpt>
  <trkpt lat="41.68285291" lon="26.58049367"><ele>147.339</ele><time>2026-10-08T02:02:42Z</time><speed>0.000</speed><sat>28</sat></trkpt>
  <trkpt lat="41.68285297" lon="26.58049507"><ele>146.994</ele><time>2026-10-08T02:02:43Z</time><speed>0.000</speed><sat>29</sat></trkpt>
  <trkpt lat="41.68285333" lon="26.58049606"><ele>147.054</ele><time>2026-10-08T02:02:44Z</time><speed>0.000</speed><sat>29</sat></trkpt>
  <trkpt lat="41.68285325" lon="26.58049649"><ele>147.113</ele><time>2026-10-08T02:02:45Z</time><speed>0.000</speed><sat>29</sat></trkpt>
  <trkpt lat="41.68285306" lon="26.58049614"><ele>147.090</ele><time>2026-10-08T02:02:46Z</time><speed>0.000</speed><sat>29</sat></trkpt>
  <trkpt lat="41.68285158" lon="26.58048630"><ele>147.001</ele><time>2026-10-08T02:02:47Z</time><speed>0.530</speed><sat>29</sat></trkpt>
  <trkpt lat="41.68284297" lon="26.58047576"><ele>147.518</ele><time>2026-10-08T02:02:48Z</time><speed>1.550</speed><sat>29</sat></trkpt>
  <trkpt lat="41.68283655" lon="26.58047012"><ele>146.317</ele><time>2026-10-08T02:02:49Z</time><speed>0.220</speed><sat>29</sat></trkpt>
  <trkpt lat="41.68284906" lon="26.58045135"><ele>145.748</ele><time>2026-10-08T02:02:50Z</time><speed>3.450</speed><sat>29</sat></trkpt>
  <trkpt lat="41.68286796" lon="26.58043901"><ele>144.887</ele><time>2026-10-08T02:02:51Z</time><speed>1.840</speed><sat>29</sat></trkpt>
  <trkpt lat="41.68288540" lon="26.58046543"><ele>145.276</ele><time>2026-10-08T02:02:52Z</time><speed>4.090</speed><sat>29</sat></trkpt>
  <trkpt lat="41.68289448" lon="26.58049113"><ele>143.897</ele><time>2026-10-08T02:02:53Z</time><speed>0.700</speed><sat>28</sat></trkpt>
  <trkpt lat="41.68289145" lon="26.58050313"><ele>143.938</ele><time>2026-10-08T02:02:54Z</time><speed>0.830</speed><sat>26</sat></trkpt>
  <trkpt lat="41.68289692" lon="26.58050922"><ele>144.167</ele><time>2026-10-08T02:02:55Z</time><speed>0.940</speed><sat>24</sat></trkpt>
  <trkpt lat="41.68291329" lon="26.58050221"><ele>144.311</ele><time>2026-10-08T02:02:56Z</time><speed>2.300</speed><sat>24</sat></trkpt>
  <trkpt lat="41.68294308" lon="26.58048699"><ele>145.443</ele><time>2026-10-08T02:02:57Z</time><speed>2.220</speed><sat>23</sat></trkpt>
  <trkpt lat="41.68297076" lon="26.58047213"><ele>145.089</ele><time>2026-10-08T02:02:58Z</time><speed>2.340</speed><sat>23</sat></trkpt>
  <trkpt lat="41.68298902" lon="26.58046768"><ele>146.067</ele><time>2026-10-08T02:02:59Z</time><speed>1.130</speed><sat>22</sat></trkpt>
  <trkpt lat="41.68300124" lon="26.58047421"><ele>145.296</ele><time>2026-10-08T02:03:00Z</time><speed>1.200</speed><sat>19</sat></trkpt>
  <trkpt lat="41.68301410" lon="26.58048881"><ele>146.843</ele><time>2026-10-08T02:03:01Z</time><speed>1.220</speed><sat>21</sat></trkpt>
  <trkpt lat="41.68302333" lon="26.58049572"><ele>147.132</ele><time>2026-10-08T02:03:02Z</time><speed>0.830</speed><sat>21</sat></trkpt>
  <trkpt lat="41.68303315" lon="26.58049293"><ele>147.310</ele><time>2026-10-08T02:03:03Z</time><speed>1.280</speed><sat>21</sat></trkpt>
  <trkpt lat="41.68304282" lon="26.58047768"><ele>149.306</ele><time>2026-10-08T02:03:04Z</time><speed>1.310</speed><sat>21</sat></trkpt>
  <trkpt lat="41.68304627" lon="26.58046160"><ele>149.173</ele><time>2026-10-08T02:03:05Z</time><speed>0.580</speed><sat>23</sat></trkpt>
  <trkpt lat="41.68304938" lon="26.58045330"><ele>149.115</ele><time>2026-10-08T02:03:06Z</time><speed>0.770</speed><sat>24</sat></trkpt>
  <trkpt lat="41.68305672" lon="26.58045747"><ele>147.587</ele><time>2026-10-08T02:03:07Z</time><speed>1.280</speed><sat>23</sat></trkpt>
  <trkpt lat="41.68306423" lon="26.58046976"><ele>147.036</ele><time>2026-10-08T02:03:08Z</time><speed>1.230</speed><sat>25</sat></trkpt>
  <trkpt lat="41.68307151" lon="26.58048321"><ele>147.664</ele><time>2026-10-08T02:03:09Z</time><speed>1.370</speed><sat>25</sat></trkpt>
  <trkpt lat="41.68307471" lon="26.58050273"><ele>148.425</ele><time>2026-10-08T02:03:10Z</time><speed>1.810</speed><sat>24</sat></trkpt>
 </trkseg>
</trk>

</gpx>
 