<?xml version="1.0" encoding="UTF-8"?>
<!-- Created with BasicAirData GPS Logger for Android - ver. 3.3.0 -->
<!-- Track 36 = 699 TrackPoints + 0 Placemarks -->

<!-- Track Statistics (based on Total Time | Time in Movement): -->
<!--  Distance = 3.25 km -->
<!--  Duration = 12:09 | 08:07 -->
<!--  Altitude Gap = 8 m -->
<!--  Max Speed = 81 km/h -->
<!--  Avg Speed = 16.1 | 24.1 km/h -->
<!--  Direction = WSW -->
<!--  Activity = car -->
<!--  Altitudes = Raw -->

<gpx version="1.0"
     creator="BasicAirData GPS Logger 3.3.0"
     xmlns="http://www.topografix.com/GPX/1/0"
     xmlns:xsi="http://www.w3.org/2001/XMLSchema-instance"
     xsi:schemaLocation="http://www.topografix.com/GPX/1/0 http://www.topografix.com/GPX/1/0/gpx.xsd">
<name>GPS Logger 20260919-191337</name>
<time>2026-09-19T21:33:54Z</time>
<keywords>car</keywords>
<bounds minlat="37.15601889" minlon="38.77891803" maxlat="37.16802567" maxlon="38.79638200" />

<trk>
 <name>Track 20260919-191337</name>
 <trkseg>
  <trkpt lat="37.16146639" lon="38.79515645"><ele>538.039</ele><time>2026-09-19T16:13:37Z</time><speed>0.000</speed><sat>35</sat></trkpt>
  <trkpt lat="37.16146487" lon="38.79515735"><ele>538.209</ele><time>2026-09-19T16:13:38Z</time><speed>0.000</speed><sat>36</sat></trkpt>
  <trkpt lat="37.16146458" lon="38.79515519"><ele>538.263</ele><time>2026-09-19T16:13:39Z</time><speed>0.000</speed><sat>36</sat></trkpt>
  <trkpt lat="37.16146439" lon="38.79515482"><ele>538.375</ele><time>2026-09-19T16:13:40Z</time><speed>0.000</speed><sat>37</sat></trkpt>
  <trkpt lat="37.16146397" lon="38.79515660"><ele>538.382</ele><time>2026-09-19T16:13:41Z</time><speed>0.000</speed><sat>37</sat></trkpt>
  <trkpt lat="37.16146279" lon="38.79515744"><ele>538.531</ele><time>2026-09-19T16:13:42Z</time><speed>0.000</speed><sat>37</sat></trkpt>
  <trkpt lat="37.16146332" lon="38.79515753"><ele>538.536</ele><time>2026-09-19T16:13:43Z</time><speed>0.000</speed><sat>37</sat></trkpt>
  <trkpt lat="37.16146324" lon="38.79515762"><ele>538.555</ele><time>2026-09-19T16:13:44Z</time><speed>0.000</speed><sat>37</sat></trkpt>
  <trkpt lat="37.16146292" lon="38.79515815"><ele>538.602</ele><time>2026-09-19T16:13:45Z</time><speed>0.000</speed><sat>37</sat></trkpt>
  <trkpt lat="37.16146267" lon="38.79515892"><ele>538.662</ele><time>2026-09-19T16:13:46Z</time><speed>0.000</speed><sat>36</sat></trkpt>
  <trkpt lat="37.16146159" lon="38.79516788"><ele>539.092</ele><time>2026-09-19T16:13:47Z</time><speed>0.200</speed><sat>36</sat></trkpt>
  <trkpt lat="37.16146181" lon="38.79517099"><ele>539.375</ele><time>2026-09-19T16:13:48Z</time><speed>0.180</speed><sat>36</sat></trkpt>
  <trkpt lat="37.16146269" lon="38.79516917"><ele>540.194</ele><time>2026-09-19T16:13:49Z</time><speed>0.000</speed><sat>36</sat></trkpt>
  <trkpt lat="37.16146103" lon="38.79517161"><ele>540.572</ele><time>2026-09-19T16:13:50Z</time><speed>0.000</speed><sat>36</sat></trkpt>
  <trkpt lat="37.16146073" lon="38.79517482"><ele>540.791</ele><time>2026-09-19T16:13:51Z</time><speed>0.000</speed><sat>36</sat></trkpt>
  <trkpt lat="37.16149605" lon="38.79522814"><ele>539.978</ele><time>2026-09-19T16:13:52Z</time><speed>5.240</speed><sat>37</sat></trkpt>
  <trkpt lat="37.16153485" lon="38.79524880"><ele>539.914</ele><time>2026-09-19T16:13:53Z</time><speed>5.800</speed><sat>37</sat></trkpt>
  <trkpt lat="37.16159603" lon="38.79526755"><ele>539.574</ele><time>2026-09-19T16:13:54Z</time><speed>7.660</speed><sat>37</sat></trkpt>
  <trkpt lat="37.16167494" lon="38.79526907"><ele>539.158</ele><time>2026-09-19T16:13:55Z</time><speed>7.910</speed><sat>37</sat></trkpt>
  <trkpt lat="37.16177812" lon="38.79528056"><ele>538.486</ele><time>2026-09-19T16:13:56Z</time><speed>10.330</speed><sat>36</sat></trkpt>
  <trkpt lat="37.16187175" lon="38.79528433"><ele>538.535</ele><time>2026-09-19T16:13:57Z</time><speed>10.740</speed><sat>37</sat></trkpt>
  <trkpt lat="37.16197623" lon="38.79528349"><ele>538.977</ele><time>2026-09-19T16:13:58Z</time><speed>10.350</speed><sat>36</sat></trkpt>
  <trkpt lat="37.16206664" lon="38.79528620"><ele>539.531</ele><time>2026-09-19T16:13:59Z</time><speed>9.970</speed><sat>37</sat></trkpt>
  <trkpt lat="37.16215254" lon="38.79529554"><ele>539.247</ele><time>2026-09-19T16:14:00Z</time><speed>9.890</speed><sat>38</sat></trkpt>
  <trkpt lat="37.16224980" lon="38.79531147"><ele>539.148</ele><time>2026-09-19T16:14:01Z</time><speed>11.090</speed><sat>36</sat></trkpt>
  <trkpt lat="37.16235075" lon="38.79531951"><ele>539.682</ele><time>2026-09-19T16:14:02Z</time><speed>10.740</speed><sat>35</sat></trkpt>
  <trkpt lat="37.16243711" lon="38.79533496"><ele>539.383</ele><time>2026-09-19T16:14:03Z</time><speed>9.360</speed><sat>36</sat></trkpt>
  <trkpt lat="37.16252627" lon="38.79534864"><ele>539.327</ele><time>2026-09-19T16:14:04Z</time><speed>9.540</speed><sat>36</sat></trkpt>
  <trkpt lat="37.16258780" lon="38.79537202"><ele>538.902</ele><time>2026-09-19T16:14:05Z</time><speed>6.920</speed><sat>36</sat></trkpt>
  <trkpt lat="37.16264928" lon="38.79538815"><ele>538.349</ele><time>2026-09-19T16:14:06Z</time><speed>6.720</speed><sat>35</sat></trkpt>
  <trkpt lat="37.16272978" lon="38.79541029"><ele>538.729</ele><time>2026-09-19T16:14:07Z</time><speed>8.010</speed><sat>34</sat></trkpt>
  <trkpt lat="37.16280639" lon="38.79541391"><ele>536.841</ele><time>2026-09-19T16:14:08Z</time><speed>8.020</speed><sat>33</sat></trkpt>
  <trkpt lat="37.16288931" lon="38.79542757"><ele>536.032</ele><time>2026-09-19T16:14:09Z</time><speed>8.640</speed><sat>32</sat></trkpt>
  <trkpt lat="37.16298106" lon="38.79543738"><ele>536.478</ele><time>2026-09-19T16:14:10Z</time><speed>9.550</speed><sat>32</sat></trkpt>
  <trkpt lat="37.16307842" lon="38.79545005"><ele>537.031</ele><time>2026-09-19T16:14:11Z</time><speed>9.920</speed><sat>34</sat></trkpt>
  <trkpt lat="37.16318937" lon="38.79547060"><ele>537.786</ele><time>2026-09-19T16:14:12Z</time><speed>10.270</speed><sat>34</sat></trkpt>
  <trkpt lat="37.16329561" lon="38.79548775"><ele>537.362</ele><time>2026-09-19T16:14:13Z</time><speed>10.290</speed><sat>33</sat></trkpt>
  <trkpt lat="37.16339493" lon="38.79549988"><ele>536.572</ele><time>2026-09-19T16:14:14Z</time><speed>10.460</speed><sat>33</sat></trkpt>
  <trkpt lat="37.16349982" lon="38.79553207"><ele>537.580</ele><time>2026-09-19T16:14:15Z</time><speed>11.140</speed><sat>30</sat></trkpt>
  <trkpt lat="37.16360471" lon="38.79553071"><ele>539.013</ele><time>2026-09-19T16:14:16Z</time><speed>11.730</speed><sat>33</sat></trkpt>
  <trkpt lat="37.16371387" lon="38.79554831"><ele>539.495</ele><time>2026-09-19T16:14:17Z</time><speed>12.520</speed><sat>33</sat></trkpt>
  <trkpt lat="37.16381861" lon="38.79556360"><ele>539.608</ele><time>2026-09-19T16:14:18Z</time><speed>12.590</speed><sat>34</sat></trkpt>
  <trkpt lat="37.16392897" lon="38.79558069"><ele>540.321</ele><time>2026-09-19T16:14:19Z</time><speed>12.100</speed><sat>33</sat></trkpt>
  <trkpt lat="37.16402271" lon="38.79559975"><ele>541.177</ele><time>2026-09-19T16:14:20Z</time><speed>11.180</speed><sat>34</sat></trkpt>
  <trkpt lat="37.16411492" lon="38.79561633"><ele>540.368</ele><time>2026-09-19T16:14:21Z</time><speed>10.260</speed><sat>34</sat></trkpt>
  <trkpt lat="37.16419840" lon="38.79563299"><ele>540.718</ele><time>2026-09-19T16:14:22Z</time><speed>10.040</speed><sat>34</sat></trkpt>
  <trkpt lat="37.16428806" lon="38.79566640"><ele>539.529</ele><time>2026-09-19T16:14:23Z</time><speed>10.440</speed><sat>35</sat></trkpt>
  <trkpt lat="37.16437781" lon="38.79570173"><ele>540.559</ele><time>2026-09-19T16:14:24Z</time><speed>10.820</speed><sat>36</sat></trkpt>
  <trkpt lat="37.16446791" lon="38.79574271"><ele>540.919</ele><time>2026-09-19T16:14:25Z</time><speed>10.900</speed><sat>37</sat></trkpt>
  <trkpt lat="37.16456167" lon="38.79577070"><ele>540.891</ele><time>2026-09-19T16:14:26Z</time><speed>10.340</speed><sat>37</sat></trkpt>
  <trkpt lat="37.16464498" lon="38.79580183"><ele>540.359</ele><time>2026-09-19T16:14:27Z</time><speed>9.580</speed><sat>37</sat></trkpt>
  <trkpt lat="37.16471109" lon="38.79581110"><ele>540.416</ele><time>2026-09-19T16:14:28Z</time><speed>8.350</speed><sat>38</sat></trkpt>
  <trkpt lat="37.16476910" lon="38.79581614"><ele>540.408</ele><time>2026-09-19T16:14:29Z</time><speed>6.800</speed><sat>38</sat></trkpt>
  <trkpt lat="37.16481120" lon="38.79582815"><ele>539.352</ele><time>2026-09-19T16:14:30Z</time><speed>5.480</speed><sat>38</sat></trkpt>
  <trkpt lat="37.16485149" lon="38.79584540"><ele>539.796</ele><time>2026-09-19T16:14:31Z</time><speed>4.950</speed><sat>38</sat></trkpt>
  <trkpt lat="37.16487406" lon="38.79586104"><ele>539.910</ele><time>2026-09-19T16:14:32Z</time><speed>3.740</speed><sat>38</sat></trkpt>
  <trkpt lat="37.16489829" lon="38.79587083"><ele>540.370</ele><time>2026-09-19T16:14:33Z</time><speed>2.860</speed><sat>37</sat></trkpt>
  <trkpt lat="37.16491462" lon="38.79586791"><ele>539.674</ele><time>2026-09-19T16:14:34Z</time><speed>1.680</speed><sat>38</sat></trkpt>
  <trkpt lat="37.16492437" lon="38.79586771"><ele>539.292</ele><time>2026-09-19T16:14:35Z</time><speed>0.980</speed><sat>38</sat></trkpt>
  <trkpt lat="37.16493208" lon="38.79586757"><ele>539.371</ele><time>2026-09-19T16:14:36Z</time><speed>0.900</speed><sat>38</sat></trkpt>
  <trkpt lat="37.16493641" lon="38.79587482"><ele>539.466</ele><time>2026-09-19T16:14:37Z</time><speed>0.780</speed><sat>38</sat></trkpt>
  <trkpt lat="37.16492939" lon="38.79586564"><ele>539.365</ele><time>2026-09-19T16:14:38Z</time><speed>0.450</speed><sat>38</sat></trkpt>
  <trkpt lat="37.16493423" lon="38.79587614"><ele>539.943</ele><time>2026-09-19T16:14:39Z</time><speed>0.000</speed><sat>38</sat></trkpt>
  <trkpt lat="37.16493242" lon="38.79588770"><ele>540.339</ele><time>2026-09-19T16:14:40Z</time><speed>0.000</speed><sat>37</sat></trkpt>
  <trkpt lat="37.16494161" lon="38.79589348"><ele>540.273</ele><time>2026-09-19T16:14:41Z</time><speed>0.000</speed><sat>35</sat></trkpt>
  <trkpt lat="37.16494578" lon="38.79588851"><ele>541.172</ele><time>2026-09-19T16:14:42Z</time><speed>0.000</speed><sat>34</sat></trkpt>
  <trkpt lat="37.16494179" lon="38.79589357"><ele>541.334</ele><time>2026-09-19T16:14:43Z</time><speed>0.000</speed><sat>36</sat></trkpt>
  <trkpt lat="37.16494507" lon="38.79588602"><ele>541.423</ele><time>2026-09-19T16:14:44Z</time><speed>0.000</speed><sat>36</sat></trkpt>
  <trkpt lat="37.16494179" lon="38.79588221"><ele>542.000</ele><time>2026-09-19T16:14:45Z</time><speed>0.000</speed><sat>37</sat></trkpt>
  <trkpt lat="37.16493707" lon="38.79587989"><ele>542.097</ele><time>2026-09-19T16:14:46Z</time><speed>0.000</speed><sat>38</sat></trkpt>
  <trkpt lat="37.16493521" lon="38.79587833"><ele>542.197</ele><time>2026-09-19T16:14:47Z</time><speed>0.000</speed><sat>38</sat></trkpt>
  <trkpt lat="37.16493425" lon="38.79587887"><ele>541.921</ele><time>2026-09-19T16:14:48Z</time><speed>0.000</speed><sat>38</sat></trkpt>
  <trkpt lat="37.16493503" lon="38.79587979"><ele>541.579</ele><time>2026-09-19T16:14:49Z</time><speed>0.000</speed><sat>38</sat></trkpt>
  <trkpt lat="37.16493462" lon="38.79588000"><ele>541.296</ele><time>2026-09-19T16:14:50Z</time><speed>0.000</speed><sat>38</sat></trkpt>
  <trkpt lat="37.16492840" lon="38.79587684"><ele>540.139</ele><time>2026-09-19T16:14:51Z</time><speed>0.000</speed><sat>38</sat></trkpt>
  <trkpt lat="37.16492682" lon="38.79587726"><ele>539.712</ele><time>2026-09-19T16:14:52Z</time><speed>0.000</speed><sat>38</sat></trkpt>
  <trkpt lat="37.16492914" lon="38.79588045"><ele>539.928</ele><time>2026-09-19T16:14:53Z</time><speed>0.000</speed><sat>36</sat></trkpt>
  <trkpt lat="37.16492909" lon="38.79588047"><ele>539.800</ele><time>2026-09-19T16:14:54Z</time><speed>0.000</speed><sat>36</sat></trkpt>
  <trkpt lat="37.16492711" lon="38.79588122"><ele>540.166</ele><time>2026-09-19T16:14:55Z</time><speed>0.000</speed><sat>37</sat></trkpt>
  <trkpt lat="37.16493066" lon="38.79588513"><ele>540.493</ele><time>2026-09-19T16:14:56Z</time><speed>0.360</speed><sat>37</sat></trkpt>
  <trkpt lat="37.16493366" lon="38.79588894"><ele>540.671</ele><time>2026-09-19T16:14:57Z</time><speed>0.000</speed><sat>37</sat></trkpt>
  <trkpt lat="37.16493502" lon="38.79589251"><ele>540.601</ele><time>2026-09-19T16:14:58Z</time><speed>0.000</speed><sat>37</sat></trkpt>
  <trkpt lat="37.16493421" lon="38.79589318"><ele>540.659</ele><time>2026-09-19T16:14:59Z</time><speed>0.000</speed><sat>38</sat></trkpt>
  <trkpt lat="37.16493282" lon="38.79589269"><ele>540.564</ele><time>2026-09-19T16:15:00Z</time><speed>0.000</speed><sat>38</sat></trkpt>
  <trkpt lat="37.16493707" lon="38.79589619"><ele>539.573</ele><time>2026-09-19T16:15:01Z</time><speed>0.810</speed><sat>38</sat></trkpt>
  <trkpt lat="37.16500182" lon="38.79593040"><ele>540.004</ele><time>2026-09-19T16:15:02Z</time><speed>5.750</speed><sat>38</sat></trkpt>
  <trkpt lat="37.16504034" lon="38.79594810"><ele>540.165</ele><time>2026-09-19T16:15:03Z</time><speed>6.070</speed><sat>38</sat></trkpt>
  <trkpt lat="37.16510523" lon="38.79596783"><ele>540.278</ele><time>2026-09-19T16:15:04Z</time><speed>7.050</speed><sat>38</sat></trkpt>
  <trkpt lat="37.16517949" lon="38.79599571"><ele>541.062</ele><time>2026-09-19T16:15:05Z</time><speed>9.060</speed><sat>38</sat></trkpt>
  <trkpt lat="37.16525818" lon="38.79602477"><ele>541.571</ele><time>2026-09-19T16:15:06Z</time><speed>10.130</speed><sat>38</sat></trkpt>
  <trkpt lat="37.16535065" lon="38.79605509"><ele>541.529</ele><time>2026-09-19T16:15:07Z</time><speed>11.630</speed><sat>39</sat></trkpt>
  <trkpt lat="37.16544920" lon="38.79609281"><ele>542.468</ele><time>2026-09-19T16:15:08Z</time><speed>12.310</speed><sat>39</sat></trkpt>
  <trkpt lat="37.16554525" lon="38.79614048"><ele>541.694</ele><time>2026-09-19T16:15:09Z</time><speed>11.490</speed><sat>39</sat></trkpt>
  <trkpt lat="37.16567521" lon="38.79617408"><ele>542.621</ele><time>2026-09-19T16:15:10Z</time><speed>14.270</speed><sat>39</sat></trkpt>
  <trkpt lat="37.16579292" lon="38.79622269"><ele>541.970</ele><time>2026-09-19T16:15:11Z</time><speed>13.980</speed><sat>39</sat></trkpt>
  <trkpt lat="37.16591522" lon="38.79626326"><ele>539.542</ele><time>2026-09-19T16:15:12Z</time><speed>12.810</speed><sat>38</sat></trkpt>
  <trkpt lat="37.16602679" lon="38.79629541"><ele>540.022</ele><time>2026-09-19T16:15:13Z</time><speed>13.090</speed><sat>36</sat></trkpt>
  <trkpt lat="37.16614742" lon="38.79630635"><ele>539.094</ele><time>2026-09-19T16:15:14Z</time><speed>12.820</speed><sat>35</sat></trkpt>
  <trkpt lat="37.16626268" lon="38.79633403"><ele>539.231</ele><time>2026-09-19T16:15:15Z</time><speed>12.790</speed><sat>34</sat></trkpt>
  <trkpt lat="37.16640319" lon="38.79633620"><ele>535.656</ele><time>2026-09-19T16:15:16Z</time><speed>12.890</speed><sat>34</sat></trkpt>
  <trkpt lat="37.16648264" lon="38.79635722"><ele>536.677</ele><time>2026-09-19T16:15:17Z</time><speed>10.780</speed><sat>33</sat></trkpt>
  <trkpt lat="37.16655941" lon="38.79637161"><ele>538.346</ele><time>2026-09-19T16:15:18Z</time><speed>9.900</speed><sat>30</sat></trkpt>
  <trkpt lat="37.16664950" lon="38.79638200"><ele>539.645</ele><time>2026-09-19T16:15:19Z</time><speed>9.300</speed><sat>34</sat></trkpt>
  <trkpt lat="37.16672174" lon="38.79637596"><ele>542.076</ele><time>2026-09-19T16:15:20Z</time><speed>8.620</speed><sat>34</sat></trkpt>
  <trkpt lat="37.16678506" lon="38.79636420"><ele>543.649</ele><time>2026-09-19T16:15:21Z</time><speed>7.150</speed><sat>35</sat></trkpt>
  <trkpt lat="37.16684204" lon="38.79634362"><ele>544.492</ele><time>2026-09-19T16:15:22Z</time><speed>6.940</speed><sat>34</sat></trkpt>
  <trkpt lat="37.16690502" lon="38.79632384"><ele>545.190</ele><time>2026-09-19T16:15:23Z</time><speed>7.090</speed><sat>34</sat></trkpt>
  <trkpt lat="37.16695157" lon="38.79630520"><ele>545.335</ele><time>2026-09-19T16:15:24Z</time><speed>5.960</speed><sat>36</sat></trkpt>
  <trkpt lat="37.16699896" lon="38.79628677"><ele>546.141</ele><time>2026-09-19T16:15:25Z</time><speed>5.770</speed><sat>37</sat></trkpt>
  <trkpt lat="37.16703644" lon="38.79628335"><ele>546.473</ele><time>2026-09-19T16:15:26Z</time><speed>5.270</speed><sat>36</sat></trkpt>
  <trkpt lat="37.16708164" lon="38.79627892"><ele>546.137</ele><time>2026-09-19T16:15:27Z</time><speed>5.760</speed><sat>35</sat></trkpt>
  <trkpt lat="37.16714191" lon="38.79625417"><ele>546.159</ele><time>2026-09-19T16:15:28Z</time><speed>7.080</speed><sat>32</sat></trkpt>
  <trkpt lat="37.16721395" lon="38.79625750"><ele>546.393</ele><time>2026-09-19T16:15:29Z</time><speed>7.830</speed><sat>28</sat></trkpt>
  <trkpt lat="37.16725940" lon="38.79629453"><ele>545.821</ele><time>2026-09-19T16:15:30Z</time><speed>7.000</speed><sat>30</sat></trkpt>
  <trkpt lat="37.16732809" lon="38.79629694"><ele>545.700</ele><time>2026-09-19T16:15:31Z</time><speed>7.130</speed><sat>31</sat></trkpt>
  <trkpt lat="37.16739095" lon="38.79629740"><ele>547.174</ele><time>2026-09-19T16:15:32Z</time><speed>6.480</speed><sat>31</sat></trkpt>
  <trkpt lat="37.16743544" lon="38.79628558"><ele>547.962</ele><time>2026-09-19T16:15:33Z</time><speed>5.860</speed><sat>35</sat></trkpt>
  <trkpt lat="37.16749006" lon="38.79627650"><ele>548.705</ele><time>2026-09-19T16:15:34Z</time><speed>5.770</speed><sat>37</sat></trkpt>
  <trkpt lat="37.16754781" lon="38.79624684"><ele>550.851</ele><time>2026-09-19T16:15:35Z</time><speed>6.540</speed><sat>36</sat></trkpt>
  <trkpt lat="37.16760998" lon="38.79623563"><ele>551.048</ele><time>2026-09-19T16:15:36Z</time><speed>6.690</speed><sat>35</sat></trkpt>
  <trkpt lat="37.16766547" lon="38.79620032"><ele>550.680</ele><time>2026-09-19T16:15:37Z</time><speed>7.140</speed><sat>35</sat></trkpt>
  <trkpt lat="37.16772566" lon="38.79614806"><ele>551.376</ele><time>2026-09-19T16:15:38Z</time><speed>7.210</speed><sat>34</sat></trkpt>
  <trkpt lat="37.16776783" lon="38.79610904"><ele>550.286</ele><time>2026-09-19T16:15:39Z</time><speed>6.200</speed><sat>34</sat></trkpt>
  <trkpt lat="37.16780664" lon="38.79608567"><ele>550.078</ele><time>2026-09-19T16:15:40Z</time><speed>4.600</speed><sat>33</sat></trkpt>
  <trkpt lat="37.16784003" lon="38.79605258"><ele>550.881</ele><time>2026-09-19T16:15:41Z</time><speed>4.160</speed><sat>34</sat></trkpt>
  <trkpt lat="37.16786312" lon="38.79602965"><ele>550.987</ele><time>2026-09-19T16:15:42Z</time><speed>3.490</speed><sat>34</sat></trkpt>
  <trkpt lat="37.16788022" lon="38.79599849"><ele>550.621</ele><time>2026-09-19T16:15:43Z</time><speed>3.000</speed><sat>33</sat></trkpt>
  <trkpt lat="37.16789939" lon="38.79595794"><ele>548.871</ele><time>2026-09-19T16:15:44Z</time><speed>3.800</speed><sat>33</sat></trkpt>
  <trkpt lat="37.16790548" lon="38.79594333"><ele>548.283</ele><time>2026-09-19T16:15:45Z</time><speed>0.980</speed><sat>34</sat></trkpt>
  <trkpt lat="37.16791826" lon="38.79592406"><ele>547.927</ele><time>2026-09-19T16:15:46Z</time><speed>1.960</speed><sat>32</sat></trkpt>
  <trkpt lat="37.16793285" lon="38.79591262"><ele>547.153</ele><time>2026-09-19T16:15:47Z</time><speed>1.680</speed><sat>33</sat></trkpt>
  <trkpt lat="37.16793419" lon="38.79591910"><ele>547.122</ele><time>2026-09-19T16:15:48Z</time><speed>0.000</speed><sat>34</sat></trkpt>
  <trkpt lat="37.16793460" lon="38.79592027"><ele>547.114</ele><time>2026-09-19T16:15:49Z</time><speed>0.000</speed><sat>32</sat></trkpt>
  <trkpt lat="37.16793344" lon="38.79591791"><ele>547.025</ele><time>2026-09-19T16:15:50Z</time><speed>0.000</speed><sat>31</sat></trkpt>
  <trkpt lat="37.16793333" lon="38.79591644"><ele>546.588</ele><time>2026-09-19T16:15:51Z</time><speed>0.000</speed><sat>28</sat></trkpt>
  <trkpt lat="37.16793174" lon="38.79591603"><ele>546.801</ele><time>2026-09-19T16:15:52Z</time><speed>0.000</speed><sat>27</sat></trkpt>
  <trkpt lat="37.16792955" lon="38.79591625"><ele>546.664</ele><time>2026-09-19T16:15:53Z</time><speed>0.000</speed><sat>26</sat></trkpt>
  <trkpt lat="37.16792868" lon="38.79591663"><ele>546.781</ele><time>2026-09-19T16:15:54Z</time><speed>0.000</speed><sat>23</sat></trkpt>
  <trkpt lat="37.16792861" lon="38.79591675"><ele>546.843</ele><time>2026-09-19T16:15:55Z</time><speed>0.000</speed><sat>23</sat></trkpt>
  <trkpt lat="37.16792905" lon="38.79591795"><ele>546.802</ele><time>2026-09-19T16:15:56Z</time><speed>0.000</speed><sat>23</sat></trkpt>
  <trkpt lat="37.16792920" lon="38.79591894"><ele>546.626</ele><time>2026-09-19T16:15:57Z</time><speed>0.000</speed><sat>23</sat></trkpt>
  <trkpt lat="37.16793171" lon="38.79591762"><ele>546.652</ele><time>2026-09-19T16:15:58Z</time><speed>0.000</speed><sat>21</sat></trkpt>
  <trkpt lat="37.16793194" lon="38.79591825"><ele>546.504</ele><time>2026-09-19T16:15:59Z</time><speed>0.000</speed><sat>25</sat></trkpt>
  <trkpt lat="37.16793159" lon="38.79591863"><ele>546.522</ele><time>2026-09-19T16:16:00Z</time><speed>0.000</speed><sat>25</sat></trkpt>
  <trkpt lat="37.16793052" lon="38.79591894"><ele>546.661</ele><time>2026-09-19T16:16:01Z</time><speed>0.000</speed><sat>25</sat></trkpt>
  <trkpt lat="37.16793048" lon="38.79591899"><ele>546.662</ele><time>2026-09-19T16:16:02Z</time><speed>0.000</speed><sat>25</sat></trkpt>
  <trkpt lat="37.16793095" lon="38.79591880"><ele>546.622</ele><time>2026-09-19T16:16:03Z</time><speed>0.000</speed><sat>25</sat></trkpt>
  <trkpt lat="37.16793011" lon="38.79592049"><ele>546.750</ele><time>2026-09-19T16:16:04Z</time><speed>0.000</speed><sat>26</sat></trkpt>
  <trkpt lat="37.16792876" lon="38.79592228"><ele>546.860</ele><time>2026-09-19T16:16:05Z</time><speed>0.000</speed><sat>31</sat></trkpt>
  <trkpt lat="37.16792872" lon="38.79592223"><ele>546.979</ele><time>2026-09-19T16:16:06Z</time><speed>0.000</speed><sat>33</sat></trkpt>
  <trkpt lat="37.16792848" lon="38.79592243"><ele>547.047</ele><time>2026-09-19T16:16:07Z</time><speed>0.000</speed><sat>34</sat></trkpt>
  <trkpt lat="37.16792850" lon="38.79592243"><ele>547.041</ele><time>2026-09-19T16:16:08Z</time><speed>0.000</speed><sat>35</sat></trkpt>
  <trkpt lat="37.16792825" lon="38.79592267"><ele>547.096</ele><time>2026-09-19T16:16:09Z</time><speed>0.000</speed><sat>35</sat></trkpt>
  <trkpt lat="37.16792827" lon="38.79592269"><ele>547.089</ele><time>2026-09-19T16:16:10Z</time><speed>0.000</speed><sat>35</sat></trkpt>
  <trkpt lat="37.16792772" lon="38.79592328"><ele>547.152</ele><time>2026-09-19T16:16:11Z</time><speed>0.000</speed><sat>33</sat></trkpt>
  <trkpt lat="37.16792792" lon="38.79592298"><ele>547.164</ele><time>2026-09-19T16:16:12Z</time><speed>0.000</speed><sat>34</sat></trkpt>
  <trkpt lat="37.16792794" lon="38.79592300"><ele>547.158</ele><time>2026-09-19T16:16:13Z</time><speed>0.000</speed><sat>32</sat></trkpt>
  <trkpt lat="37.16792791" lon="38.79592310"><ele>547.149</ele><time>2026-09-19T16:16:14Z</time><speed>0.000</speed><sat>30</sat></trkpt>
  <trkpt lat="37.16792791" lon="38.79592311"><ele>547.149</ele><time>2026-09-19T16:16:15Z</time><speed>0.000</speed><sat>30</sat></trkpt>
  <trkpt lat="37.16792799" lon="38.79592293"><ele>547.159</ele><time>2026-09-19T16:16:16Z</time><speed>0.000</speed><sat>26</sat></trkpt>
  <trkpt lat="37.16792801" lon="38.79592295"><ele>547.160</ele><time>2026-09-19T16:16:17Z</time><speed>0.000</speed><sat>28</sat></trkpt>
  <trkpt lat="37.16792801" lon="38.79592296"><ele>547.161</ele><time>2026-09-19T16:16:18Z</time><speed>0.000</speed><sat>26</sat></trkpt>
  <trkpt lat="37.16792801" lon="38.79592295"><ele>547.160</ele><time>2026-09-19T16:16:19Z</time><speed>0.000</speed><sat>24</sat></trkpt>
  <trkpt lat="37.16792812" lon="38.79592282"><ele>547.169</ele><time>2026-09-19T16:16:20Z</time><speed>0.000</speed><sat>24</sat></trkpt>
  <trkpt lat="37.16792831" lon="38.79592246"><ele>547.173</ele><time>2026-09-19T16:16:21Z</time><speed>0.000</speed><sat>25</sat></trkpt>
  <trkpt lat="37.16792808" lon="38.79592314"><ele>547.150</ele><time>2026-09-19T16:16:22Z</time><speed>0.000</speed><sat>27</sat></trkpt>
  <trkpt lat="37.16792775" lon="38.79592380"><ele>547.151</ele><time>2026-09-19T16:16:23Z</time><speed>0.000</speed><sat>26</sat></trkpt>
  <trkpt lat="37.16792707" lon="38.79592464"><ele>547.233</ele><time>2026-09-19T16:16:24Z</time><speed>0.000</speed><sat>29</sat></trkpt>
  <trkpt lat="37.16792705" lon="38.79592464"><ele>547.231</ele><time>2026-09-19T16:16:25Z</time><speed>0.000</speed><sat>31</sat></trkpt>
  <trkpt lat="37.16792704" lon="38.79592465"><ele>547.229</ele><time>2026-09-19T16:16:26Z</time><speed>0.000</speed><sat>31</sat></trkpt>
  <trkpt lat="37.16792699" lon="38.79592474"><ele>547.221</ele><time>2026-09-19T16:16:27Z</time><speed>0.000</speed><sat>30</sat></trkpt>
  <trkpt lat="37.16792689" lon="38.79592481"><ele>547.224</ele><time>2026-09-19T16:16:28Z</time><speed>0.000</speed><sat>29</sat></trkpt>
  <trkpt lat="37.16792688" lon="38.79592483"><ele>547.219</ele><time>2026-09-19T16:16:29Z</time><speed>0.000</speed><sat>29</sat></trkpt>
  <trkpt lat="37.16792674" lon="38.79592492"><ele>547.247</ele><time>2026-09-19T16:16:30Z</time><speed>0.000</speed><sat>28</sat></trkpt>
  <trkpt lat="37.16792670" lon="38.79592497"><ele>547.241</ele><time>2026-09-19T16:16:31Z</time><speed>0.000</speed><sat>30</sat></trkpt>
  <trkpt lat="37.16792657" lon="38.79592515"><ele>547.251</ele><time>2026-09-19T16:16:32Z</time><speed>0.000</speed><sat>30</sat></trkpt>
  <trkpt lat="37.16792747" lon="38.79592114"><ele>547.134</ele><time>2026-09-19T16:16:33Z</time><speed>0.220</speed><sat>30</sat></trkpt>
  <trkpt lat="37.16792579" lon="38.79591866"><ele>546.810</ele><time>2026-09-19T16:16:34Z</time><speed>0.430</speed><sat>28</sat></trkpt>
  <trkpt lat="37.16792599" lon="38.79591902"><ele>546.827</ele><time>2026-09-19T16:16:35Z</time><speed>0.000</speed><sat>28</sat></trkpt>
  <trkpt lat="37.16792602" lon="38.79592002"><ele>546.839</ele><time>2026-09-19T16:16:36Z</time><speed>0.000</speed><sat>29</sat></trkpt>
  <trkpt lat="37.16792684" lon="38.79592085"><ele>546.814</ele><time>2026-09-19T16:16:37Z</time><speed>0.000</speed><sat>28</sat></trkpt>
  <trkpt lat="37.16792815" lon="38.79592098"><ele>546.834</ele><time>2026-09-19T16:16:38Z</time><speed>0.000</speed><sat>29</sat></trkpt>
  <trkpt lat="37.16792931" lon="38.79592111"><ele>546.770</ele><time>2026-09-19T16:16:39Z</time><speed>0.000</speed><sat>29</sat></trkpt>
  <trkpt lat="37.16793020" lon="38.79592209"><ele>547.053</ele><time>2026-09-19T16:16:40Z</time><speed>0.000</speed><sat>28</sat></trkpt>
  <trkpt lat="37.16793173" lon="38.79592178"><ele>546.916</ele><time>2026-09-19T16:16:41Z</time><speed>0.000</speed><sat>30</sat></trkpt>
  <trkpt lat="37.16793233" lon="38.79592167"><ele>546.962</ele><time>2026-09-19T16:16:42Z</time><speed>0.000</speed><sat>31</sat></trkpt>
  <trkpt lat="37.16793317" lon="38.79592234"><ele>546.901</ele><time>2026-09-19T16:16:43Z</time><speed>0.000</speed><sat>31</sat></trkpt>
  <trkpt lat="37.16793435" lon="38.79592250"><ele>546.657</ele><time>2026-09-19T16:16:44Z</time><speed>0.000</speed><sat>32</sat></trkpt>
  <trkpt lat="37.16793490" lon="38.79592305"><ele>546.584</ele><time>2026-09-19T16:16:45Z</time><speed>0.000</speed><sat>32</sat></trkpt>
  <trkpt lat="37.16793551" lon="38.79592325"><ele>546.644</ele><time>2026-09-19T16:16:46Z</time><speed>0.000</speed><sat>33</sat></trkpt>
  <trkpt lat="37.16793688" lon="38.79592174"><ele>546.309</ele><time>2026-09-19T16:16:47Z</time><speed>0.360</speed><sat>31</sat></trkpt>
  <trkpt lat="37.16794064" lon="38.79591385"><ele>546.111</ele><time>2026-09-19T16:16:48Z</time><speed>1.200</speed><sat>32</sat></trkpt>
  <trkpt lat="37.16794939" lon="38.79589624"><ele>546.464</ele><time>2026-09-19T16:16:49Z</time><speed>2.150</speed><sat>33</sat></trkpt>
  <trkpt lat="37.16796105" lon="38.79586674"><ele>546.665</ele><time>2026-09-19T16:16:50Z</time><speed>3.280</speed><sat>33</sat></trkpt>
  <trkpt lat="37.16797310" lon="38.79582575"><ele>546.634</ele><time>2026-09-19T16:16:51Z</time><speed>4.070</speed><sat>34</sat></trkpt>
  <trkpt lat="37.16798795" lon="38.79577554"><ele>546.196</ele><time>2026-09-19T16:16:52Z</time><speed>4.940</speed><sat>34</sat></trkpt>
  <trkpt lat="37.16800398" lon="38.79572335"><ele>546.449</ele><time>2026-09-19T16:16:53Z</time><speed>4.750</speed><sat>31</sat></trkpt>
  <trkpt lat="37.16802567" lon="38.79566604"><ele>546.487</ele><time>2026-09-19T16:16:54Z</time><speed>5.080</speed><sat>32</sat></trkpt>
  <trkpt lat="37.16801540" lon="38.79559221"><ele>545.856</ele><time>2026-09-19T16:16:55Z</time><speed>5.900</speed><sat>31</sat></trkpt>
  <trkpt lat="37.16801385" lon="38.79550964"><ele>546.426</ele><time>2026-09-19T16:16:56Z</time><speed>6.300</speed><sat>31</sat></trkpt>
  <trkpt lat="37.16800987" lon="38.79541761"><ele>545.364</ele><time>2026-09-19T16:16:57Z</time><speed>7.130</speed><sat>31</sat></trkpt>
  <trkpt lat="37.16798600" lon="38.79534492"><ele>545.893</ele><time>2026-09-19T16:16:58Z</time><speed>7.080</speed><sat>29</sat></trkpt>
  <trkpt lat="37.16795936" lon="38.79527128"><ele>545.910</ele><time>2026-09-19T16:16:59Z</time><speed>6.600</speed><sat>28</sat></trkpt>
  <trkpt lat="37.16792746" lon="38.79519883"><ele>546.812</ele><time>2026-09-19T16:17:00Z</time><speed>6.020</speed><sat>28</sat></trkpt>
  <trkpt lat="37.16789159" lon="38.79512905"><ele>547.493</ele><time>2026-09-19T16:17:01Z</time><speed>6.220</speed><sat>30</sat></trkpt>
  <trkpt lat="37.16785102" lon="38.79508565"><ele>547.969</ele><time>2026-09-19T16:17:02Z</time><speed>6.200</speed><sat>34</sat></trkpt>
  <trkpt lat="37.16781192" lon="38.79503251"><ele>548.781</ele><time>2026-09-19T16:17:03Z</time><speed>7.250</speed><sat>32</sat></trkpt>
  <trkpt lat="37.16775167" lon="38.79495975"><ele>548.677</ele><time>2026-09-19T16:17:04Z</time><speed>8.860</speed><sat>35</sat></trkpt>
  <trkpt lat="37.16769342" lon="38.79491343"><ele>547.478</ele><time>2026-09-19T16:17:05Z</time><speed>7.640</speed><sat>34</sat></trkpt>
  <trkpt lat="37.16763542" lon="38.79485535"><ele>547.037</ele><time>2026-09-19T16:17:06Z</time><speed>8.070</speed><sat>36</sat></trkpt>
  <trkpt lat="37.16760379" lon="38.79482301"><ele>546.800</ele><time>2026-09-19T16:17:07Z</time><speed>5.450</speed><sat>36</sat></trkpt>
  <trkpt lat="37.16756960" lon="38.79476941"><ele>547.070</ele><time>2026-09-19T16:17:08Z</time><speed>5.070</speed><sat>36</sat></trkpt>
  <trkpt lat="37.16754135" lon="38.79472669"><ele>546.849</ele><time>2026-09-19T16:17:09Z</time><speed>4.570</speed><sat>39</sat></trkpt>
  <trkpt lat="37.16751470" lon="38.79467165"><ele>546.881</ele><time>2026-09-19T16:17:10Z</time><speed>5.660</speed><sat>39</sat></trkpt>
  <trkpt lat="37.16748825" lon="38.79461082"><ele>546.792</ele><time>2026-09-19T16:17:11Z</time><speed>5.890</speed><sat>37</sat></trkpt>
  <trkpt lat="37.16744946" lon="38.79453470"><ele>547.492</ele><time>2026-09-19T16:17:12Z</time><speed>6.810</speed><sat>37</sat></trkpt>
  <trkpt lat="37.16741860" lon="38.79446501"><ele>547.722</ele><time>2026-09-19T16:17:13Z</time><speed>7.080</speed><sat>37</sat></trkpt>
  <trkpt lat="37.16738706" lon="38.79437508"><ele>548.385</ele><time>2026-09-19T16:17:14Z</time><speed>8.010</speed><sat>36</sat></trkpt>
  <trkpt lat="37.16736358" lon="38.79429000"><ele>547.811</ele><time>2026-09-19T16:17:15Z</time><speed>8.110</speed><sat>31</sat></trkpt>
  <trkpt lat="37.16732939" lon="38.79418928"><ele>547.499</ele><time>2026-09-19T16:17:16Z</time><speed>8.740</speed><sat>29</sat></trkpt>
  <trkpt lat="37.16729488" lon="38.79409562"><ele>546.625</ele><time>2026-09-19T16:17:17Z</time><speed>9.330</speed><sat>31</sat></trkpt>
  <trkpt lat="37.16725926" lon="38.79400319"><ele>545.547</ele><time>2026-09-19T16:17:18Z</time><speed>9.200</speed><sat>34</sat></trkpt>
  <trkpt lat="37.16722895" lon="38.79391969"><ele>545.711</ele><time>2026-09-19T16:17:19Z</time><speed>8.890</speed><sat>32</sat></trkpt>
  <trkpt lat="37.16719883" lon="38.79383908"><ele>545.505</ele><time>2026-09-19T16:17:20Z</time><speed>8.490</speed><sat>31</sat></trkpt>
  <trkpt lat="37.16717314" lon="38.79376096"><ele>545.932</ele><time>2026-09-19T16:17:21Z</time><speed>8.320</speed><sat>31</sat></trkpt>
  <trkpt lat="37.16714873" lon="38.79368287"><ele>545.386</ele><time>2026-09-19T16:17:22Z</time><speed>8.100</speed><sat>32</sat></trkpt>
  <trkpt lat="37.16711698" lon="38.79358889"><ele>545.302</ele><time>2026-09-19T16:17:23Z</time><speed>8.430</speed><sat>29</sat></trkpt>
  <trkpt lat="37.16708695" lon="38.79350840"><ele>544.650</ele><time>2026-09-19T16:17:24Z</time><speed>8.110</speed><sat>26</sat></trkpt>
  <trkpt lat="37.16705998" lon="38.79341679"><ele>544.922</ele><time>2026-09-19T16:17:25Z</time><speed>8.150</speed><sat>25</sat></trkpt>
  <trkpt lat="37.16703527" lon="38.79333595"><ele>545.399</ele><time>2026-09-19T16:17:26Z</time><speed>7.800</speed><sat>26</sat></trkpt>
  <trkpt lat="37.16699941" lon="38.79324340"><ele>545.414</ele><time>2026-09-19T16:17:27Z</time><speed>8.070</speed><sat>23</sat></trkpt>
  <trkpt lat="37.16696534" lon="38.79315421"><ele>546.012</ele><time>2026-09-19T16:17:28Z</time><speed>8.900</speed><sat>23</sat></trkpt>
  <trkpt lat="37.16693515" lon="38.79305693"><ele>547.102</ele><time>2026-09-19T16:17:29Z</time><speed>9.910</speed><sat>24</sat></trkpt>
  <trkpt lat="37.16688496" lon="38.79292790"><ele>548.928</ele><time>2026-09-19T16:17:30Z</time><speed>12.450</speed><sat>26</sat></trkpt>
  <trkpt lat="37.16683825" lon="38.79278920"><ele>548.134</ele><time>2026-09-19T16:17:31Z</time><speed>13.260</speed><sat>29</sat></trkpt>
  <trkpt lat="37.16677697" lon="38.79263231"><ele>548.119</ele><time>2026-09-19T16:17:32Z</time><speed>14.890</speed><sat>30</sat></trkpt>
  <trkpt lat="37.16670304" lon="38.79244166"><ele>547.807</ele><time>2026-09-19T16:17:33Z</time><speed>17.120</speed><sat>29</sat></trkpt>
  <trkpt lat="37.16661906" lon="38.79227785"><ele>547.944</ele><time>2026-09-19T16:17:34Z</time><speed>17.210</speed><sat>32</sat></trkpt>
  <trkpt lat="37.16654038" lon="38.79209068"><ele>547.887</ele><time>2026-09-19T16:17:35Z</time><speed>18.050</speed><sat>33</sat></trkpt>
  <trkpt lat="37.16645475" lon="38.79187977"><ele>548.115</ele><time>2026-09-19T16:17:36Z</time><speed>19.240</speed><sat>34</sat></trkpt>
  <trkpt lat="37.16639817" lon="38.79165332"><ele>548.367</ele><time>2026-09-19T16:17:37Z</time><speed>20.430</speed><sat>31</sat></trkpt>
  <trkpt lat="37.16633621" lon="38.79144371"><ele>548.459</ele><time>2026-09-19T16:17:38Z</time><speed>20.590</speed><sat>32</sat></trkpt>
  <trkpt lat="37.16625249" lon="38.79122821"><ele>549.030</ele><time>2026-09-19T16:17:39Z</time><speed>21.200</speed><sat>34</sat></trkpt>
  <trkpt lat="37.16618597" lon="38.79099937"><ele>551.476</ele><time>2026-09-19T16:17:40Z</time><speed>21.070</speed><sat>34</sat></trkpt>
  <trkpt lat="37.16612424" lon="38.79075776"><ele>553.140</ele><time>2026-09-19T16:17:41Z</time><speed>21.490</speed><sat>35</sat></trkpt>
  <trkpt lat="37.16605253" lon="38.79052992"><ele>554.100</ele><time>2026-09-19T16:17:42Z</time><speed>21.850</speed><sat>34</sat></trkpt>
  <trkpt lat="37.16598206" lon="38.79029936"><ele>555.087</ele><time>2026-09-19T16:17:43Z</time><speed>22.100</speed><sat>35</sat></trkpt>
  <trkpt lat="37.16590549" lon="38.79006807"><ele>554.991</ele><time>2026-09-19T16:17:44Z</time><speed>22.380</speed><sat>36</sat></trkpt>
  <trkpt lat="37.16582928" lon="38.78983318"><ele>555.902</ele><time>2026-09-19T16:17:45Z</time><speed>22.570</speed><sat>37</sat></trkpt>
  <trkpt lat="37.16575854" lon="38.78960043"><ele>555.393</ele><time>2026-09-19T16:17:46Z</time><speed>22.320</speed><sat>37</sat></trkpt>
  <trkpt lat="37.16569002" lon="38.78936335"><ele>556.442</ele><time>2026-09-19T16:17:47Z</time><speed>22.420</speed><sat>36</sat></trkpt>
  <trkpt lat="37.16561881" lon="38.78914775"><ele>557.008</ele><time>2026-09-19T16:17:48Z</time><speed>21.800</speed><sat>37</sat></trkpt>
  <trkpt lat="37.16555634" lon="38.78891510"><ele>556.914</ele><time>2026-09-19T16:17:49Z</time><speed>22.530</speed><sat>37</sat></trkpt>
  <trkpt lat="37.16549248" lon="38.78869090"><ele>555.943</ele><time>2026-09-19T16:17:50Z</time><speed>21.640</speed><sat>36</sat></trkpt>
  <trkpt lat="37.16542661" lon="38.78846953"><ele>558.638</ele><time>2026-09-19T16:17:51Z</time><speed>20.960</speed><sat>35</sat></trkpt>
  <trkpt lat="37.16534732" lon="38.78826495"><ele>559.374</ele><time>2026-09-19T16:17:52Z</time><speed>20.580</speed><sat>36</sat></trkpt>
  <trkpt lat="37.16526706" lon="38.78805695"><ele>561.483</ele><time>2026-09-19T16:17:53Z</time><speed>20.420</speed><sat>36</sat></trkpt>
  <trkpt lat="37.16519614" lon="38.78783551"><ele>562.448</ele><time>2026-09-19T16:17:54Z</time><speed>20.230</speed><sat>35</sat></trkpt>
  <trkpt lat="37.16512802" lon="38.78762289"><ele>563.761</ele><time>2026-09-19T16:17:55Z</time><speed>20.200</speed><sat>34</sat></trkpt>
  <trkpt lat="37.16506245" lon="38.78741024"><ele>563.949</ele><time>2026-09-19T16:17:56Z</time><speed>20.390</speed><sat>34</sat></trkpt>
  <trkpt lat="37.16499138" lon="38.78719826"><ele>564.999</ele><time>2026-09-19T16:17:57Z</time><speed>20.720</speed><sat>35</sat></trkpt>
  <trkpt lat="37.16492129" lon="38.78698181"><ele>565.842</ele><time>2026-09-19T16:17:58Z</time><speed>20.750</speed><sat>37</sat></trkpt>
  <trkpt lat="37.16485534" lon="38.78676770"><ele>566.664</ele><time>2026-09-19T16:17:59Z</time><speed>20.500</speed><sat>37</sat></trkpt>
  <trkpt lat="37.16477971" lon="38.78654032"><ele>567.126</ele><time>2026-09-19T16:18:00Z</time><speed>21.540</speed><sat>37</sat></trkpt>
  <trkpt lat="37.16470207" lon="38.78631455"><ele>567.892</ele><time>2026-09-19T16:18:01Z</time><speed>21.810</speed><sat>37</sat></trkpt>
  <trkpt lat="37.16461864" lon="38.78608668"><ele>568.840</ele><time>2026-09-19T16:18:02Z</time><speed>22.060</speed><sat>34</sat></trkpt>
  <trkpt lat="37.16452812" lon="38.78586683"><ele>568.633</ele><time>2026-09-19T16:18:03Z</time><speed>22.140</speed><sat>34</sat></trkpt>
  <trkpt lat="37.16443605" lon="38.78563849"><ele>569.227</ele><time>2026-09-19T16:18:04Z</time><speed>22.400</speed><sat>32</sat></trkpt>
  <trkpt lat="37.16433873" lon="38.78542295"><ele>569.809</ele><time>2026-09-19T16:18:05Z</time><speed>22.170</speed><sat>33</sat></trkpt>
  <trkpt lat="37.16423804" lon="38.78521338"><ele>570.081</ele><time>2026-09-19T16:18:06Z</time><speed>21.920</speed><sat>33</sat></trkpt>
  <trkpt lat="37.16413779" lon="38.78500825"><ele>570.822</ele><time>2026-09-19T16:18:07Z</time><speed>21.310</speed><sat>33</sat></trkpt>
  <trkpt lat="37.16404708" lon="38.78483231"><ele>570.806</ele><time>2026-09-19T16:18:08Z</time><speed>19.400</speed><sat>32</sat></trkpt>
  <trkpt lat="37.16395422" lon="38.78465819"><ele>570.638</ele><time>2026-09-19T16:18:09Z</time><speed>18.840</speed><sat>31</sat></trkpt>
  <trkpt lat="37.16347336" lon="38.78383157"><ele>571.247</ele><time>2026-09-19T16:18:13Z</time><speed>21.450</speed><sat>30</sat></trkpt>
  <trkpt lat="37.16335643" lon="38.78363827"><ele>571.935</ele><time>2026-09-19T16:18:14Z</time><speed>21.620</speed><sat>28</sat></trkpt>
  <trkpt lat="37.16323383" lon="38.78344803"><ele>572.970</ele><time>2026-09-19T16:18:15Z</time><speed>22.150</speed><sat>31</sat></trkpt>
  <trkpt lat="37.16308921" lon="38.78327297"><ele>574.195</ele><time>2026-09-19T16:18:16Z</time><speed>21.510</speed><sat>31</sat></trkpt>
  <trkpt lat="37.16296617" lon="38.78308462"><ele>573.949</ele><time>2026-09-19T16:18:17Z</time><speed>21.800</speed><sat>30</sat></trkpt>
  <trkpt lat="37.16284417" lon="38.78291034"><ele>571.736</ele><time>2026-09-19T16:18:18Z</time><speed>20.560</speed><sat>30</sat></trkpt>
  <trkpt lat="37.16271692" lon="38.78275784"><ele>571.640</ele><time>2026-09-19T16:18:19Z</time><speed>19.560</speed><sat>35</sat></trkpt>
  <trkpt lat="37.16259429" lon="38.78260434"><ele>571.888</ele><time>2026-09-19T16:18:20Z</time><speed>19.190</speed><sat>36</sat></trkpt>
  <trkpt lat="37.16246958" lon="38.78246323"><ele>571.409</ele><time>2026-09-19T16:18:21Z</time><speed>18.950</speed><sat>36</sat></trkpt>
  <trkpt lat="37.16234552" lon="38.78231887"><ele>570.485</ele><time>2026-09-19T16:18:22Z</time><speed>18.870</speed><sat>36</sat></trkpt>
  <trkpt lat="37.16220794" lon="38.78216766"><ele>569.445</ele><time>2026-09-19T16:18:23Z</time><speed>19.970</speed><sat>37</sat></trkpt>
  <trkpt lat="37.16207796" lon="38.78203814"><ele>570.142</ele><time>2026-09-19T16:18:24Z</time><speed>17.930</speed><sat>38</sat></trkpt>
  <trkpt lat="37.16193692" lon="38.78192622"><ele>569.639</ele><time>2026-09-19T16:18:25Z</time><speed>18.780</speed><sat>38</sat></trkpt>
  <trkpt lat="37.16179790" lon="38.78180091"><ele>568.698</ele><time>2026-09-19T16:18:26Z</time><speed>18.670</speed><sat>38</sat></trkpt>
  <trkpt lat="37.16165787" lon="38.78168008"><ele>567.713</ele><time>2026-09-19T16:18:27Z</time><speed>18.570</speed><sat>39</sat></trkpt>
  <trkpt lat="37.16151450" lon="38.78156043"><ele>567.185</ele><time>2026-09-19T16:18:28Z</time><speed>18.950</speed><sat>38</sat></trkpt>
  <trkpt lat="37.16137838" lon="38.78144990"><ele>566.788</ele><time>2026-09-19T16:18:29Z</time><speed>18.120</speed><sat>39</sat></trkpt>
  <trkpt lat="37.16122269" lon="38.78132811"><ele>565.849</ele><time>2026-09-19T16:18:30Z</time><speed>19.740</speed><sat>39</sat></trkpt>
  <trkpt lat="37.16108241" lon="38.78121800"><ele>565.500</ele><time>2026-09-19T16:18:31Z</time><speed>18.560</speed><sat>39</sat></trkpt>
  <trkpt lat="37.16097073" lon="38.78114145"><ele>565.006</ele><time>2026-09-19T16:18:32Z</time><speed>15.800</speed><sat>38</sat></trkpt>
  <trkpt lat="37.16087100" lon="38.78104177"><ele>564.122</ele><time>2026-09-19T16:18:33Z</time><speed>14.250</speed><sat>38</sat></trkpt>
  <trkpt lat="37.16077363" lon="38.78096649"><ele>564.761</ele><time>2026-09-19T16:18:34Z</time><speed>13.700</speed><sat>38</sat></trkpt>
  <trkpt lat="37.16067572" lon="38.78089569"><ele>564.367</ele><time>2026-09-19T16:18:35Z</time><speed>13.330</speed><sat>35</sat></trkpt>
  <trkpt lat="37.16057989" lon="38.78081947"><ele>564.346</ele><time>2026-09-19T16:18:36Z</time><speed>13.510</speed><sat>36</sat></trkpt>
  <trkpt lat="37.16050209" lon="38.78072939"><ele>562.983</ele><time>2026-09-19T16:18:37Z</time><speed>12.200</speed><sat>37</sat></trkpt>
  <trkpt lat="37.16038173" lon="38.78065414"><ele>563.074</ele><time>2026-09-19T16:18:38Z</time><speed>13.570</speed><sat>38</sat></trkpt>
  <trkpt lat="37.16028034" lon="38.78056272"><ele>561.565</ele><time>2026-09-19T16:18:39Z</time><speed>13.820</speed><sat>38</sat></trkpt>
  <trkpt lat="37.16017466" lon="38.78048589"><ele>560.614</ele><time>2026-09-19T16:18:40Z</time><speed>13.560</speed><sat>37</sat></trkpt>
  <trkpt lat="37.16006921" lon="38.78040274"><ele>559.511</ele><time>2026-09-19T16:18:41Z</time><speed>13.920</speed><sat>37</sat></trkpt>
  <trkpt lat="37.15996075" lon="38.78032142"><ele>557.810</ele><time>2026-09-19T16:18:42Z</time><speed>14.350</speed><sat>37</sat></trkpt>
  <trkpt lat="37.15984812" lon="38.78023756"><ele>556.232</ele><time>2026-09-19T16:18:43Z</time><speed>14.720</speed><sat>39</sat></trkpt>
  <trkpt lat="37.15973700" lon="38.78016448"><ele>555.011</ele><time>2026-09-19T16:18:44Z</time><speed>14.360</speed><sat>38</sat></trkpt>
  <trkpt lat="37.15964269" lon="38.78008667"><ele>554.320</ele><time>2026-09-19T16:18:45Z</time><speed>12.960</speed><sat>38</sat></trkpt>
  <trkpt lat="37.15955422" lon="38.78003262"><ele>553.108</ele><time>2026-09-19T16:18:46Z</time><speed>10.840</speed><sat>37</sat></trkpt>
  <trkpt lat="37.15945340" lon="38.77996054"><ele>552.751</ele><time>2026-09-19T16:18:47Z</time><speed>12.000</speed><sat>39</sat></trkpt>
  <trkpt lat="37.15939679" lon="38.77987651"><ele>551.954</ele><time>2026-09-19T16:18:48Z</time><speed>9.630</speed><sat>39</sat></trkpt>
  <trkpt lat="37.15931331" lon="38.77982418"><ele>551.461</ele><time>2026-09-19T16:18:49Z</time><speed>10.120</speed><sat>37</sat></trkpt>
  <trkpt lat="37.15922581" lon="38.77976608"><ele>551.081</ele><time>2026-09-19T16:18:50Z</time><speed>10.500</speed><sat>36</sat></trkpt>
  <trkpt lat="37.15914405" lon="38.77971992"><ele>550.641</ele><time>2026-09-19T16:18:51Z</time><speed>9.350</speed><sat>36</sat></trkpt>
  <trkpt lat="37.15908380" lon="38.77968120"><ele>550.654</ele><time>2026-09-19T16:18:52Z</time><speed>7.290</speed><sat>35</sat></trkpt>
  <trkpt lat="37.15902333" lon="38.77963777"><ele>550.532</ele><time>2026-09-19T16:18:53Z</time><speed>7.860</speed><sat>36</sat></trkpt>
  <trkpt lat="37.15896928" lon="38.77957665"><ele>550.140</ele><time>2026-09-19T16:18:54Z</time><speed>8.610</speed><sat>34</sat></trkpt>
  <trkpt lat="37.15892395" lon="38.77956692"><ele>550.130</ele><time>2026-09-19T16:18:55Z</time><speed>5.460</speed><sat>33</sat></trkpt>
  <trkpt lat="37.15888012" lon="38.77956898"><ele>550.192</ele><time>2026-09-19T16:18:56Z</time><speed>4.690</speed><sat>32</sat></trkpt>
  <trkpt lat="37.15883840" lon="38.77958222"><ele>549.441</ele><time>2026-09-19T16:18:57Z</time><speed>5.050</speed><sat>34</sat></trkpt>
  <trkpt lat="37.15881099" lon="38.77962230"><ele>548.712</ele><time>2026-09-19T16:18:58Z</time><speed>4.710</speed><sat>32</sat></trkpt>
  <trkpt lat="37.15878604" lon="38.77966101"><ele>548.812</ele><time>2026-09-19T16:18:59Z</time><speed>3.680</speed><sat>33</sat></trkpt>
  <trkpt lat="37.15878278" lon="38.77968945"><ele>548.540</ele><time>2026-09-19T16:19:00Z</time><speed>3.200</speed><sat>36</sat></trkpt>
  <trkpt lat="37.15876064" lon="38.77973576"><ele>547.501</ele><time>2026-09-19T16:19:01Z</time><speed>4.860</speed><sat>35</sat></trkpt>
  <trkpt lat="37.15877211" lon="38.77974819"><ele>547.986</ele><time>2026-09-19T16:19:02Z</time><speed>1.720</speed><sat>34</sat></trkpt>
  <trkpt lat="37.15874717" lon="38.77975543"><ele>547.593</ele><time>2026-09-19T16:19:03Z</time><speed>0.940</speed><sat>33</sat></trkpt>
  <trkpt lat="37.15871996" lon="38.77978229"><ele>547.187</ele><time>2026-09-19T16:19:04Z</time><speed>3.070</speed><sat>33</sat></trkpt>
  <trkpt lat="37.15873258" lon="38.77979160"><ele>547.104</ele><time>2026-09-19T16:19:05Z</time><speed>1.440</speed><sat>32</sat></trkpt>
  <trkpt lat="37.15871199" lon="38.77981157"><ele>546.043</ele><time>2026-09-19T16:19:06Z</time><speed>1.990</speed><sat>31</sat></trkpt>
  <trkpt lat="37.15870790" lon="38.77982725"><ele>545.405</ele><time>2026-09-19T16:19:07Z</time><speed>1.270</speed><sat>33</sat></trkpt>
  <trkpt lat="37.15870214" lon="38.77984347"><ele>546.655</ele><time>2026-09-19T16:19:08Z</time><speed>1.650</speed><sat>34</sat></trkpt>
  <trkpt lat="37.15869815" lon="38.77985757"><ele>547.125</ele><time>2026-09-19T16:19:09Z</time><speed>1.630</speed><sat>38</sat></trkpt>
  <trkpt lat="37.15869269" lon="38.77987061"><ele>547.245</ele><time>2026-09-19T16:19:10Z</time><speed>1.510</speed><sat>38</sat></trkpt>
  <trkpt lat="37.15868640" lon="38.77988374"><ele>547.310</ele><time>2026-09-19T16:19:11Z</time><speed>1.460</speed><sat>38</sat></trkpt>
  <trkpt lat="37.15868094" lon="38.77989230"><ele>546.995</ele><time>2026-09-19T16:19:12Z</time><speed>0.940</speed><sat>39</sat></trkpt>
  <trkpt lat="37.15867557" lon="38.77990504"><ele>547.383</ele><time>2026-09-19T16:19:13Z</time><speed>1.680</speed><sat>38</sat></trkpt>
  <trkpt lat="37.15866565" lon="38.77991936"><ele>548.044</ele><time>2026-09-19T16:19:14Z</time><speed>1.600</speed><sat>40</sat></trkpt>
  <trkpt lat="37.15865172" lon="38.77993477"><ele>547.360</ele><time>2026-09-19T16:19:15Z</time><speed>2.440</speed><sat>40</sat></trkpt>
  <trkpt lat="37.15863319" lon="38.77995470"><ele>546.292</ele><time>2026-09-19T16:19:16Z</time><speed>3.220</speed><sat>40</sat></trkpt>
  <trkpt lat="37.15860791" lon="38.77997704"><ele>546.189</ele><time>2026-09-19T16:19:17Z</time><speed>3.840</speed><sat>40</sat></trkpt>
  <trkpt lat="37.15857411" lon="38.77998845"><ele>545.716</ele><time>2026-09-19T16:19:18Z</time><speed>4.560</speed><sat>40</sat></trkpt>
  <trkpt lat="37.15854544" lon="38.77998612"><ele>545.609</ele><time>2026-09-19T16:19:19Z</time><speed>2.660</speed><sat>40</sat></trkpt>
  <trkpt lat="37.15852413" lon="38.77997297"><ele>544.868</ele><time>2026-09-19T16:19:20Z</time><speed>2.520</speed><sat>39</sat></trkpt>
  <trkpt lat="37.15850727" lon="38.77995760"><ele>543.806</ele><time>2026-09-19T16:19:21Z</time><speed>1.950</speed><sat>39</sat></trkpt>
  <trkpt lat="37.15848798" lon="38.77994096"><ele>543.878</ele><time>2026-09-19T16:19:22Z</time><speed>2.990</speed><sat>39</sat></trkpt>
  <trkpt lat="37.15846580" lon="38.77991973"><ele>544.206</ele><time>2026-09-19T16:19:23Z</time><speed>3.040</speed><sat>38</sat></trkpt>
  <trkpt lat="37.15844078" lon="38.77989656"><ele>543.909</ele><time>2026-09-19T16:19:24Z</time><speed>3.600</speed><sat>38</sat></trkpt>
  <trkpt lat="37.15841569" lon="38.77987493"><ele>544.771</ele><time>2026-09-19T16:19:25Z</time><speed>3.100</speed><sat>38</sat></trkpt>
  <trkpt lat="37.15839233" lon="38.77985790"><ele>544.344</ele><time>2026-09-19T16:19:26Z</time><speed>2.780</speed><sat>38</sat></trkpt>
  <trkpt lat="37.15836849" lon="38.77984271"><ele>544.215</ele><time>2026-09-19T16:19:27Z</time><speed>2.790</speed><sat>39</sat></trkpt>
  <trkpt lat="37.15833922" lon="38.77982300"><ele>544.817</ele><time>2026-09-19T16:19:28Z</time><speed>3.930</speed><sat>39</sat></trkpt>
  <trkpt lat="37.15830753" lon="38.77980184"><ele>544.601</ele><time>2026-09-19T16:19:29Z</time><speed>3.620</speed><sat>39</sat></trkpt>
  <trkpt lat="37.15827438" lon="38.77977989"><ele>545.238</ele><time>2026-09-19T16:19:30Z</time><speed>4.110</speed><sat>39</sat></trkpt>
  <trkpt lat="37.15824031" lon="38.77975771"><ele>545.507</ele><time>2026-09-19T16:19:31Z</time><speed>4.020</speed><sat>39</sat></trkpt>
  <trkpt lat="37.15820906" lon="38.77973707"><ele>545.407</ele><time>2026-09-19T16:19:32Z</time><speed>3.510</speed><sat>38</sat></trkpt>
  <trkpt lat="37.15818139" lon="38.77971869"><ele>545.446</ele><time>2026-09-19T16:19:33Z</time><speed>3.250</speed><sat>36</sat></trkpt>
  <trkpt lat="37.15815422" lon="38.77969954"><ele>545.516</ele><time>2026-09-19T16:19:34Z</time><speed>3.470</speed><sat>35</sat></trkpt>
  <trkpt lat="37.15812649" lon="38.77967979"><ele>545.445</ele><time>2026-09-19T16:19:35Z</time><speed>3.490</speed><sat>34</sat></trkpt>
  <trkpt lat="37.15809954" lon="38.77966011"><ele>545.375</ele><time>2026-09-19T16:19:36Z</time><speed>3.350</speed><sat>34</sat></trkpt>
  <trkpt lat="37.15807408" lon="38.77964117"><ele>545.096</ele><time>2026-09-19T16:19:37Z</time><speed>3.130</speed><sat>32</sat></trkpt>
  <trkpt lat="37.15805039" lon="38.77962311"><ele>545.285</ele><time>2026-09-19T16:19:38Z</time><speed>2.980</speed><sat>32</sat></trkpt>
  <trkpt lat="37.15803013" lon="38.77960898"><ele>546.319</ele><time>2026-09-19T16:19:39Z</time><speed>2.510</speed><sat>32</sat></trkpt>
  <trkpt lat="37.15801010" lon="38.77959701"><ele>546.834</ele><time>2026-09-19T16:19:40Z</time><speed>2.680</speed><sat>32</sat></trkpt>
  <trkpt lat="37.15798891" lon="38.77958277"><ele>547.236</ele><time>2026-09-19T16:19:41Z</time><speed>2.760</speed><sat>33</sat></trkpt>
  <trkpt lat="37.15796838" lon="38.77956842"><ele>547.307</ele><time>2026-09-19T16:19:42Z</time><speed>2.560</speed><sat>33</sat></trkpt>
  <trkpt lat="37.15793980" lon="38.77955344"><ele>548.019</ele><time>2026-09-19T16:19:43Z</time><speed>3.410</speed><sat>33</sat></trkpt>
  <trkpt lat="37.15790594" lon="38.77953622"><ele>548.020</ele><time>2026-09-19T16:19:44Z</time><speed>3.690</speed><sat>33</sat></trkpt>
  <trkpt lat="37.15786911" lon="38.77951752"><ele>548.719</ele><time>2026-09-19T16:19:45Z</time><speed>4.090</speed><sat>34</sat></trkpt>
  <trkpt lat="37.15783137" lon="38.77949497"><ele>549.504</ele><time>2026-09-19T16:19:46Z</time><speed>4.380</speed><sat>33</sat></trkpt>
  <trkpt lat="37.15779824" lon="38.77947807"><ele>549.873</ele><time>2026-09-19T16:19:47Z</time><speed>3.190</speed><sat>32</sat></trkpt>
  <trkpt lat="37.15777225" lon="38.77946649"><ele>550.037</ele><time>2026-09-19T16:19:48Z</time><speed>2.570</speed><sat>32</sat></trkpt>
  <trkpt lat="37.15774992" lon="38.77945794"><ele>549.229</ele><time>2026-09-19T16:19:49Z</time><speed>2.320</speed><sat>32</sat></trkpt>
  <trkpt lat="37.15772927" lon="38.77944561"><ele>547.055</ele><time>2026-09-19T16:19:50Z</time><speed>2.630</speed><sat>32</sat></trkpt>
  <trkpt lat="37.15770526" lon="38.77942750"><ele>545.841</ele><time>2026-09-19T16:19:51Z</time><speed>3.430</speed><sat>33</sat></trkpt>
  <trkpt lat="37.15767907" lon="38.77940616"><ele>546.128</ele><time>2026-09-19T16:19:52Z</time><speed>3.320</speed><sat>33</sat></trkpt>
  <trkpt lat="37.15765347" lon="38.77938503"><ele>545.907</ele><time>2026-09-19T16:19:53Z</time><speed>3.240</speed><sat>33</sat></trkpt>
  <trkpt lat="37.15762820" lon="38.77936583"><ele>545.583</ele><time>2026-09-19T16:19:54Z</time><speed>3.220</speed><sat>34</sat></trkpt>
  <trkpt lat="37.15760288" lon="38.77934629"><ele>546.022</ele><time>2026-09-19T16:19:55Z</time><speed>3.130</speed><sat>34</sat></trkpt>
  <trkpt lat="37.15757562" lon="38.77932609"><ele>547.270</ele><time>2026-09-19T16:19:56Z</time><speed>3.440</speed><sat>34</sat></trkpt>
  <trkpt lat="37.15754793" lon="38.77930609"><ele>547.335</ele><time>2026-09-19T16:19:57Z</time><speed>3.260</speed><sat>34</sat></trkpt>
  <trkpt lat="37.15752193" lon="38.77928799"><ele>547.560</ele><time>2026-09-19T16:19:58Z</time><speed>3.040</speed><sat>34</sat></trkpt>
  <trkpt lat="37.15749824" lon="38.77927208"><ele>547.998</ele><time>2026-09-19T16:19:59Z</time><speed>2.790</speed><sat>34</sat></trkpt>
  <trkpt lat="37.15747158" lon="38.77925542"><ele>547.783</ele><time>2026-09-19T16:20:00Z</time><speed>3.520</speed><sat>33</sat></trkpt>
  <trkpt lat="37.15744307" lon="38.77923640"><ele>547.203</ele><time>2026-09-19T16:20:01Z</time><speed>3.460</speed><sat>34</sat></trkpt>
  <trkpt lat="37.15741544" lon="38.77921908"><ele>547.996</ele><time>2026-09-19T16:20:02Z</time><speed>3.120</speed><sat>34</sat></trkpt>
  <trkpt lat="37.15739105" lon="38.77920508"><ele>548.325</ele><time>2026-09-19T16:20:03Z</time><speed>2.830</speed><sat>34</sat></trkpt>
  <trkpt lat="37.15736569" lon="38.77918999"><ele>548.238</ele><time>2026-09-19T16:20:04Z</time><speed>3.240</speed><sat>34</sat></trkpt>
  <trkpt lat="37.15733344" lon="38.77916816"><ele>548.169</ele><time>2026-09-19T16:20:05Z</time><speed>4.330</speed><sat>34</sat></trkpt>
  <trkpt lat="37.15729767" lon="38.77914116"><ele>548.563</ele><time>2026-09-19T16:20:06Z</time><speed>4.380</speed><sat>35</sat></trkpt>
  <trkpt lat="37.15726440" lon="38.77911595"><ele>548.496</ele><time>2026-09-19T16:20:07Z</time><speed>3.880</speed><sat>35</sat></trkpt>
  <trkpt lat="37.15723423" lon="38.77909444"><ele>548.790</ele><time>2026-09-19T16:20:08Z</time><speed>3.540</speed><sat>35</sat></trkpt>
  <trkpt lat="37.15720302" lon="38.77907215"><ele>548.511</ele><time>2026-09-19T16:20:09Z</time><speed>4.080</speed><sat>36</sat></trkpt>
  <trkpt lat="37.15716878" lon="38.77904515"><ele>548.492</ele><time>2026-09-19T16:20:10Z</time><speed>4.660</speed><sat>36</sat></trkpt>
  <trkpt lat="37.15713454" lon="38.77901715"><ele>548.330</ele><time>2026-09-19T16:20:11Z</time><speed>4.300</speed><sat>38</sat></trkpt>
  <trkpt lat="37.15710455" lon="38.77899244"><ele>547.990</ele><time>2026-09-19T16:20:12Z</time><speed>3.860</speed><sat>38</sat></trkpt>
  <trkpt lat="37.15707957" lon="38.77897002"><ele>547.422</ele><time>2026-09-19T16:20:13Z</time><speed>3.370</speed><sat>37</sat></trkpt>
  <trkpt lat="37.15705660" lon="38.77894882"><ele>547.169</ele><time>2026-09-19T16:20:14Z</time><speed>3.290</speed><sat>38</sat></trkpt>
  <trkpt lat="37.15703065" lon="38.77892999"><ele>547.345</ele><time>2026-09-19T16:20:15Z</time><speed>3.640</speed><sat>39</sat></trkpt>
  <trkpt lat="37.15700261" lon="38.77891819"><ele>546.280</ele><time>2026-09-19T16:20:16Z</time><speed>3.600</speed><sat>39</sat></trkpt>
  <trkpt lat="37.15697938" lon="38.77891803"><ele>546.226</ele><time>2026-09-19T16:20:17Z</time><speed>2.570</speed><sat>40</sat></trkpt>
  <trkpt lat="37.15696371" lon="38.77892542"><ele>546.185</ele><time>2026-09-19T16:20:18Z</time><speed>2.040</speed><sat>40</sat></trkpt>
  <trkpt lat="37.15695295" lon="38.77893653"><ele>545.823</ele><time>2026-09-19T16:20:19Z</time><speed>1.850</speed><sat>39</sat></trkpt>
  <trkpt lat="37.15694560" lon="38.77894809"><ele>545.722</ele><time>2026-09-19T16:20:20Z</time><speed>1.380</speed><sat>39</sat></trkpt>
  <trkpt lat="37.15693909" lon="38.77896193"><ele>545.392</ele><time>2026-09-19T16:20:21Z</time><speed>1.800</speed><sat>39</sat></trkpt>
  <trkpt lat="37.15693078" lon="38.77898076"><ele>545.390</ele><time>2026-09-19T16:20:22Z</time><speed>2.300</speed><sat>39</sat></trkpt>
  <trkpt lat="37.15692171" lon="38.77900488"><ele>545.208</ele><time>2026-09-19T16:20:23Z</time><speed>2.550</speed><sat>39</sat></trkpt>
  <trkpt lat="37.15691356" lon="38.77903172"><ele>544.825</ele><time>2026-09-19T16:20:24Z</time><speed>2.600</speed><sat>39</sat></trkpt>
  <trkpt lat="37.15690971" lon="38.77905871"><ele>544.292</ele><time>2026-09-19T16:20:25Z</time><speed>2.300</speed><sat>40</sat></trkpt>
  <trkpt lat="37.15691187" lon="38.77908150"><ele>544.419</ele><time>2026-09-19T16:20:26Z</time><speed>1.690</speed><sat>40</sat></trkpt>
  <trkpt lat="37.15691835" lon="38.77910120"><ele>544.290</ele><time>2026-09-19T16:20:27Z</time><speed>1.710</speed><sat>40</sat></trkpt>
  <trkpt lat="37.15692910" lon="38.77912009"><ele>543.919</ele><time>2026-09-19T16:20:28Z</time><speed>1.850</speed><sat>40</sat></trkpt>
  <trkpt lat="37.15694288" lon="38.77913363"><ele>544.134</ele><time>2026-09-19T16:20:29Z</time><speed>1.520</speed><sat>40</sat></trkpt>
  <trkpt lat="37.15695857" lon="38.77914302"><ele>543.768</ele><time>2026-09-19T16:20:30Z</time><speed>1.660</speed><sat>40</sat></trkpt>
  <trkpt lat="37.15697471" lon="38.77915134"><ele>543.428</ele><time>2026-09-19T16:20:31Z</time><speed>1.630</speed><sat>40</sat></trkpt>
  <trkpt lat="37.15699121" lon="38.77915974"><ele>543.130</ele><time>2026-09-19T16:20:32Z</time><speed>1.740</speed><sat>40</sat></trkpt>
  <trkpt lat="37.15700762" lon="38.77917241"><ele>542.389</ele><time>2026-09-19T16:20:33Z</time><speed>1.900</speed><sat>40</sat></trkpt>
  <trkpt lat="37.15702111" lon="38.77918574"><ele>542.263</ele><time>2026-09-19T16:20:34Z</time><speed>1.460</speed><sat>40</sat></trkpt>
  <trkpt lat="37.15703414" lon="38.77920106"><ele>541.990</ele><time>2026-09-19T16:20:35Z</time><speed>1.970</speed><sat>40</sat></trkpt>
  <trkpt lat="37.15704833" lon="38.77923206"><ele>541.790</ele><time>2026-09-19T16:20:36Z</time><speed>3.600</speed><sat>37</sat></trkpt>
  <trkpt lat="37.15705581" lon="38.77927285"><ele>541.625</ele><time>2026-09-19T16:20:37Z</time><speed>3.240</speed><sat>35</sat></trkpt>
  <trkpt lat="37.15705861" lon="38.77931758"><ele>540.229</ele><time>2026-09-19T16:20:38Z</time><speed>3.940</speed><sat>34</sat></trkpt>
  <trkpt lat="37.15705479" lon="38.77936203"><ele>540.208</ele><time>2026-09-19T16:20:39Z</time><speed>3.810</speed><sat>34</sat></trkpt>
  <trkpt lat="37.15705132" lon="38.77940308"><ele>540.445</ele><time>2026-09-19T16:20:40Z</time><speed>3.520</speed><sat>31</sat></trkpt>
  <trkpt lat="37.15703636" lon="38.77942842"><ele>541.484</ele><time>2026-09-19T16:20:41Z</time><speed>2.450</speed><sat>31</sat></trkpt>
  <trkpt lat="37.15701797" lon="38.77944843"><ele>542.219</ele><time>2026-09-19T16:20:42Z</time><speed>2.530</speed><sat>30</sat></trkpt>
  <trkpt lat="37.15700241" lon="38.77947558"><ele>541.524</ele><time>2026-09-19T16:20:43Z</time><speed>2.740</speed><sat>30</sat></trkpt>
  <trkpt lat="37.15698682" lon="38.77950737"><ele>541.769</ele><time>2026-09-19T16:20:44Z</time><speed>3.230</speed><sat>31</sat></trkpt>
  <trkpt lat="37.15697401" lon="38.77953225"><ele>541.370</ele><time>2026-09-19T16:20:45Z</time><speed>1.810</speed><sat>31</sat></trkpt>
  <trkpt lat="37.15696430" lon="38.77955186"><ele>540.889</ele><time>2026-09-19T16:20:46Z</time><speed>2.120</speed><sat>32</sat></trkpt>
  <trkpt lat="37.15695104" lon="38.77957392"><ele>540.656</ele><time>2026-09-19T16:20:47Z</time><speed>2.530</speed><sat>32</sat></trkpt>
  <trkpt lat="37.15693646" lon="38.77960046"><ele>541.112</ele><time>2026-09-19T16:20:48Z</time><speed>3.050</speed><sat>32</sat></trkpt>
  <trkpt lat="37.15691985" lon="38.77963170"><ele>541.038</ele><time>2026-09-19T16:20:49Z</time><speed>3.420</speed><sat>32</sat></trkpt>
  <trkpt lat="37.15690345" lon="38.77966720"><ele>539.956</ele><time>2026-09-19T16:20:50Z</time><speed>3.600</speed><sat>32</sat></trkpt>
  <trkpt lat="37.15688697" lon="38.77970374"><ele>540.378</ele><time>2026-09-19T16:20:51Z</time><speed>3.680</speed><sat>32</sat></trkpt>
  <trkpt lat="37.15686786" lon="38.77973980"><ele>539.976</ele><time>2026-09-19T16:20:52Z</time><speed>3.690</speed><sat>32</sat></trkpt>
  <trkpt lat="37.15684735" lon="38.77977505"><ele>539.936</ele><time>2026-09-19T16:20:53Z</time><speed>3.670</speed><sat>32</sat></trkpt>
  <trkpt lat="37.15682822" lon="38.77980971"><ele>539.878</ele><time>2026-09-19T16:20:54Z</time><speed>3.430</speed><sat>32</sat></trkpt>
  <trkpt lat="37.15680937" lon="38.77984118"><ele>539.866</ele><time>2026-09-19T16:20:55Z</time><speed>3.430</speed><sat>33</sat></trkpt>
  <trkpt lat="37.15679160" lon="38.77987012"><ele>539.537</ele><time>2026-09-19T16:20:56Z</time><speed>3.060</speed><sat>33</sat></trkpt>
  <trkpt lat="37.15677766" lon="38.77989639"><ele>539.821</ele><time>2026-09-19T16:20:57Z</time><speed>2.630</speed><sat>33</sat></trkpt>
  <trkpt lat="37.15676555" lon="38.77992096"><ele>540.028</ele><time>2026-09-19T16:20:58Z</time><speed>2.570</speed><sat>32</sat></trkpt>
  <trkpt lat="37.15675407" lon="38.77994544"><ele>540.174</ele><time>2026-09-19T16:20:59Z</time><speed>2.520</speed><sat>32</sat></trkpt>
  <trkpt lat="37.15674342" lon="38.77996894"><ele>540.355</ele><time>2026-09-19T16:21:00Z</time><speed>2.360</speed><sat>30</sat></trkpt>
  <trkpt lat="37.15673349" lon="38.77999037"><ele>540.488</ele><time>2026-09-19T16:21:01Z</time><speed>2.110</speed><sat>30</sat></trkpt>
  <trkpt lat="37.15672564" lon="38.78000879"><ele>540.711</ele><time>2026-09-19T16:21:02Z</time><speed>1.850</speed><sat>30</sat></trkpt>
  <trkpt lat="37.15671777" lon="38.78002479"><ele>540.665</ele><time>2026-09-19T16:21:03Z</time><speed>1.700</speed><sat>32</sat></trkpt>
  <trkpt lat="37.15670935" lon="38.78003913"><ele>540.702</ele><time>2026-09-19T16:21:04Z</time><speed>1.630</speed><sat>32</sat></trkpt>
  <trkpt lat="37.15669994" lon="38.78005516"><ele>540.634</ele><time>2026-09-19T16:21:05Z</time><speed>1.950</speed><sat>32</sat></trkpt>
  <trkpt lat="37.15669020" lon="38.78007043"><ele>540.560</ele><time>2026-09-19T16:21:06Z</time><speed>1.730</speed><sat>32</sat></trkpt>
  <trkpt lat="37.15668049" lon="38.78008340"><ele>540.421</ele><time>2026-09-19T16:21:07Z</time><speed>1.630</speed><sat>32</sat></trkpt>
  <trkpt lat="37.15666763" lon="38.78010046"><ele>540.459</ele><time>2026-09-19T16:21:08Z</time><speed>2.540</speed><sat>32</sat></trkpt>
  <trkpt lat="37.15664792" lon="38.78012619"><ele>540.735</ele><time>2026-09-19T16:21:09Z</time><speed>3.540</speed><sat>32</sat></trkpt>
  <trkpt lat="37.15662585" lon="38.78015712"><ele>540.236</ele><time>2026-09-19T16:21:10Z</time><speed>3.580</speed><sat>32</sat></trkpt>
  <trkpt lat="37.15660771" lon="38.78018533"><ele>540.100</ele><time>2026-09-19T16:21:11Z</time><speed>2.700</speed><sat>30</sat></trkpt>
  <trkpt lat="37.15659537" lon="38.78020865"><ele>540.260</ele><time>2026-09-19T16:21:12Z</time><speed>2.230</speed><sat>31</sat></trkpt>
  <trkpt lat="37.15659235" lon="38.78022827"><ele>539.639</ele><time>2026-09-19T16:21:13Z</time><speed>1.780</speed><sat>31</sat></trkpt>
  <trkpt lat="37.15659298" lon="38.78024682"><ele>539.495</ele><time>2026-09-19T16:21:14Z</time><speed>1.790</speed><sat>31</sat></trkpt>
  <trkpt lat="37.15659419" lon="38.78027740"><ele>539.067</ele><time>2026-09-19T16:21:15Z</time><speed>3.410</speed><sat>31</sat></trkpt>
  <trkpt lat="37.15658787" lon="38.78031498"><ele>539.006</ele><time>2026-09-19T16:21:16Z</time><speed>3.440</speed><sat>31</sat></trkpt>
  <trkpt lat="37.15657497" lon="38.78034467"><ele>539.316</ele><time>2026-09-19T16:21:17Z</time><speed>2.380</speed><sat>31</sat></trkpt>
  <trkpt lat="37.15656002" lon="38.78036627"><ele>539.225</ele><time>2026-09-19T16:21:18Z</time><speed>2.000</speed><sat>31</sat></trkpt>
  <trkpt lat="37.15654583" lon="38.78038925"><ele>539.117</ele><time>2026-09-19T16:21:19Z</time><speed>2.540</speed><sat>32</sat></trkpt>
  <trkpt lat="37.15652919" lon="38.78042096"><ele>538.863</ele><time>2026-09-19T16:21:20Z</time><speed>3.460</speed><sat>30</sat></trkpt>
  <trkpt lat="37.15651011" lon="38.78045859"><ele>540.465</ele><time>2026-09-19T16:21:21Z</time><speed>4.140</speed><sat>29</sat></trkpt>
  <trkpt lat="37.15646958" lon="38.78054022"><ele>537.887</ele><time>2026-09-19T16:21:22Z</time><speed>7.700</speed><sat>29</sat></trkpt>
  <trkpt lat="37.15643140" lon="38.78060691"><ele>537.946</ele><time>2026-09-19T16:21:23Z</time><speed>7.500</speed><sat>32</sat></trkpt>
  <trkpt lat="37.15640107" lon="38.78067975"><ele>537.549</ele><time>2026-09-19T16:21:24Z</time><speed>7.540</speed><sat>32</sat></trkpt>
  <trkpt lat="37.15636771" lon="38.78075597"><ele>538.015</ele><time>2026-09-19T16:21:25Z</time><speed>7.510</speed><sat>32</sat></trkpt>
  <trkpt lat="37.15633457" lon="38.78082680"><ele>538.320</ele><time>2026-09-19T16:21:26Z</time><speed>7.050</speed><sat>32</sat></trkpt>
  <trkpt lat="37.15629630" lon="38.78087820"><ele>540.786</ele><time>2026-09-19T16:21:27Z</time><speed>5.540</speed><sat>34</sat></trkpt>
  <trkpt lat="37.15626778" lon="38.78094595"><ele>542.136</ele><time>2026-09-19T16:21:28Z</time><speed>5.380</speed><sat>34</sat></trkpt>
  <trkpt lat="37.15626265" lon="38.78098283"><ele>542.157</ele><time>2026-09-19T16:21:29Z</time><speed>2.690</speed><sat>34</sat></trkpt>
  <trkpt lat="37.15625552" lon="38.78101350"><ele>541.734</ele><time>2026-09-19T16:21:30Z</time><speed>2.770</speed><sat>37</sat></trkpt>
  <trkpt lat="37.15624796" lon="38.78104005"><ele>541.141</ele><time>2026-09-19T16:21:31Z</time><speed>3.340</speed><sat>38</sat></trkpt>
  <trkpt lat="37.15624482" lon="38.78107174"><ele>539.990</ele><time>2026-09-19T16:21:32Z</time><speed>3.120</speed><sat>40</sat></trkpt>
  <trkpt lat="37.15624191" lon="38.78110874"><ele>539.545</ele><time>2026-09-19T16:21:33Z</time><speed>3.340</speed><sat>40</sat></trkpt>
  <trkpt lat="37.15625423" lon="38.78115551"><ele>539.205</ele><time>2026-09-19T16:21:34Z</time><speed>4.060</speed><sat>40</sat></trkpt>
  <trkpt lat="37.15625637" lon="38.78120076"><ele>537.517</ele><time>2026-09-19T16:21:35Z</time><speed>3.620</speed><sat>40</sat></trkpt>
  <trkpt lat="37.15626853" lon="38.78123255"><ele>537.696</ele><time>2026-09-19T16:21:36Z</time><speed>3.550</speed><sat>39</sat></trkpt>
  <trkpt lat="37.15628703" lon="38.78127146"><ele>537.834</ele><time>2026-09-19T16:21:37Z</time><speed>3.860</speed><sat>38</sat></trkpt>
  <trkpt lat="37.15630049" lon="38.78130462"><ele>539.112</ele><time>2026-09-19T16:21:38Z</time><speed>3.350</speed><sat>38</sat></trkpt>
  <trkpt lat="37.15630917" lon="38.78134062"><ele>540.427</ele><time>2026-09-19T16:21:39Z</time><speed>3.390</speed><sat>37</sat></trkpt>
  <trkpt lat="37.15630749" lon="38.78137240"><ele>539.317</ele><time>2026-09-19T16:21:40Z</time><speed>2.420</speed><sat>36</sat></trkpt>
  <trkpt lat="37.15629631" lon="38.78140144"><ele>539.627</ele><time>2026-09-19T16:21:41Z</time><speed>3.470</speed><sat>35</sat></trkpt>
  <trkpt lat="37.15627121" lon="38.78143359"><ele>540.582</ele><time>2026-09-19T16:21:42Z</time><speed>4.530</speed><sat>34</sat></trkpt>
  <trkpt lat="37.15620750" lon="38.78143997"><ele>540.882</ele><time>2026-09-19T16:21:43Z</time><speed>5.650</speed><sat>35</sat></trkpt>
  <trkpt lat="37.15616594" lon="38.78146498"><ele>540.937</ele><time>2026-09-19T16:21:44Z</time><speed>4.920</speed><sat>35</sat></trkpt>
  <trkpt lat="37.15611752" lon="38.78150525"><ele>541.715</ele><time>2026-09-19T16:21:45Z</time><speed>5.210</speed><sat>36</sat></trkpt>
  <trkpt lat="37.15608627" lon="38.78151745"><ele>541.997</ele><time>2026-09-19T16:21:46Z</time><speed>3.840</speed><sat>38</sat></trkpt>
  <trkpt lat="37.15606002" lon="38.78151896"><ele>542.224</ele><time>2026-09-19T16:21:47Z</time><speed>2.470</speed><sat>38</sat></trkpt>
  <trkpt lat="37.15604814" lon="38.78153472"><ele>542.445</ele><time>2026-09-19T16:21:48Z</time><speed>1.140</speed><sat>39</sat></trkpt>
  <trkpt lat="37.15603136" lon="38.78153813"><ele>543.172</ele><time>2026-09-19T16:21:49Z</time><speed>1.320</speed><sat>40</sat></trkpt>
  <trkpt lat="37.15601889" lon="38.78156425"><ele>543.424</ele><time>2026-09-19T16:21:50Z</time><speed>2.560</speed><sat>40</sat></trkpt>
  <trkpt lat="37.15602511" lon="38.78157518"><ele>543.956</ele><time>2026-09-19T16:21:51Z</time><speed>1.490</speed><sat>39</sat></trkpt>
  <trkpt lat="37.15602192" lon="38.78159059"><ele>542.953</ele><time>2026-09-19T16:21:52Z</time><speed>1.300</speed><sat>39</sat></trkpt>
  <trkpt lat="37.15602488" lon="38.78161338"><ele>543.013</ele><time>2026-09-19T16:21:53Z</time><speed>1.480</speed><sat>39</sat></trkpt>
  <trkpt lat="37.15602636" lon="38.78160112"><ele>542.434</ele><time>2026-09-19T16:21:54Z</time><speed>0.360</speed><sat>39</sat></trkpt>
  <trkpt lat="37.15602343" lon="38.78160841"><ele>543.567</ele><time>2026-09-19T16:21:55Z</time><speed>0.000</speed><sat>40</sat></trkpt>
  <trkpt lat="37.15602517" lon="38.78161311"><ele>543.233</ele><time>2026-09-19T16:21:56Z</time><speed>0.000</speed><sat>40</sat></trkpt>
  <trkpt lat="37.15602635" lon="38.78161613"><ele>542.992</ele><time>2026-09-19T16:21:57Z</time><speed>0.000</speed><sat>40</sat></trkpt>
  <trkpt lat="37.15602549" lon="38.78161611"><ele>542.895</ele><time>2026-09-19T16:21:58Z</time><speed>0.000</speed><sat>39</sat></trkpt>
  <trkpt lat="37.15602474" lon="38.78161651"><ele>543.224</ele><time>2026-09-19T16:21:59Z</time><speed>0.000</speed><sat>39</sat></trkpt>
  <trkpt lat="37.15602473" lon="38.78161744"><ele>543.474</ele><time>2026-09-19T16:22:00Z</time><speed>0.000</speed><sat>39</sat></trkpt>
  <trkpt lat="37.15602439" lon="38.78161780"><ele>543.399</ele><time>2026-09-19T16:22:01Z</time><speed>0.000</speed><sat>38</sat></trkpt>
  <trkpt lat="37.15602395" lon="38.78161723"><ele>543.426</ele><time>2026-09-19T16:22:02Z</time><speed>0.000</speed><sat>38</sat></trkpt>
  <trkpt lat="37.15602215" lon="38.78161870"><ele>542.904</ele><time>2026-09-19T16:22:03Z</time><speed>0.230</speed><sat>39</sat></trkpt>
  <trkpt lat="37.15602126" lon="38.78162053"><ele>542.279</ele><time>2026-09-19T16:22:04Z</time><speed>0.000</speed><sat>39</sat></trkpt>
  <trkpt lat="37.15602223" lon="38.78162112"><ele>542.093</ele><time>2026-09-19T16:22:05Z</time><speed>0.000</speed><sat>40</sat></trkpt>
  <trkpt lat="37.15602388" lon="38.78162070"><ele>542.059</ele><time>2026-09-19T16:22:06Z</time><speed>0.260</speed><sat>40</sat></trkpt>
  <trkpt lat="37.15602499" lon="38.78162172"><ele>541.853</ele><time>2026-09-19T16:22:07Z</time><speed>0.000</speed><sat>40</sat></trkpt>
  <trkpt lat="37.15602506" lon="38.78162351"><ele>541.925</ele><time>2026-09-19T16:22:08Z</time><speed>0.000</speed><sat>40</sat></trkpt>
  <trkpt lat="37.15602406" lon="38.78162121"><ele>542.189</ele><time>2026-09-19T16:22:09Z</time><speed>0.270</speed><sat>39</sat></trkpt>
  <trkpt lat="37.15602345" lon="38.78161694"><ele>542.092</ele><time>2026-09-19T16:22:10Z</time><speed>0.380</speed><sat>39</sat></trkpt>
  <trkpt lat="37.15602180" lon="38.78160921"><ele>542.380</ele><time>2026-09-19T16:22:11Z</time><speed>0.790</speed><sat>40</sat></trkpt>
  <trkpt lat="37.15602220" lon="38.78160008"><ele>542.211</ele><time>2026-09-19T16:22:12Z</time><speed>0.560</speed><sat>40</sat></trkpt>
  <trkpt lat="37.15602384" lon="38.78159185"><ele>542.002</ele><time>2026-09-19T16:22:13Z</time><speed>0.600</speed><sat>41</sat></trkpt>
  <trkpt lat="37.15602666" lon="38.78158363"><ele>541.913</ele><time>2026-09-19T16:22:14Z</time><speed>0.600</speed><sat>41</sat></trkpt>
  <trkpt lat="37.15603609" lon="38.78156784"><ele>543.746</ele><time>2026-09-19T16:22:15Z</time><speed>1.990</speed><sat>41</sat></trkpt>
  <trkpt lat="37.15604711" lon="38.78155287"><ele>544.225</ele><time>2026-09-19T16:22:16Z</time><speed>1.000</speed><sat>41</sat></trkpt>
  <trkpt lat="37.15606114" lon="38.78154353"><ele>542.918</ele><time>2026-09-19T16:22:17Z</time><speed>1.650</speed><sat>41</sat></trkpt>
  <trkpt lat="37.15608223" lon="38.78153345"><ele>542.028</ele><time>2026-09-19T16:22:18Z</time><speed>2.270</speed><sat>41</sat></trkpt>
  <trkpt lat="37.15610227" lon="38.78152811"><ele>541.531</ele><time>2026-09-19T16:22:19Z</time><speed>1.600</speed><sat>40</sat></trkpt>
  <trkpt lat="37.15611868" lon="38.78152072"><ele>542.882</ele><time>2026-09-19T16:22:20Z</time><speed>1.850</speed><sat>40</sat></trkpt>
  <trkpt lat="37.15613180" lon="38.78151392"><ele>542.523</ele><time>2026-09-19T16:22:21Z</time><speed>0.900</speed><sat>38</sat></trkpt>
  <trkpt lat="37.15614188" lon="38.78150809"><ele>543.246</ele><time>2026-09-19T16:22:22Z</time><speed>1.040</speed><sat>38</sat></trkpt>
  <trkpt lat="37.15615394" lon="38.78150289"><ele>542.739</ele><time>2026-09-19T16:22:23Z</time><speed>1.150</speed><sat>38</sat></trkpt>
  <trkpt lat="37.15616733" lon="38.78149640"><ele>542.108</ele><time>2026-09-19T16:22:24Z</time><speed>1.410</speed><sat>38</sat></trkpt>
  <trkpt lat="37.15618077" lon="38.78148998"><ele>542.352</ele><time>2026-09-19T16:22:25Z</time><speed>1.420</speed><sat>38</sat></trkpt>
  <trkpt lat="37.15619462" lon="38.78148336"><ele>542.402</ele><time>2026-09-19T16:22:26Z</time><speed>1.410</speed><sat>38</sat></trkpt>
  <trkpt lat="37.15620902" lon="38.78147709"><ele>541.910</ele><time>2026-09-19T16:22:27Z</time><speed>1.430</speed><sat>38</sat></trkpt>
  <trkpt lat="37.15622266" lon="38.78146885"><ele>541.187</ele><time>2026-09-19T16:22:28Z</time><speed>1.440</speed><sat>38</sat></trkpt>
  <trkpt lat="37.15623728" lon="38.78146168"><ele>540.859</ele><time>2026-09-19T16:22:29Z</time><speed>1.450</speed><sat>38</sat></trkpt>
  <trkpt lat="37.15625007" lon="38.78145561"><ele>540.668</ele><time>2026-09-19T16:22:30Z</time><speed>1.190</speed><sat>38</sat></trkpt>
  <trkpt lat="37.15626221" lon="38.78145042"><ele>540.971</ele><time>2026-09-19T16:22:31Z</time><speed>1.180</speed><sat>37</sat></trkpt>
  <trkpt lat="37.15627273" lon="38.78144570"><ele>541.262</ele><time>2026-09-19T16:22:32Z</time><speed>1.150</speed><sat>37</sat></trkpt>
  <trkpt lat="37.15628632" lon="38.78144261"><ele>541.490</ele><time>2026-09-19T16:22:33Z</time><speed>1.080</speed><sat>37</sat></trkpt>
  <trkpt lat="37.15630005" lon="38.78144054"><ele>541.705</ele><time>2026-09-19T16:22:34Z</time><speed>0.910</speed><sat>38</sat></trkpt>
  <trkpt lat="37.15631273" lon="38.78143856"><ele>540.988</ele><time>2026-09-19T16:22:35Z</time><speed>0.980</speed><sat>38</sat></trkpt>
  <trkpt lat="37.15632392" lon="38.78143520"><ele>541.189</ele><time>2026-09-19T16:22:36Z</time><speed>0.710</speed><sat>38</sat></trkpt>
  <trkpt lat="37.15633728" lon="38.78143290"><ele>540.608</ele><time>2026-09-19T16:22:37Z</time><speed>1.230</speed><sat>38</sat></trkpt>
  <trkpt lat="37.15635040" lon="38.78143156"><ele>540.620</ele><time>2026-09-19T16:22:38Z</time><speed>0.940</speed><sat>38</sat></trkpt>
  <trkpt lat="37.15635894" lon="38.78143251"><ele>540.649</ele><time>2026-09-19T16:22:39Z</time><speed>0.190</speed><sat>38</sat></trkpt>
  <trkpt lat="37.15636394" lon="38.78143497"><ele>539.992</ele><time>2026-09-19T16:22:40Z</time><speed>0.000</speed><sat>37</sat></trkpt>
  <trkpt lat="37.15637001" lon="38.78143608"><ele>539.610</ele><time>2026-09-19T16:22:41Z</time><speed>0.400</speed><sat>37</sat></trkpt>
  <trkpt lat="37.15638140" lon="38.78143326"><ele>539.344</ele><time>2026-09-19T16:22:42Z</time><speed>1.180</speed><sat>37</sat></trkpt>
  <trkpt lat="37.15639513" lon="38.78142940"><ele>539.229</ele><time>2026-09-19T16:22:43Z</time><speed>1.130</speed><sat>37</sat></trkpt>
  <trkpt lat="37.15640611" lon="38.78142447"><ele>539.136</ele><time>2026-09-19T16:22:44Z</time><speed>0.950</speed><sat>37</sat></trkpt>
  <trkpt lat="37.15641634" lon="38.78141629"><ele>538.914</ele><time>2026-09-19T16:22:45Z</time><speed>1.330</speed><sat>37</sat></trkpt>
  <trkpt lat="37.15642384" lon="38.78140871"><ele>539.209</ele><time>2026-09-19T16:22:46Z</time><speed>0.840</speed><sat>36</sat></trkpt>
  <trkpt lat="37.15642834" lon="38.78140414"><ele>539.690</ele><time>2026-09-19T16:22:47Z</time><speed>0.630</speed><sat>33</sat></trkpt>
  <trkpt lat="37.15643431" lon="38.78139984"><ele>539.557</ele><time>2026-09-19T16:22:48Z</time><speed>0.920</speed><sat>33</sat></trkpt>
  <trkpt lat="37.15644251" lon="38.78139839"><ele>542.253</ele><time>2026-09-19T16:22:49Z</time><speed>0.910</speed><sat>33</sat></trkpt>
  <trkpt lat="37.15644877" lon="38.78140225"><ele>543.053</ele><time>2026-09-19T16:22:50Z</time><speed>0.700</speed><sat>35</sat></trkpt>
  <trkpt lat="37.15645525" lon="38.78141307"><ele>542.491</ele><time>2026-09-19T16:22:51Z</time><speed>1.140</speed><sat>35</sat></trkpt>
  <trkpt lat="37.15646130" lon="38.78143108"><ele>542.168</ele><time>2026-09-19T16:22:52Z</time><speed>1.470</speed><sat>33</sat></trkpt>
  <trkpt lat="37.15646543" lon="38.78145102"><ele>542.518</ele><time>2026-09-19T16:22:53Z</time><speed>1.380</speed><sat>34</sat></trkpt>
  <trkpt lat="37.15646946" lon="38.78146602"><ele>542.283</ele><time>2026-09-19T16:22:54Z</time><speed>0.910</speed><sat>34</sat></trkpt>
  <trkpt lat="37.15647431" lon="38.78147956"><ele>542.573</ele><time>2026-09-19T16:22:55Z</time><speed>1.250</speed><sat>34</sat></trkpt>
  <trkpt lat="37.15648034" lon="38.78149373"><ele>543.197</ele><time>2026-09-19T16:22:56Z</time><speed>1.180</speed><sat>33</sat></trkpt>
  <trkpt lat="37.15648718" lon="38.78150324"><ele>544.693</ele><time>2026-09-19T16:22:57Z</time><speed>0.660</speed><sat>33</sat></trkpt>
  <trkpt lat="37.15649358" lon="38.78151062"><ele>545.922</ele><time>2026-09-19T16:22:58Z</time><speed>0.810</speed><sat>36</sat></trkpt>
  <trkpt lat="37.15650048" lon="38.78151877"><ele>545.419</ele><time>2026-09-19T16:22:59Z</time><speed>0.940</speed><sat>37</sat></trkpt>
  <trkpt lat="37.15650626" lon="38.78153058"><ele>544.190</ele><time>2026-09-19T16:23:00Z</time><speed>1.040</speed><sat>37</sat></trkpt>
  <trkpt lat="37.15651171" lon="38.78154170"><ele>543.772</ele><time>2026-09-19T16:23:01Z</time><speed>0.810</speed><sat>37</sat></trkpt>
  <trkpt lat="37.15651878" lon="38.78155085"><ele>544.465</ele><time>2026-09-19T16:23:02Z</time><speed>1.120</speed><sat>37</sat></trkpt>
  <trkpt lat="37.15652464" lon="38.78155910"><ele>543.755</ele><time>2026-09-19T16:23:03Z</time><speed>0.630</speed><sat>37</sat></trkpt>
  <trkpt lat="37.15653021" lon="38.78156355"><ele>543.941</ele><time>2026-09-19T16:23:04Z</time><speed>0.860</speed><sat>37</sat></trkpt>
  <trkpt lat="37.15653298" lon="38.78157018"><ele>544.295</ele><time>2026-09-19T16:23:05Z</time><speed>0.350</speed><sat>37</sat></trkpt>
  <trkpt lat="37.15653735" lon="38.78157586"><ele>543.448</ele><time>2026-09-19T16:23:06Z</time><speed>0.710</speed><sat>37</sat></trkpt>
  <trkpt lat="37.15654240" lon="38.78158360"><ele>542.958</ele><time>2026-09-19T16:23:07Z</time><speed>0.620</speed><sat>38</sat></trkpt>
  <trkpt lat="37.15654927" lon="38.78159218"><ele>543.323</ele><time>2026-09-19T16:23:08Z</time><speed>0.980</speed><sat>37</sat></trkpt>
  <trkpt lat="37.15655790" lon="38.78160360"><ele>543.558</ele><time>2026-09-19T16:23:09Z</time><speed>1.150</speed><sat>37</sat></trkpt>
  <trkpt lat="37.15656602" lon="38.78161800"><ele>542.866</ele><time>2026-09-19T16:23:10Z</time><speed>0.920</speed><sat>36</sat></trkpt>
  <trkpt lat="37.15657157" lon="38.78163123"><ele>542.368</ele><time>2026-09-19T16:23:11Z</time><speed>0.790</speed><sat>36</sat></trkpt>
  <trkpt lat="37.15657616" lon="38.78163724"><ele>541.801</ele><time>2026-09-19T16:23:12Z</time><speed>0.910</speed><sat>37</sat></trkpt>
  <trkpt lat="37.15657779" lon="38.78163774"><ele>542.117</ele><time>2026-09-19T16:23:13Z</time><speed>0.390</speed><sat>36</sat></trkpt>
  <trkpt lat="37.15657584" lon="38.78163642"><ele>542.169</ele><time>2026-09-19T16:23:14Z</time><speed>0.350</speed><sat>34</sat></trkpt>
  <trkpt lat="37.15657485" lon="38.78163449"><ele>542.200</ele><time>2026-09-19T16:23:15Z</time><speed>0.300</speed><sat>34</sat></trkpt>
  <trkpt lat="37.15658289" lon="38.78163595"><ele>541.784</ele><time>2026-09-19T16:23:16Z</time><speed>1.280</speed><sat>34</sat></trkpt>
  <trkpt lat="37.15659230" lon="38.78164032"><ele>541.701</ele><time>2026-09-19T16:23:17Z</time><speed>0.740</speed><sat>30</sat></trkpt>
  <trkpt lat="37.15660075" lon="38.78164916"><ele>541.720</ele><time>2026-09-19T16:23:18Z</time><speed>1.160</speed><sat>24</sat></trkpt>
  <trkpt lat="37.15660920" lon="38.78166096"><ele>541.712</ele><time>2026-09-19T16:23:19Z</time><speed>1.150</speed><sat>22</sat></trkpt>
  <trkpt lat="37.15661672" lon="38.78167310"><ele>541.673</ele><time>2026-09-19T16:23:20Z</time><speed>1.130</speed><sat>14</sat></trkpt>
  <trkpt lat="37.15662181" lon="38.78167893"><ele>541.542</ele><time>2026-09-19T16:23:21Z</time><speed>0.000</speed><sat>11</sat></trkpt>
  <trkpt lat="37.15662022" lon="38.78168560"><ele>541.152</ele><time>2026-09-19T16:23:22Z</time><speed>0.760</speed><sat>8</sat></trkpt>
  <trkpt lat="37.15660917" lon="38.78169944"><ele>540.944</ele><time>2026-09-19T16:23:23Z</time><speed>1.350</speed><sat>8</sat></trkpt>
  <trkpt lat="37.15659006" lon="38.78171081"><ele>540.902</ele><time>2026-09-19T16:23:24Z</time><speed>1.460</speed><sat>9</sat></trkpt>
  <trkpt lat="37.15656833" lon="38.78171877"><ele>541.018</ele><time>2026-09-19T16:23:25Z</time><speed>1.490</speed><sat>9</sat></trkpt>
  <trkpt lat="37.15654814" lon="38.78172869"><ele>540.807</ele><time>2026-09-19T16:23:26Z</time><speed>1.600</speed><sat>10</sat></trkpt>
  <trkpt lat="37.15652754" lon="38.78174137"><ele>540.757</ele><time>2026-09-19T16:23:27Z</time><speed>1.740</speed><sat>11</sat></trkpt>
  <trkpt lat="37.15650761" lon="38.78175076"><ele>540.875</ele><time>2026-09-19T16:23:28Z</time><speed>1.460</speed><sat>13</sat></trkpt>
  <trkpt lat="37.15649924" lon="38.78175591"><ele>540.826</ele><time>2026-09-19T16:23:29Z</time><speed>0.180</speed><sat>11</sat></trkpt>
  <trkpt lat="37.15649566" lon="38.78175808"><ele>540.822</ele><time>2026-09-19T16:23:30Z</time><speed>0.000</speed><sat>10</sat></trkpt>
  <trkpt lat="37.15649390" lon="38.78175885"><ele>540.827</ele><time>2026-09-19T16:23:31Z</time><speed>0.000</speed><sat>9</sat></trkpt>
  <trkpt lat="37.15649294" lon="38.78175926"><ele>540.825</ele><time>2026-09-19T16:23:32Z</time><speed>0.000</speed><sat>9</sat></trkpt>
  <trkpt lat="37.15649299" lon="38.78175940"><ele>540.800</ele><time>2026-09-19T16:23:33Z</time><speed>0.000</speed><sat>10</sat></trkpt>
  <trkpt lat="37.15649363" lon="38.78175928"><ele>540.775</ele><time>2026-09-19T16:23:34Z</time><speed>0.000</speed><sat>9</sat></trkpt>
  <trkpt lat="37.15649520" lon="38.78175876"><ele>540.756</ele><time>2026-09-19T16:23:35Z</time><speed>0.000</speed><sat>9</sat></trkpt>
  <trkpt lat="37.15649607" lon="38.78175847"><ele>540.761</ele><time>2026-09-19T16:23:36Z</time><speed>0.000</speed><sat>9</sat></trkpt>
  <trkpt lat="37.15649663" lon="38.78175831"><ele>540.761</ele><time>2026-09-19T16:23:37Z</time><speed>0.000</speed><sat>9</sat></trkpt>
  <trkpt lat="37.15675478" lon="38.78167368"><ele>529.409</ele><time>2026-09-19T16:24:06Z</time><speed>0.000</speed><sat>6</sat></trkpt>
  <trkpt lat="37.15677900" lon="38.78167603"><ele>534.720</ele><time>2026-09-19T16:24:07Z</time><speed>0.900</speed><sat>7</sat></trkpt>
  <trkpt lat="37.15681844" lon="38.78168723"><ele>537.656</ele><time>2026-09-19T16:24:08Z</time><speed>1.370</speed><sat>8</sat></trkpt>
  <trkpt lat="37.15685047" lon="38.78169939"><ele>541.360</ele><time>2026-09-19T16:24:09Z</time><speed>1.320</speed><sat>10</sat></trkpt>
  <trkpt lat="37.15708920" lon="38.78174352"><ele>542.419</ele><time>2026-09-19T16:24:10Z</time><speed>1.730</speed><sat>11</sat></trkpt>
  <trkpt lat="37.15708910" lon="38.78172765"><ele>534.356</ele><time>2026-09-19T16:24:11Z</time><speed>1.910</speed><sat>12</sat></trkpt>
  <trkpt lat="37.15706488" lon="38.78172245"><ele>533.117</ele><time>2026-09-19T16:24:12Z</time><speed>1.400</speed><sat>12</sat></trkpt>
  <trkpt lat="37.15705929" lon="38.78171560"><ele>532.975</ele><time>2026-09-19T16:24:13Z</time><speed>1.440</speed><sat>11</sat></trkpt>
  <trkpt lat="37.15705789" lon="38.78170759"><ele>533.231</ele><time>2026-09-19T16:24:14Z</time><speed>1.310</speed><sat>12</sat></trkpt>
  <trkpt lat="37.15705428" lon="38.78170037"><ele>534.449</ele><time>2026-09-19T16:24:15Z</time><speed>1.090</speed><sat>12</sat></trkpt>
  <trkpt lat="37.15703227" lon="38.78169686"><ele>536.743</ele><time>2026-09-19T16:24:16Z</time><speed>1.160</speed><sat>13</sat></trkpt>
  <trkpt lat="37.15699396" lon="38.78169659"><ele>536.509</ele><time>2026-09-19T16:24:17Z</time><speed>1.330</speed><sat>13</sat></trkpt>
  <trkpt lat="37.15695923" lon="38.78169622"><ele>536.938</ele><time>2026-09-19T16:24:18Z</time><speed>0.000</speed><sat>16</sat></trkpt>
  <trkpt lat="37.15694402" lon="38.78169715"><ele>536.958</ele><time>2026-09-19T16:24:19Z</time><speed>0.000</speed><sat>16</sat></trkpt>
  <trkpt lat="37.15693640" lon="38.78169750"><ele>536.969</ele><time>2026-09-19T16:24:20Z</time><speed>0.000</speed><sat>15</sat></trkpt>
  <trkpt lat="37.15693247" lon="38.78169764"><ele>536.952</ele><time>2026-09-19T16:24:21Z</time><speed>0.000</speed><sat>15</sat></trkpt>
  <trkpt lat="37.15693087" lon="38.78169757"><ele>536.921</ele><time>2026-09-19T16:24:22Z</time><speed>0.000</speed><sat>13</sat></trkpt>
  <trkpt lat="37.15693015" lon="38.78169749"><ele>536.918</ele><time>2026-09-19T16:24:23Z</time><speed>0.000</speed><sat>12</sat></trkpt>
  <trkpt lat="37.15693043" lon="38.78169724"><ele>536.881</ele><time>2026-09-19T16:24:24Z</time><speed>0.000</speed><sat>12</sat></trkpt>
  <trkpt lat="37.15693058" lon="38.78169708"><ele>536.886</ele><time>2026-09-19T16:24:25Z</time><speed>0.000</speed><sat>11</sat></trkpt>
  <trkpt lat="37.15693071" lon="38.78169697"><ele>536.878</ele><time>2026-09-19T16:24:26Z</time><speed>0.000</speed><sat>12</sat></trkpt>
  <trkpt lat="37.15693080" lon="38.78169691"><ele>536.876</ele><time>2026-09-19T16:24:27Z</time><speed>0.000</speed><sat>10</sat></trkpt>
  <trkpt lat="37.15693079" lon="38.78169685"><ele>536.874</ele><time>2026-09-19T16:24:28Z</time><speed>0.000</speed><sat>9</sat></trkpt>
  <trkpt lat="37.15693069" lon="38.78169681"><ele>536.871</ele><time>2026-09-19T16:24:29Z</time><speed>0.000</speed><sat>9</sat></trkpt>
  <trkpt lat="37.15693108" lon="38.78169666"><ele>536.842</ele><time>2026-09-19T16:24:30Z</time><speed>0.000</speed><sat>8</sat></trkpt>
  <trkpt lat="37.15693148" lon="38.78169649"><ele>536.812</ele><time>2026-09-19T16:24:31Z</time><speed>0.000</speed><sat>8</sat></trkpt>
  <trkpt lat="37.15693151" lon="38.78169641"><ele>536.815</ele><time>2026-09-19T16:24:32Z</time><speed>0.000</speed><sat>7</sat></trkpt>
  <trkpt lat="37.15693154" lon="38.78169634"><ele>536.819</ele><time>2026-09-19T16:24:33Z</time><speed>0.000</speed><sat>9</sat></trkpt>
  <trkpt lat="37.15693159" lon="38.78169625"><ele>536.819</ele><time>2026-09-19T16:24:34Z</time><speed>0.000</speed><sat>8</sat></trkpt>
  <trkpt lat="37.15693159" lon="38.78169613"><ele>536.819</ele><time>2026-09-19T16:24:35Z</time><speed>0.000</speed><sat>10</sat></trkpt>
  <trkpt lat="37.15693164" lon="38.78169601"><ele>536.822</ele><time>2026-09-19T16:24:36Z</time><speed>0.000</speed><sat>10</sat></trkpt>
  <trkpt lat="37.15693158" lon="38.78169593"><ele>536.826</ele><time>2026-09-19T16:24:37Z</time><speed>0.000</speed><sat>10</sat></trkpt>
  <trkpt lat="37.15693153" lon="38.78169588"><ele>536.826</ele><time>2026-09-19T16:24:38Z</time><speed>0.000</speed><sat>10</sat></trkpt>
  <trkpt lat="37.15693163" lon="38.78169582"><ele>536.828</ele><time>2026-09-19T16:24:39Z</time><speed>0.000</speed><sat>9</sat></trkpt>
  <trkpt lat="37.15693182" lon="38.78169574"><ele>536.807</ele><time>2026-09-19T16:24:40Z</time><speed>0.000</speed><sat>9</sat></trkpt>
  <trkpt lat="37.15693216" lon="38.78169563"><ele>536.791</ele><time>2026-09-19T16:24:41Z</time><speed>0.000</speed><sat>9</sat></trkpt>
  <trkpt lat="37.15693202" lon="38.78169564"><ele>536.818</ele><time>2026-09-19T16:24:42Z</time><speed>0.000</speed><sat>9</sat></trkpt>
  <trkpt lat="37.15693198" lon="38.78169561"><ele>536.806</ele><time>2026-09-19T16:24:43Z</time><speed>0.000</speed><sat>9</sat></trkpt>
  <trkpt lat="37.15693166" lon="38.78169566"><ele>536.812</ele><time>2026-09-19T16:24:44Z</time><speed>0.000</speed><sat>9</sat></trkpt>
  <trkpt lat="37.15693162" lon="38.78169565"><ele>536.811</ele><time>2026-09-19T16:24:45Z</time><speed>0.000</speed><sat>10</sat></trkpt>
  <trkpt lat="37.15693189" lon="38.78169177"><ele>537.481</ele><time>2026-09-19T16:24:46Z</time><speed>0.000</speed><sat>10</sat></trkpt>
  <trkpt lat="37.15691664" lon="38.78168199"><ele>538.704</ele><time>2026-09-19T16:24:47Z</time><speed>0.000</speed><sat>10</sat></trkpt>
  <trkpt lat="37.15690271" lon="38.78166669"><ele>541.120</ele><time>2026-09-19T16:24:48Z</time><speed>0.570</speed><sat>10</sat></trkpt>
  <trkpt lat="37.15689366" lon="38.78164340"><ele>541.112</ele><time>2026-09-19T16:24:49Z</time><speed>0.000</speed><sat>10</sat></trkpt>
  <trkpt lat="37.15688994" lon="38.78163041"><ele>541.133</ele><time>2026-09-19T16:24:50Z</time><speed>0.000</speed><sat>10</sat></trkpt>
  <trkpt lat="37.15688591" lon="38.78162377"><ele>540.891</ele><time>2026-09-19T16:24:51Z</time><speed>0.000</speed><sat>10</sat></trkpt>
  <trkpt lat="37.15688555" lon="38.78161774"><ele>540.917</ele><time>2026-09-19T16:24:52Z</time><speed>0.000</speed><sat>11</sat></trkpt>
  <trkpt lat="37.15687383" lon="38.78160671"><ele>540.849</ele><time>2026-09-19T16:24:53Z</time><speed>0.000</speed><sat>12</sat></trkpt>
  <trkpt lat="37.15686756" lon="38.78160120"><ele>540.823</ele><time>2026-09-19T16:24:54Z</time><speed>0.000</speed><sat>14</sat></trkpt>
  <trkpt lat="37.15686440" lon="38.78159846"><ele>540.813</ele><time>2026-09-19T16:24:55Z</time><speed>0.000</speed><sat>14</sat></trkpt>
  <trkpt lat="37.15686287" lon="38.78159707"><ele>540.809</ele><time>2026-09-19T16:24:56Z</time><speed>0.000</speed><sat>15</sat></trkpt>
  <trkpt lat="37.15686222" lon="38.78159639"><ele>540.840</ele><time>2026-09-19T16:24:57Z</time><speed>0.000</speed><sat>15</sat></trkpt>
  <trkpt lat="37.15686221" lon="38.78159570"><ele>540.911</ele><time>2026-09-19T16:24:58Z</time><speed>0.000</speed><sat>13</sat></trkpt>
  <trkpt lat="37.15686221" lon="38.78159538"><ele>540.911</ele><time>2026-09-19T16:24:59Z</time><speed>0.000</speed><sat>13</sat></trkpt>
  <trkpt lat="37.15686069" lon="38.78159346"><ele>540.890</ele><time>2026-09-19T16:25:00Z</time><speed>0.000</speed><sat>13</sat></trkpt>
  <trkpt lat="37.15685261" lon="38.78159862"><ele>540.423</ele><time>2026-09-19T16:25:01Z</time><speed>0.000</speed><sat>15</sat></trkpt>
  <trkpt lat="37.15685569" lon="38.78160022"><ele>540.429</ele><time>2026-09-19T16:25:02Z</time><speed>0.400</speed><sat>15</sat></trkpt>
  <trkpt lat="37.15685587" lon="38.78159838"><ele>540.585</ele><time>2026-09-19T16:25:03Z</time><speed>0.000</speed><sat>15</sat></trkpt>
  <trkpt lat="37.15686243" lon="38.78159151"><ele>540.056</ele><time>2026-09-19T16:25:04Z</time><speed>0.470</speed><sat>18</sat></trkpt>
  <trkpt lat="37.15686555" lon="38.78158375"><ele>540.829</ele><time>2026-09-19T16:25:05Z</time><speed>0.000</speed><sat>16</sat></trkpt>
  <trkpt lat="37.15686646" lon="38.78157988"><ele>540.986</ele><time>2026-09-19T16:25:06Z</time><speed>0.000</speed><sat>17</sat></trkpt>
  <trkpt lat="37.15686703" lon="38.78157788"><ele>541.163</ele><time>2026-09-19T16:25:07Z</time><speed>0.000</speed><sat>18</sat></trkpt>
  <trkpt lat="37.15686725" lon="38.78157691"><ele>541.180</ele><time>2026-09-19T16:25:08Z</time><speed>0.000</speed><sat>18</sat></trkpt>
  <trkpt lat="37.15686650" lon="38.78157631"><ele>540.485</ele><time>2026-09-19T16:25:09Z</time><speed>0.000</speed><sat>18</sat></trkpt>
  <trkpt lat="37.15686861" lon="38.78157543"><ele>544.346</ele><time>2026-09-19T16:25:10Z</time><speed>0.000</speed><sat>19</sat></trkpt>
  <trkpt lat="37.15686980" lon="38.78157487"><ele>544.324</ele><time>2026-09-19T16:25:11Z</time><speed>0.000</speed><sat>22</sat></trkpt>
  <trkpt lat="37.15687038" lon="38.78157463"><ele>544.289</ele><time>2026-09-19T16:25:12Z</time><speed>0.000</speed><sat>23</sat></trkpt>
  <trkpt lat="37.15687069" lon="38.78157450"><ele>544.319</ele><time>2026-09-19T16:25:13Z</time><speed>0.000</speed><sat>23</sat></trkpt>
  <trkpt lat="37.15687126" lon="38.78157411"><ele>544.059</ele><time>2026-09-19T16:25:14Z</time><speed>0.000</speed><sat>21</sat></trkpt>
  <trkpt lat="37.15687168" lon="38.78157122"><ele>543.487</ele><time>2026-09-19T16:25:15Z</time><speed>0.430</speed><sat>18</sat></trkpt>
  <trkpt lat="37.15687251" lon="38.78156867"><ele>543.803</ele><time>2026-09-19T16:25:16Z</time><speed>0.150</speed><sat>18</sat></trkpt>
  <trkpt lat="37.15687469" lon="38.78156112"><ele>544.718</ele><time>2026-09-19T16:25:17Z</time><speed>0.720</speed><sat>17</sat></trkpt>
  <trkpt lat="37.15687795" lon="38.78155210"><ele>545.385</ele><time>2026-09-19T16:25:18Z</time><speed>0.590</speed><sat>17</sat></trkpt>
  <trkpt lat="37.15688326" lon="38.78154517"><ele>545.466</ele><time>2026-09-19T16:25:19Z</time><speed>0.600</speed><sat>19</sat></trkpt>
  <trkpt lat="37.15688848" lon="38.78154931"><ele>545.895</ele><time>2026-09-19T16:25:20Z</time><speed>0.000</speed><sat>20</sat></trkpt>
  <trkpt lat="37.15689260" lon="38.78154368"><ele>546.350</ele><time>2026-09-19T16:25:21Z</time><speed>0.540</speed><sat>19</sat></trkpt>
  <trkpt lat="37.15691103" lon="38.78154034"><ele>545.534</ele><time>2026-09-19T16:25:22Z</time><speed>0.000</speed><sat>20</sat></trkpt>
  <trkpt lat="37.15691662" lon="38.78155012"><ele>546.315</ele><time>2026-09-19T16:25:23Z</time><speed>0.000</speed><sat>21</sat></trkpt>
  <trkpt lat="37.15691945" lon="38.78155430"><ele>546.335</ele><time>2026-09-19T16:25:24Z</time><speed>0.000</speed><sat>22</sat></trkpt>
  <trkpt lat="37.15692124" lon="38.78155647"><ele>546.374</ele><time>2026-09-19T16:25:25Z</time><speed>0.000</speed><sat>20</sat></trkpt>
  <trkpt lat="37.15692226" lon="38.78155744"><ele>546.389</ele><time>2026-09-19T16:25:26Z</time><speed>0.000</speed><sat>20</sat></trkpt>
  <trkpt lat="37.15692303" lon="38.78155805"><ele>546.419</ele><time>2026-09-19T16:25:27Z</time><speed>0.000</speed><sat>20</sat></trkpt>
  <trkpt lat="37.15692344" lon="38.78155836"><ele>546.426</ele><time>2026-09-19T16:25:28Z</time><speed>0.000</speed><sat>18</sat></trkpt>
  <trkpt lat="37.15692361" lon="38.78155851"><ele>546.427</ele><time>2026-09-19T16:25:29Z</time><speed>0.000</speed><sat>16</sat></trkpt>
  <trkpt lat="37.15692367" lon="38.78155841"><ele>546.258</ele><time>2026-09-19T16:25:30Z</time><speed>0.000</speed><sat>18</sat></trkpt>
  <trkpt lat="37.15692175" lon="38.78155841"><ele>546.306</ele><time>2026-09-19T16:25:31Z</time><speed>0.000</speed><sat>18</sat></trkpt>
  <trkpt lat="37.15691990" lon="38.78155679"><ele>546.352</ele><time>2026-09-19T16:25:32Z</time><speed>0.580</speed><sat>20</sat></trkpt>
  <trkpt lat="37.15691379" lon="38.78155601"><ele>546.245</ele><time>2026-09-19T16:25:33Z</time><speed>0.780</speed><sat>19</sat></trkpt>
  <trkpt lat="37.15690872" lon="38.78156175"><ele>547.294</ele><time>2026-09-19T16:25:34Z</time><speed>0.220</speed><sat>21</sat></trkpt>
  <trkpt lat="37.15693069" lon="38.78157217"><ele>545.971</ele><time>2026-09-19T16:25:35Z</time><speed>0.000</speed><sat>24</sat></trkpt>
  <trkpt lat="37.15694243" lon="38.78157833"><ele>546.010</ele><time>2026-09-19T16:25:36Z</time><speed>0.000</speed><sat>22</sat></trkpt>
  <trkpt lat="37.15694817" lon="38.78158143"><ele>546.008</ele><time>2026-09-19T16:25:37Z</time><speed>0.000</speed><sat>19</sat></trkpt>
  <trkpt lat="37.15695087" lon="38.78158310"><ele>546.033</ele><time>2026-09-19T16:25:38Z</time><speed>0.000</speed><sat>20</sat></trkpt>
  <trkpt lat="37.15695209" lon="38.78158394"><ele>546.044</ele><time>2026-09-19T16:25:39Z</time><speed>0.000</speed><sat>19</sat></trkpt>
  <trkpt lat="37.15695280" lon="38.78158425"><ele>546.044</ele><time>2026-09-19T16:25:40Z</time><speed>0.000</speed><sat>17</sat></trkpt>
  <trkpt lat="37.15695319" lon="38.78158442"><ele>546.041</ele><time>2026-09-19T16:25:41Z</time><speed>0.000</speed><sat>16</sat></trkpt>
  <trkpt lat="37.15695334" lon="38.78158458"><ele>546.052</ele><time>2026-09-19T16:25:42Z</time><speed>0.000</speed><sat>14</sat></trkpt>
  <trkpt lat="37.15695330" lon="38.78158482"><ele>546.066</ele><time>2026-09-19T16:25:43Z</time><speed>0.000</speed><sat>14</sat></trkpt>
  <trkpt lat="37.15695327" lon="38.78158500"><ele>546.067</ele><time>2026-09-19T16:25:44Z</time><speed>0.000</speed><sat>11</sat></trkpt>
  <trkpt lat="37.15695312" lon="38.78158479"><ele>546.070</ele><time>2026-09-19T16:25:45Z</time><speed>0.000</speed><sat>12</sat></trkpt>
  <trkpt lat="37.15695056" lon="38.78157868"><ele>546.072</ele><time>2026-09-19T16:25:46Z</time><speed>0.000</speed><sat>13</sat></trkpt>
 </trkseg>
</trk>

</gpx>
 