<?xml version="1.0" encoding="UTF-8"?>
<!-- Created with BasicAirData GPS Logger for Android - ver. 3.3.0 -->
<!-- Track 69 = 612 TrackPoints + 0 Placemarks -->

<!-- Track Statistics (based on Total Time | Time in Movement): -->
<!--  Distance = 9.55 km -->
<!--  Duration = 17:56 | 16:56 -->
<!--  Altitude Gap = -240 m -->
<!--  Max Speed = 89 km/h -->
<!--  Avg Speed = 32.0 | 33.9 km/h -->
<!--  Direction = NNE -->
<!--  Activity = car -->
<!--  Altitudes = Raw -->

<gpx version="1.0"
     creator="BasicAirData GPS Logger 3.3.0"
     xmlns="http://www.topografix.com/GPX/1/0"
     xmlns:xsi="http://www.w3.org/2001/XMLSchema-instance"
     xsi:schemaLocation="http://www.topografix.com/GPX/1/0 http://www.topografix.com/GPX/1/0/gpx.xsd">
<name>GPS Logger 20260929-163428</name>
<time>2026-10-03T09:09:40Z</time>
<keywords>car</keywords>
<bounds minlat="39.85178332" minlon="32.80914516" maxlat="39.92236377" maxlon="32.83838196" />

<trk>
 <name>Track 20260929-163428</name>
 <trkseg>
  <trkpt lat="39.85178332" lon="32.81041796"><ele>1163.054</ele><time>2026-09-29T13:34:28Z</time><speed>15.500</speed><sat>28</sat></trkpt>
  <trkpt lat="39.85192652" lon="32.81034443"><ele>1161.689</ele><time>2026-09-29T13:34:29Z</time><speed>16.190</speed><sat>28</sat></trkpt>
  <trkpt lat="39.85206298" lon="32.81028619"><ele>1160.956</ele><time>2026-09-29T13:34:30Z</time><speed>15.580</speed><sat>29</sat></trkpt>
  <trkpt lat="39.85218815" lon="32.81024327"><ele>1160.284</ele><time>2026-09-29T13:34:31Z</time><speed>14.600</speed><sat>28</sat></trkpt>
  <trkpt lat="39.85230603" lon="32.81019610"><ele>1160.295</ele><time>2026-09-29T13:34:32Z</time><speed>14.150</speed><sat>26</sat></trkpt>
  <trkpt lat="39.85247869" lon="32.81007634"><ele>1160.499</ele><time>2026-09-29T13:34:33Z</time><speed>17.560</speed><sat>26</sat></trkpt>
  <trkpt lat="39.85259422" lon="32.81000035"><ele>1161.181</ele><time>2026-09-29T13:34:34Z</time><speed>14.520</speed><sat>26</sat></trkpt>
  <trkpt lat="39.85273572" lon="32.80995209"><ele>1161.208</ele><time>2026-09-29T13:34:35Z</time><speed>14.860</speed><sat>26</sat></trkpt>
  <trkpt lat="39.85291075" lon="32.80993990"><ele>1159.474</ele><time>2026-09-29T13:34:36Z</time><speed>17.530</speed><sat>26</sat></trkpt>
  <trkpt lat="39.85305821" lon="32.80982513"><ele>1157.178</ele><time>2026-09-29T13:34:37Z</time><speed>18.500</speed><sat>26</sat></trkpt>
  <trkpt lat="39.85319811" lon="32.80975237"><ele>1154.902</ele><time>2026-09-29T13:34:38Z</time><speed>17.090</speed><sat>26</sat></trkpt>
  <trkpt lat="39.85334823" lon="32.80968738"><ele>1152.894</ele><time>2026-09-29T13:34:39Z</time><speed>17.540</speed><sat>26</sat></trkpt>
  <trkpt lat="39.85350434" lon="32.80963094"><ele>1151.475</ele><time>2026-09-29T13:34:40Z</time><speed>17.590</speed><sat>26</sat></trkpt>
  <trkpt lat="39.85366012" lon="32.80957280"><ele>1150.250</ele><time>2026-09-29T13:34:41Z</time><speed>17.670</speed><sat>26</sat></trkpt>
  <trkpt lat="39.85381277" lon="32.80951316"><ele>1148.634</ele><time>2026-09-29T13:34:42Z</time><speed>17.330</speed><sat>26</sat></trkpt>
  <trkpt lat="39.85396537" lon="32.80946532"><ele>1146.858</ele><time>2026-09-29T13:34:43Z</time><speed>17.310</speed><sat>26</sat></trkpt>
  <trkpt lat="39.85412273" lon="32.80942341"><ele>1145.558</ele><time>2026-09-29T13:34:44Z</time><speed>17.440</speed><sat>26</sat></trkpt>
  <trkpt lat="39.85427843" lon="32.80936803"><ele>1145.043</ele><time>2026-09-29T13:34:45Z</time><speed>17.750</speed><sat>27</sat></trkpt>
  <trkpt lat="39.85443402" lon="32.80932894"><ele>1143.787</ele><time>2026-09-29T13:34:46Z</time><speed>17.590</speed><sat>27</sat></trkpt>
  <trkpt lat="39.85458765" lon="32.80929688"><ele>1141.965</ele><time>2026-09-29T13:34:47Z</time><speed>17.700</speed><sat>27</sat></trkpt>
  <trkpt lat="39.85474076" lon="32.80926563"><ele>1140.246</ele><time>2026-09-29T13:34:48Z</time><speed>17.810</speed><sat>28</sat></trkpt>
  <trkpt lat="39.85490247" lon="32.80923883"><ele>1138.674</ele><time>2026-09-29T13:34:49Z</time><speed>17.920</speed><sat>28</sat></trkpt>
  <trkpt lat="39.85506319" lon="32.80920728"><ele>1137.234</ele><time>2026-09-29T13:34:50Z</time><speed>18.010</speed><sat>28</sat></trkpt>
  <trkpt lat="39.85522412" lon="32.80918501"><ele>1135.883</ele><time>2026-09-29T13:34:51Z</time><speed>18.100</speed><sat>28</sat></trkpt>
  <trkpt lat="39.85539154" lon="32.80917509"><ele>1134.654</ele><time>2026-09-29T13:34:52Z</time><speed>18.210</speed><sat>30</sat></trkpt>
  <trkpt lat="39.85555243" lon="32.80916050"><ele>1133.738</ele><time>2026-09-29T13:34:53Z</time><speed>18.310</speed><sat>29</sat></trkpt>
  <trkpt lat="39.85571636" lon="32.80914516"><ele>1133.253</ele><time>2026-09-29T13:34:54Z</time><speed>18.120</speed><sat>30</sat></trkpt>
  <trkpt lat="39.85588996" lon="32.80915105"><ele>1131.775</ele><time>2026-09-29T13:34:55Z</time><speed>18.510</speed><sat>29</sat></trkpt>
  <trkpt lat="39.85605874" lon="32.80915183"><ele>1130.855</ele><time>2026-09-29T13:34:56Z</time><speed>18.620</speed><sat>29</sat></trkpt>
  <trkpt lat="39.85622715" lon="32.80914957"><ele>1129.439</ele><time>2026-09-29T13:34:57Z</time><speed>18.780</speed><sat>29</sat></trkpt>
  <trkpt lat="39.85639828" lon="32.80915813"><ele>1128.031</ele><time>2026-09-29T13:34:58Z</time><speed>18.870</speed><sat>30</sat></trkpt>
  <trkpt lat="39.85656870" lon="32.80917106"><ele>1126.743</ele><time>2026-09-29T13:34:59Z</time><speed>18.900</speed><sat>30</sat></trkpt>
  <trkpt lat="39.85673863" lon="32.80918702"><ele>1125.882</ele><time>2026-09-29T13:35:00Z</time><speed>18.970</speed><sat>30</sat></trkpt>
  <trkpt lat="39.85690975" lon="32.80920755"><ele>1124.748</ele><time>2026-09-29T13:35:01Z</time><speed>19.040</speed><sat>30</sat></trkpt>
  <trkpt lat="39.85707884" lon="32.80923014"><ele>1123.790</ele><time>2026-09-29T13:35:02Z</time><speed>19.040</speed><sat>31</sat></trkpt>
  <trkpt lat="39.85724997" lon="32.80925228"><ele>1122.999</ele><time>2026-09-29T13:35:03Z</time><speed>19.040</speed><sat>31</sat></trkpt>
  <trkpt lat="39.85741805" lon="32.80927479"><ele>1121.502</ele><time>2026-09-29T13:35:04Z</time><speed>19.040</speed><sat>30</sat></trkpt>
  <trkpt lat="39.85759040" lon="32.80930704"><ele>1120.820</ele><time>2026-09-29T13:35:05Z</time><speed>19.060</speed><sat>30</sat></trkpt>
  <trkpt lat="39.85775972" lon="32.80934464"><ele>1119.710</ele><time>2026-09-29T13:35:06Z</time><speed>19.010</speed><sat>29</sat></trkpt>
  <trkpt lat="39.85792734" lon="32.80938220"><ele>1118.765</ele><time>2026-09-29T13:35:07Z</time><speed>19.020</speed><sat>30</sat></trkpt>
  <trkpt lat="39.85809167" lon="32.80942356"><ele>1117.435</ele><time>2026-09-29T13:35:08Z</time><speed>19.020</speed><sat>29</sat></trkpt>
  <trkpt lat="39.85825484" lon="32.80947074"><ele>1117.125</ele><time>2026-09-29T13:35:09Z</time><speed>18.690</speed><sat>30</sat></trkpt>
  <trkpt lat="39.85843398" lon="32.80953389"><ele>1116.960</ele><time>2026-09-29T13:35:10Z</time><speed>19.430</speed><sat>30</sat></trkpt>
  <trkpt lat="39.85860009" lon="32.80959357"><ele>1115.989</ele><time>2026-09-29T13:35:11Z</time><speed>18.730</speed><sat>30</sat></trkpt>
  <trkpt lat="39.85875039" lon="32.80964155"><ele>1114.400</ele><time>2026-09-29T13:35:12Z</time><speed>18.240</speed><sat>30</sat></trkpt>
  <trkpt lat="39.85890966" lon="32.80969553"><ele>1112.787</ele><time>2026-09-29T13:35:13Z</time><speed>17.920</speed><sat>30</sat></trkpt>
  <trkpt lat="39.85908080" lon="32.80975766"><ele>1111.970</ele><time>2026-09-29T13:35:14Z</time><speed>18.950</speed><sat>30</sat></trkpt>
  <trkpt lat="39.85921408" lon="32.80981903"><ele>1110.328</ele><time>2026-09-29T13:35:15Z</time><speed>15.670</speed><sat>31</sat></trkpt>
  <trkpt lat="39.85936272" lon="32.80987131"><ele>1109.902</ele><time>2026-09-29T13:35:16Z</time><speed>16.710</speed><sat>31</sat></trkpt>
  <trkpt lat="39.85952250" lon="32.80993382"><ele>1109.648</ele><time>2026-09-29T13:35:17Z</time><speed>18.600</speed><sat>31</sat></trkpt>
  <trkpt lat="39.85964357" lon="32.80999020"><ele>1107.766</ele><time>2026-09-29T13:35:18Z</time><speed>15.160</speed><sat>31</sat></trkpt>
  <trkpt lat="39.85977554" lon="32.81003375"><ele>1108.455</ele><time>2026-09-29T13:35:19Z</time><speed>15.960</speed><sat>31</sat></trkpt>
  <trkpt lat="39.85987952" lon="32.81011865"><ele>1107.139</ele><time>2026-09-29T13:35:20Z</time><speed>14.860</speed><sat>31</sat></trkpt>
  <trkpt lat="39.86000324" lon="32.81014387"><ele>1106.037</ele><time>2026-09-29T13:35:21Z</time><speed>15.870</speed><sat>29</sat></trkpt>
  <trkpt lat="39.86012357" lon="32.81017885"><ele>1105.120</ele><time>2026-09-29T13:35:22Z</time><speed>14.880</speed><sat>30</sat></trkpt>
  <trkpt lat="39.86022709" lon="32.81020558"><ele>1105.561</ele><time>2026-09-29T13:35:23Z</time><speed>13.210</speed><sat>31</sat></trkpt>
  <trkpt lat="39.86037266" lon="32.81023478"><ele>1106.599</ele><time>2026-09-29T13:35:24Z</time><speed>15.080</speed><sat>31</sat></trkpt>
  <trkpt lat="39.86052313" lon="32.81024681"><ele>1106.650</ele><time>2026-09-29T13:35:25Z</time><speed>15.100</speed><sat>31</sat></trkpt>
  <trkpt lat="39.86067488" lon="32.81030201"><ele>1104.546</ele><time>2026-09-29T13:35:26Z</time><speed>15.940</speed><sat>31</sat></trkpt>
  <trkpt lat="39.86081634" lon="32.81032928"><ele>1103.392</ele><time>2026-09-29T13:35:27Z</time><speed>15.660</speed><sat>31</sat></trkpt>
  <trkpt lat="39.86095988" lon="32.81036061"><ele>1102.506</ele><time>2026-09-29T13:35:28Z</time><speed>16.230</speed><sat>31</sat></trkpt>
  <trkpt lat="39.86110658" lon="32.81038917"><ele>1101.262</ele><time>2026-09-29T13:35:29Z</time><speed>16.510</speed><sat>31</sat></trkpt>
  <trkpt lat="39.86126020" lon="32.81042671"><ele>1100.928</ele><time>2026-09-29T13:35:30Z</time><speed>17.010</speed><sat>30</sat></trkpt>
  <trkpt lat="39.86141146" lon="32.81044810"><ele>1099.745</ele><time>2026-09-29T13:35:31Z</time><speed>17.230</speed><sat>30</sat></trkpt>
  <trkpt lat="39.86156986" lon="32.81046939"><ele>1098.610</ele><time>2026-09-29T13:35:32Z</time><speed>17.550</speed><sat>30</sat></trkpt>
  <trkpt lat="39.86172693" lon="32.81048304"><ele>1097.659</ele><time>2026-09-29T13:35:33Z</time><speed>17.470</speed><sat>29</sat></trkpt>
  <trkpt lat="39.86188542" lon="32.81049805"><ele>1096.140</ele><time>2026-09-29T13:35:34Z</time><speed>17.490</speed><sat>29</sat></trkpt>
  <trkpt lat="39.86204275" lon="32.81050814"><ele>1095.431</ele><time>2026-09-29T13:35:35Z</time><speed>17.390</speed><sat>29</sat></trkpt>
  <trkpt lat="39.86220229" lon="32.81051459"><ele>1094.300</ele><time>2026-09-29T13:35:36Z</time><speed>17.300</speed><sat>29</sat></trkpt>
  <trkpt lat="39.86235750" lon="32.81052179"><ele>1093.068</ele><time>2026-09-29T13:35:37Z</time><speed>17.260</speed><sat>29</sat></trkpt>
  <trkpt lat="39.86251199" lon="32.81051450"><ele>1091.736</ele><time>2026-09-29T13:35:38Z</time><speed>17.200</speed><sat>29</sat></trkpt>
  <trkpt lat="39.86267659" lon="32.81051942"><ele>1091.342</ele><time>2026-09-29T13:35:39Z</time><speed>18.170</speed><sat>29</sat></trkpt>
  <trkpt lat="39.86282698" lon="32.81051621"><ele>1091.551</ele><time>2026-09-29T13:35:40Z</time><speed>16.530</speed><sat>29</sat></trkpt>
  <trkpt lat="39.86302719" lon="32.81050342"><ele>1090.025</ele><time>2026-09-29T13:35:41Z</time><speed>20.320</speed><sat>29</sat></trkpt>
  <trkpt lat="39.86318438" lon="32.81047920"><ele>1087.063</ele><time>2026-09-29T13:35:42Z</time><speed>18.540</speed><sat>29</sat></trkpt>
  <trkpt lat="39.86335392" lon="32.81047018"><ele>1085.877</ele><time>2026-09-29T13:35:43Z</time><speed>18.830</speed><sat>29</sat></trkpt>
  <trkpt lat="39.86352390" lon="32.81045322"><ele>1084.344</ele><time>2026-09-29T13:35:44Z</time><speed>18.630</speed><sat>29</sat></trkpt>
  <trkpt lat="39.86368724" lon="32.81045174"><ele>1081.881</ele><time>2026-09-29T13:35:45Z</time><speed>18.700</speed><sat>29</sat></trkpt>
  <trkpt lat="39.86385566" lon="32.81045078"><ele>1081.240</ele><time>2026-09-29T13:35:46Z</time><speed>18.660</speed><sat>29</sat></trkpt>
  <trkpt lat="39.86402570" lon="32.81044224"><ele>1080.701</ele><time>2026-09-29T13:35:47Z</time><speed>18.650</speed><sat>29</sat></trkpt>
  <trkpt lat="39.86418995" lon="32.81042917"><ele>1080.351</ele><time>2026-09-29T13:35:48Z</time><speed>18.640</speed><sat>31</sat></trkpt>
  <trkpt lat="39.86435660" lon="32.81042247"><ele>1079.602</ele><time>2026-09-29T13:35:49Z</time><speed>18.640</speed><sat>31</sat></trkpt>
  <trkpt lat="39.86451875" lon="32.81041860"><ele>1077.314</ele><time>2026-09-29T13:35:50Z</time><speed>17.910</speed><sat>31</sat></trkpt>
  <trkpt lat="39.86468615" lon="32.81042037"><ele>1076.590</ele><time>2026-09-29T13:35:51Z</time><speed>18.820</speed><sat>31</sat></trkpt>
  <trkpt lat="39.86485773" lon="32.81041553"><ele>1076.686</ele><time>2026-09-29T13:35:52Z</time><speed>19.000</speed><sat>31</sat></trkpt>
  <trkpt lat="39.86502552" lon="32.81040628"><ele>1076.474</ele><time>2026-09-29T13:35:53Z</time><speed>18.710</speed><sat>31</sat></trkpt>
  <trkpt lat="39.86518983" lon="32.81043024"><ele>1075.047</ele><time>2026-09-29T13:35:54Z</time><speed>18.460</speed><sat>30</sat></trkpt>
  <trkpt lat="39.86535705" lon="32.81043663"><ele>1074.303</ele><time>2026-09-29T13:35:55Z</time><speed>18.670</speed><sat>29</sat></trkpt>
  <trkpt lat="39.86552549" lon="32.81044803"><ele>1073.174</ele><time>2026-09-29T13:35:56Z</time><speed>18.620</speed><sat>29</sat></trkpt>
  <trkpt lat="39.86569291" lon="32.81046252"><ele>1073.933</ele><time>2026-09-29T13:35:57Z</time><speed>18.500</speed><sat>29</sat></trkpt>
  <trkpt lat="39.86586451" lon="32.81049234"><ele>1072.114</ele><time>2026-09-29T13:35:58Z</time><speed>18.780</speed><sat>29</sat></trkpt>
  <trkpt lat="39.86602896" lon="32.81050125"><ele>1071.613</ele><time>2026-09-29T13:35:59Z</time><speed>18.450</speed><sat>28</sat></trkpt>
  <trkpt lat="39.86619109" lon="32.81052037"><ele>1069.652</ele><time>2026-09-29T13:36:00Z</time><speed>18.610</speed><sat>29</sat></trkpt>
  <trkpt lat="39.86635887" lon="32.81053581"><ele>1068.722</ele><time>2026-09-29T13:36:01Z</time><speed>18.460</speed><sat>29</sat></trkpt>
  <trkpt lat="39.86652364" lon="32.81055551"><ele>1067.752</ele><time>2026-09-29T13:36:02Z</time><speed>18.320</speed><sat>29</sat></trkpt>
  <trkpt lat="39.86668602" lon="32.81056874"><ele>1067.707</ele><time>2026-09-29T13:36:03Z</time><speed>17.970</speed><sat>29</sat></trkpt>
  <trkpt lat="39.86686062" lon="32.81058784"><ele>1067.760</ele><time>2026-09-29T13:36:04Z</time><speed>19.090</speed><sat>29</sat></trkpt>
  <trkpt lat="39.86703486" lon="32.81061830"><ele>1066.410</ele><time>2026-09-29T13:36:05Z</time><speed>18.110</speed><sat>29</sat></trkpt>
  <trkpt lat="39.86720047" lon="32.81064011"><ele>1066.014</ele><time>2026-09-29T13:36:06Z</time><speed>17.410</speed><sat>29</sat></trkpt>
  <trkpt lat="39.86735983" lon="32.81065509"><ele>1065.180</ele><time>2026-09-29T13:36:07Z</time><speed>17.570</speed><sat>29</sat></trkpt>
  <trkpt lat="39.86751297" lon="32.81068054"><ele>1063.650</ele><time>2026-09-29T13:36:08Z</time><speed>17.160</speed><sat>29</sat></trkpt>
  <trkpt lat="39.86766379" lon="32.81069736"><ele>1063.266</ele><time>2026-09-29T13:36:09Z</time><speed>16.920</speed><sat>29</sat></trkpt>
  <trkpt lat="39.86781171" lon="32.81071795"><ele>1063.007</ele><time>2026-09-29T13:36:10Z</time><speed>16.640</speed><sat>29</sat></trkpt>
  <trkpt lat="39.86796152" lon="32.81073245"><ele>1062.626</ele><time>2026-09-29T13:36:11Z</time><speed>16.670</speed><sat>28</sat></trkpt>
  <trkpt lat="39.86810596" lon="32.81074607"><ele>1063.291</ele><time>2026-09-29T13:36:12Z</time><speed>16.080</speed><sat>28</sat></trkpt>
  <trkpt lat="39.86825006" lon="32.81076387"><ele>1063.411</ele><time>2026-09-29T13:36:13Z</time><speed>15.980</speed><sat>29</sat></trkpt>
  <trkpt lat="39.86839344" lon="32.81079384"><ele>1063.364</ele><time>2026-09-29T13:36:14Z</time><speed>16.210</speed><sat>29</sat></trkpt>
  <trkpt lat="39.86852034" lon="32.81080598"><ele>1062.635</ele><time>2026-09-29T13:36:15Z</time><speed>14.660</speed><sat>29</sat></trkpt>
  <trkpt lat="39.86864947" lon="32.81082105"><ele>1063.050</ele><time>2026-09-29T13:36:16Z</time><speed>14.890</speed><sat>29</sat></trkpt>
  <trkpt lat="39.86878676" lon="32.81083747"><ele>1062.826</ele><time>2026-09-29T13:36:17Z</time><speed>14.960</speed><sat>31</sat></trkpt>
  <trkpt lat="39.86891651" lon="32.81083770"><ele>1062.074</ele><time>2026-09-29T13:36:18Z</time><speed>15.000</speed><sat>31</sat></trkpt>
  <trkpt lat="39.86905382" lon="32.81085419"><ele>1062.896</ele><time>2026-09-29T13:36:19Z</time><speed>14.870</speed><sat>31</sat></trkpt>
  <trkpt lat="39.86919060" lon="32.81086489"><ele>1063.236</ele><time>2026-09-29T13:36:20Z</time><speed>15.020</speed><sat>31</sat></trkpt>
  <trkpt lat="39.86932445" lon="32.81088146"><ele>1063.005</ele><time>2026-09-29T13:36:21Z</time><speed>15.050</speed><sat>31</sat></trkpt>
  <trkpt lat="39.86945930" lon="32.81089244"><ele>1062.425</ele><time>2026-09-29T13:36:22Z</time><speed>15.090</speed><sat>31</sat></trkpt>
  <trkpt lat="39.86959758" lon="32.81091277"><ele>1061.757</ele><time>2026-09-29T13:36:23Z</time><speed>15.460</speed><sat>30</sat></trkpt>
  <trkpt lat="39.86973389" lon="32.81092777"><ele>1061.369</ele><time>2026-09-29T13:36:24Z</time><speed>15.310</speed><sat>30</sat></trkpt>
  <trkpt lat="39.86986305" lon="32.81093663"><ele>1060.899</ele><time>2026-09-29T13:36:25Z</time><speed>14.690</speed><sat>30</sat></trkpt>
  <trkpt lat="39.86999842" lon="32.81096306"><ele>1060.082</ele><time>2026-09-29T13:36:26Z</time><speed>15.180</speed><sat>30</sat></trkpt>
  <trkpt lat="39.87013155" lon="32.81095216"><ele>1060.470</ele><time>2026-09-29T13:36:27Z</time><speed>15.080</speed><sat>30</sat></trkpt>
  <trkpt lat="39.87027314" lon="32.81097144"><ele>1059.901</ele><time>2026-09-29T13:36:28Z</time><speed>15.350</speed><sat>30</sat></trkpt>
  <trkpt lat="39.87039644" lon="32.81099222"><ele>1060.066</ele><time>2026-09-29T13:36:29Z</time><speed>14.490</speed><sat>30</sat></trkpt>
  <trkpt lat="39.87052913" lon="32.81099315"><ele>1059.686</ele><time>2026-09-29T13:36:30Z</time><speed>14.800</speed><sat>31</sat></trkpt>
  <trkpt lat="39.87065857" lon="32.81101086"><ele>1058.765</ele><time>2026-09-29T13:36:31Z</time><speed>14.870</speed><sat>31</sat></trkpt>
  <trkpt lat="39.87079199" lon="32.81102761"><ele>1058.207</ele><time>2026-09-29T13:36:32Z</time><speed>14.660</speed><sat>32</sat></trkpt>
  <trkpt lat="39.87091485" lon="32.81104229"><ele>1058.040</ele><time>2026-09-29T13:36:33Z</time><speed>14.440</speed><sat>33</sat></trkpt>
  <trkpt lat="39.87104665" lon="32.81104967"><ele>1057.832</ele><time>2026-09-29T13:36:34Z</time><speed>14.490</speed><sat>34</sat></trkpt>
  <trkpt lat="39.87117934" lon="32.81106518"><ele>1057.719</ele><time>2026-09-29T13:36:35Z</time><speed>14.550</speed><sat>34</sat></trkpt>
  <trkpt lat="39.87131127" lon="32.81107930"><ele>1056.640</ele><time>2026-09-29T13:36:36Z</time><speed>14.580</speed><sat>34</sat></trkpt>
  <trkpt lat="39.87145388" lon="32.81108669"><ele>1055.986</ele><time>2026-09-29T13:36:37Z</time><speed>14.800</speed><sat>34</sat></trkpt>
  <trkpt lat="39.87158618" lon="32.81110018"><ele>1055.154</ele><time>2026-09-29T13:36:38Z</time><speed>14.810</speed><sat>34</sat></trkpt>
  <trkpt lat="39.87172028" lon="32.81111938"><ele>1056.155</ele><time>2026-09-29T13:36:39Z</time><speed>14.930</speed><sat>34</sat></trkpt>
  <trkpt lat="39.87184286" lon="32.81113026"><ele>1055.495</ele><time>2026-09-29T13:36:40Z</time><speed>14.200</speed><sat>35</sat></trkpt>
  <trkpt lat="39.87197237" lon="32.81114305"><ele>1055.311</ele><time>2026-09-29T13:36:41Z</time><speed>14.290</speed><sat>35</sat></trkpt>
  <trkpt lat="39.87210658" lon="32.81117861"><ele>1055.826</ele><time>2026-09-29T13:36:42Z</time><speed>14.770</speed><sat>35</sat></trkpt>
  <trkpt lat="39.87222272" lon="32.81118069"><ele>1057.042</ele><time>2026-09-29T13:36:43Z</time><speed>13.790</speed><sat>35</sat></trkpt>
  <trkpt lat="39.87234125" lon="32.81119712"><ele>1057.390</ele><time>2026-09-29T13:36:44Z</time><speed>13.520</speed><sat>35</sat></trkpt>
  <trkpt lat="39.87246437" lon="32.81122336"><ele>1057.142</ele><time>2026-09-29T13:36:45Z</time><speed>13.680</speed><sat>35</sat></trkpt>
  <trkpt lat="39.87258863" lon="32.81124680"><ele>1057.233</ele><time>2026-09-29T13:36:46Z</time><speed>13.770</speed><sat>35</sat></trkpt>
  <trkpt lat="39.87275180" lon="32.81124587"><ele>1056.752</ele><time>2026-09-29T13:36:47Z</time><speed>14.920</speed><sat>34</sat></trkpt>
  <trkpt lat="39.87290531" lon="32.81124345"><ele>1055.793</ele><time>2026-09-29T13:36:48Z</time><speed>15.750</speed><sat>32</sat></trkpt>
  <trkpt lat="39.87304676" lon="32.81126608"><ele>1056.282</ele><time>2026-09-29T13:36:49Z</time><speed>15.640</speed><sat>32</sat></trkpt>
  <trkpt lat="39.87320897" lon="32.81129761"><ele>1055.179</ele><time>2026-09-29T13:36:50Z</time><speed>16.190</speed><sat>29</sat></trkpt>
  <trkpt lat="39.87335502" lon="32.81133060"><ele>1055.849</ele><time>2026-09-29T13:36:51Z</time><speed>16.160</speed><sat>30</sat></trkpt>
  <trkpt lat="39.87348007" lon="32.81134067"><ele>1054.448</ele><time>2026-09-29T13:36:52Z</time><speed>15.470</speed><sat>30</sat></trkpt>
  <trkpt lat="39.87360676" lon="32.81134172"><ele>1054.181</ele><time>2026-09-29T13:36:53Z</time><speed>14.410</speed><sat>30</sat></trkpt>
  <trkpt lat="39.87380262" lon="32.81130977"><ele>1053.184</ele><time>2026-09-29T13:36:54Z</time><speed>17.130</speed><sat>31</sat></trkpt>
  <trkpt lat="39.87396195" lon="32.81132361"><ele>1051.942</ele><time>2026-09-29T13:36:55Z</time><speed>16.920</speed><sat>32</sat></trkpt>
  <trkpt lat="39.87411065" lon="32.81134872"><ele>1050.013</ele><time>2026-09-29T13:36:56Z</time><speed>17.010</speed><sat>33</sat></trkpt>
  <trkpt lat="39.87427213" lon="32.81136095"><ele>1049.167</ele><time>2026-09-29T13:36:57Z</time><speed>17.400</speed><sat>32</sat></trkpt>
  <trkpt lat="39.87443183" lon="32.81138076"><ele>1047.247</ele><time>2026-09-29T13:36:58Z</time><speed>17.080</speed><sat>33</sat></trkpt>
  <trkpt lat="39.87459217" lon="32.81140960"><ele>1046.836</ele><time>2026-09-29T13:36:59Z</time><speed>17.300</speed><sat>33</sat></trkpt>
  <trkpt lat="39.87473720" lon="32.81142105"><ele>1045.125</ele><time>2026-09-29T13:37:00Z</time><speed>17.170</speed><sat>33</sat></trkpt>
  <trkpt lat="39.87489324" lon="32.81143339"><ele>1044.657</ele><time>2026-09-29T13:37:01Z</time><speed>17.370</speed><sat>33</sat></trkpt>
  <trkpt lat="39.87505320" lon="32.81144305"><ele>1044.835</ele><time>2026-09-29T13:37:02Z</time><speed>17.240</speed><sat>33</sat></trkpt>
  <trkpt lat="39.87520953" lon="32.81146722"><ele>1043.711</ele><time>2026-09-29T13:37:03Z</time><speed>17.490</speed><sat>33</sat></trkpt>
  <trkpt lat="39.87536353" lon="32.81149386"><ele>1041.845</ele><time>2026-09-29T13:37:04Z</time><speed>17.470</speed><sat>33</sat></trkpt>
  <trkpt lat="39.87551936" lon="32.81151253"><ele>1041.348</ele><time>2026-09-29T13:37:05Z</time><speed>17.670</speed><sat>34</sat></trkpt>
  <trkpt lat="39.87568206" lon="32.81152915"><ele>1041.025</ele><time>2026-09-29T13:37:06Z</time><speed>18.060</speed><sat>33</sat></trkpt>
  <trkpt lat="39.87584571" lon="32.81155252"><ele>1039.726</ele><time>2026-09-29T13:37:07Z</time><speed>18.410</speed><sat>33</sat></trkpt>
  <trkpt lat="39.87600082" lon="32.81156729"><ele>1039.428</ele><time>2026-09-29T13:37:08Z</time><speed>18.070</speed><sat>34</sat></trkpt>
  <trkpt lat="39.87617876" lon="32.81157916"><ele>1038.360</ele><time>2026-09-29T13:37:09Z</time><speed>18.970</speed><sat>34</sat></trkpt>
  <trkpt lat="39.87636247" lon="32.81160277"><ele>1037.765</ele><time>2026-09-29T13:37:10Z</time><speed>19.580</speed><sat>34</sat></trkpt>
  <trkpt lat="39.87653385" lon="32.81162712"><ele>1037.990</ele><time>2026-09-29T13:37:11Z</time><speed>19.410</speed><sat>34</sat></trkpt>
  <trkpt lat="39.87672612" lon="32.81162985"><ele>1037.878</ele><time>2026-09-29T13:37:12Z</time><speed>19.570</speed><sat>33</sat></trkpt>
  <trkpt lat="39.87692150" lon="32.81165859"><ele>1036.985</ele><time>2026-09-29T13:37:13Z</time><speed>19.410</speed><sat>30</sat></trkpt>
  <trkpt lat="39.87709540" lon="32.81167728"><ele>1034.231</ele><time>2026-09-29T13:37:14Z</time><speed>19.530</speed><sat>29</sat></trkpt>
  <trkpt lat="39.87726256" lon="32.81170640"><ele>1032.464</ele><time>2026-09-29T13:37:15Z</time><speed>18.590</speed><sat>28</sat></trkpt>
  <trkpt lat="39.87740908" lon="32.81172277"><ele>1031.899</ele><time>2026-09-29T13:37:16Z</time><speed>16.990</speed><sat>28</sat></trkpt>
  <trkpt lat="39.87758998" lon="32.81172370"><ele>1030.791</ele><time>2026-09-29T13:37:17Z</time><speed>18.920</speed><sat>29</sat></trkpt>
  <trkpt lat="39.87776198" lon="32.81173230"><ele>1030.959</ele><time>2026-09-29T13:37:18Z</time><speed>19.350</speed><sat>30</sat></trkpt>
  <trkpt lat="39.87793164" lon="32.81174720"><ele>1030.633</ele><time>2026-09-29T13:37:19Z</time><speed>19.110</speed><sat>29</sat></trkpt>
  <trkpt lat="39.87810376" lon="32.81176131"><ele>1030.469</ele><time>2026-09-29T13:37:20Z</time><speed>19.160</speed><sat>29</sat></trkpt>
  <trkpt lat="39.87827295" lon="32.81178945"><ele>1029.888</ele><time>2026-09-29T13:37:21Z</time><speed>19.140</speed><sat>30</sat></trkpt>
  <trkpt lat="39.87842749" lon="32.81177782"><ele>1028.230</ele><time>2026-09-29T13:37:22Z</time><speed>18.190</speed><sat>30</sat></trkpt>
  <trkpt lat="39.87860001" lon="32.81180629"><ele>1029.649</ele><time>2026-09-29T13:37:23Z</time><speed>18.650</speed><sat>30</sat></trkpt>
  <trkpt lat="39.87876467" lon="32.81181431"><ele>1027.710</ele><time>2026-09-29T13:37:24Z</time><speed>18.310</speed><sat>30</sat></trkpt>
  <trkpt lat="39.87892707" lon="32.81182212"><ele>1027.775</ele><time>2026-09-29T13:37:25Z</time><speed>17.980</speed><sat>30</sat></trkpt>
  <trkpt lat="39.87908399" lon="32.81184545"><ele>1028.612</ele><time>2026-09-29T13:37:26Z</time><speed>17.470</speed><sat>30</sat></trkpt>
  <trkpt lat="39.87924077" lon="32.81187041"><ele>1029.436</ele><time>2026-09-29T13:37:27Z</time><speed>18.000</speed><sat>27</sat></trkpt>
  <trkpt lat="39.87941687" lon="32.81185639"><ele>1030.674</ele><time>2026-09-29T13:37:28Z</time><speed>18.530</speed><sat>27</sat></trkpt>
  <trkpt lat="39.87957520" lon="32.81187672"><ele>1031.074</ele><time>2026-09-29T13:37:29Z</time><speed>18.430</speed><sat>27</sat></trkpt>
  <trkpt lat="39.87972337" lon="32.81191397"><ele>1031.665</ele><time>2026-09-29T13:37:30Z</time><speed>17.470</speed><sat>27</sat></trkpt>
  <trkpt lat="39.87985012" lon="32.81194855"><ele>1030.524</ele><time>2026-09-29T13:37:31Z</time><speed>16.340</speed><sat>26</sat></trkpt>
  <trkpt lat="39.88000022" lon="32.81195159"><ele>1027.704</ele><time>2026-09-29T13:37:32Z</time><speed>16.630</speed><sat>25</sat></trkpt>
  <trkpt lat="39.88013488" lon="32.81196902"><ele>1026.721</ele><time>2026-09-29T13:37:33Z</time><speed>16.120</speed><sat>24</sat></trkpt>
  <trkpt lat="39.88029511" lon="32.81199599"><ele>1026.036</ele><time>2026-09-29T13:37:34Z</time><speed>17.790</speed><sat>23</sat></trkpt>
  <trkpt lat="39.88045405" lon="32.81203087"><ele>1025.474</ele><time>2026-09-29T13:37:35Z</time><speed>18.040</speed><sat>23</sat></trkpt>
  <trkpt lat="39.88057607" lon="32.81203597"><ele>1025.400</ele><time>2026-09-29T13:37:36Z</time><speed>16.870</speed><sat>23</sat></trkpt>
  <trkpt lat="39.88075868" lon="32.81201829"><ele>1024.856</ele><time>2026-09-29T13:37:37Z</time><speed>18.100</speed><sat>24</sat></trkpt>
  <trkpt lat="39.88088509" lon="32.81201576"><ele>1024.838</ele><time>2026-09-29T13:37:38Z</time><speed>16.640</speed><sat>26</sat></trkpt>
  <trkpt lat="39.88104085" lon="32.81206186"><ele>1023.757</ele><time>2026-09-29T13:37:39Z</time><speed>17.450</speed><sat>23</sat></trkpt>
  <trkpt lat="39.88117810" lon="32.81205076"><ele>1023.559</ele><time>2026-09-29T13:37:40Z</time><speed>16.710</speed><sat>23</sat></trkpt>
  <trkpt lat="39.88132770" lon="32.81206859"><ele>1025.541</ele><time>2026-09-29T13:37:41Z</time><speed>17.250</speed><sat>23</sat></trkpt>
  <trkpt lat="39.88148865" lon="32.81206451"><ele>1025.913</ele><time>2026-09-29T13:37:42Z</time><speed>17.480</speed><sat>23</sat></trkpt>
  <trkpt lat="39.88164767" lon="32.81210061"><ele>1025.994</ele><time>2026-09-29T13:37:43Z</time><speed>17.950</speed><sat>23</sat></trkpt>
  <trkpt lat="39.88180396" lon="32.81213454"><ele>1025.252</ele><time>2026-09-29T13:37:44Z</time><speed>18.290</speed><sat>23</sat></trkpt>
  <trkpt lat="39.88196157" lon="32.81216410"><ele>1025.680</ele><time>2026-09-29T13:37:45Z</time><speed>18.290</speed><sat>22</sat></trkpt>
  <trkpt lat="39.88205040" lon="32.81216313"><ele>1025.385</ele><time>2026-09-29T13:37:46Z</time><speed>16.050</speed><sat>23</sat></trkpt>
  <trkpt lat="39.88211706" lon="32.81215906"><ele>1024.523</ele><time>2026-09-29T13:37:47Z</time><speed>14.200</speed><sat>25</sat></trkpt>
  <trkpt lat="39.88221123" lon="32.81218755"><ele>1024.454</ele><time>2026-09-29T13:37:48Z</time><speed>12.600</speed><sat>24</sat></trkpt>
  <trkpt lat="39.88231253" lon="32.81220962"><ele>1023.678</ele><time>2026-09-29T13:37:49Z</time><speed>11.230</speed><sat>24</sat></trkpt>
  <trkpt lat="39.88240883" lon="32.81222007"><ele>1022.653</ele><time>2026-09-29T13:37:50Z</time><speed>10.930</speed><sat>26</sat></trkpt>
  <trkpt lat="39.88251479" lon="32.81222202"><ele>1022.843</ele><time>2026-09-29T13:37:51Z</time><speed>11.190</speed><sat>27</sat></trkpt>
  <trkpt lat="39.88259692" lon="32.81222217"><ele>1021.836</ele><time>2026-09-29T13:37:52Z</time><speed>10.680</speed><sat>25</sat></trkpt>
  <trkpt lat="39.88270837" lon="32.81223074"><ele>1021.297</ele><time>2026-09-29T13:37:53Z</time><speed>11.530</speed><sat>27</sat></trkpt>
  <trkpt lat="39.88281377" lon="32.81223628"><ele>1022.027</ele><time>2026-09-29T13:37:54Z</time><speed>12.120</speed><sat>26</sat></trkpt>
  <trkpt lat="39.88292184" lon="32.81224589"><ele>1023.198</ele><time>2026-09-29T13:37:55Z</time><speed>12.210</speed><sat>25</sat></trkpt>
  <trkpt lat="39.88304711" lon="32.81223643"><ele>1024.023</ele><time>2026-09-29T13:37:56Z</time><speed>12.650</speed><sat>26</sat></trkpt>
  <trkpt lat="39.88314402" lon="32.81225354"><ele>1024.345</ele><time>2026-09-29T13:37:57Z</time><speed>12.320</speed><sat>26</sat></trkpt>
  <trkpt lat="39.88327189" lon="32.81226199"><ele>1024.525</ele><time>2026-09-29T13:37:58Z</time><speed>12.670</speed><sat>27</sat></trkpt>
  <trkpt lat="39.88338167" lon="32.81227210"><ele>1024.908</ele><time>2026-09-29T13:37:59Z</time><speed>12.160</speed><sat>27</sat></trkpt>
  <trkpt lat="39.88349360" lon="32.81227531"><ele>1024.487</ele><time>2026-09-29T13:38:00Z</time><speed>12.190</speed><sat>27</sat></trkpt>
  <trkpt lat="39.88358220" lon="32.81228451"><ele>1024.651</ele><time>2026-09-29T13:38:01Z</time><speed>11.240</speed><sat>25</sat></trkpt>
  <trkpt lat="39.88370248" lon="32.81228593"><ele>1024.542</ele><time>2026-09-29T13:38:02Z</time><speed>11.860</speed><sat>26</sat></trkpt>
  <trkpt lat="39.88381750" lon="32.81228957"><ele>1022.568</ele><time>2026-09-29T13:38:03Z</time><speed>12.090</speed><sat>27</sat></trkpt>
  <trkpt lat="39.88393271" lon="32.81228782"><ele>1021.934</ele><time>2026-09-29T13:38:04Z</time><speed>12.410</speed><sat>29</sat></trkpt>
  <trkpt lat="39.88404623" lon="32.81228298"><ele>1020.971</ele><time>2026-09-29T13:38:05Z</time><speed>13.450</speed><sat>31</sat></trkpt>
  <trkpt lat="39.88417651" lon="32.81228294"><ele>1020.763</ele><time>2026-09-29T13:38:06Z</time><speed>14.730</speed><sat>32</sat></trkpt>
  <trkpt lat="39.88433238" lon="32.81229238"><ele>1019.649</ele><time>2026-09-29T13:38:07Z</time><speed>16.250</speed><sat>32</sat></trkpt>
  <trkpt lat="39.88449137" lon="32.81230158"><ele>1019.514</ele><time>2026-09-29T13:38:08Z</time><speed>17.740</speed><sat>32</sat></trkpt>
  <trkpt lat="39.88464924" lon="32.81231361"><ele>1019.069</ele><time>2026-09-29T13:38:09Z</time><speed>18.240</speed><sat>32</sat></trkpt>
  <trkpt lat="39.88481850" lon="32.81233079"><ele>1017.982</ele><time>2026-09-29T13:38:10Z</time><speed>18.350</speed><sat>33</sat></trkpt>
  <trkpt lat="39.88498399" lon="32.81233564"><ele>1018.346</ele><time>2026-09-29T13:38:11Z</time><speed>18.490</speed><sat>33</sat></trkpt>
  <trkpt lat="39.88514767" lon="32.81234468"><ele>1016.297</ele><time>2026-09-29T13:38:12Z</time><speed>18.790</speed><sat>33</sat></trkpt>
  <trkpt lat="39.88532208" lon="32.81236230"><ele>1015.380</ele><time>2026-09-29T13:38:13Z</time><speed>19.240</speed><sat>33</sat></trkpt>
  <trkpt lat="39.88549873" lon="32.81237720"><ele>1013.917</ele><time>2026-09-29T13:38:14Z</time><speed>19.840</speed><sat>33</sat></trkpt>
  <trkpt lat="39.88568574" lon="32.81239489"><ele>1012.559</ele><time>2026-09-29T13:38:15Z</time><speed>20.830</speed><sat>32</sat></trkpt>
  <trkpt lat="39.88587253" lon="32.81239864"><ele>1010.000</ele><time>2026-09-29T13:38:16Z</time><speed>21.250</speed><sat>27</sat></trkpt>
  <trkpt lat="39.88607586" lon="32.81242257"><ele>1007.487</ele><time>2026-09-29T13:38:17Z</time><speed>22.390</speed><sat>27</sat></trkpt>
  <trkpt lat="39.88628707" lon="32.81244561"><ele>1006.292</ele><time>2026-09-29T13:38:18Z</time><speed>23.520</speed><sat>26</sat></trkpt>
  <trkpt lat="39.88650044" lon="32.81247196"><ele>1006.096</ele><time>2026-09-29T13:38:19Z</time><speed>23.400</speed><sat>27</sat></trkpt>
  <trkpt lat="39.88670902" lon="32.81249468"><ele>1005.886</ele><time>2026-09-29T13:38:20Z</time><speed>23.310</speed><sat>27</sat></trkpt>
  <trkpt lat="39.88691293" lon="32.81251955"><ele>1005.880</ele><time>2026-09-29T13:38:21Z</time><speed>22.990</speed><sat>28</sat></trkpt>
  <trkpt lat="39.88917773" lon="32.81276627"><ele>1004.598</ele><time>2026-09-29T13:38:32Z</time><speed>21.410</speed><sat>15</sat></trkpt>
  <trkpt lat="39.88935227" lon="32.81278861"><ele>1005.171</ele><time>2026-09-29T13:38:33Z</time><speed>21.040</speed><sat>16</sat></trkpt>
  <trkpt lat="39.88952537" lon="32.81283107"><ele>1007.338</ele><time>2026-09-29T13:38:34Z</time><speed>19.780</speed><sat>16</sat></trkpt>
  <trkpt lat="39.88970822" lon="32.81287411"><ele>1008.153</ele><time>2026-09-29T13:38:35Z</time><speed>20.080</speed><sat>18</sat></trkpt>
  <trkpt lat="39.88998910" lon="32.81289300"><ele>1006.047</ele><time>2026-09-29T13:38:36Z</time><speed>23.690</speed><sat>17</sat></trkpt>
  <trkpt lat="39.89018751" lon="32.81290468"><ele>1005.986</ele><time>2026-09-29T13:38:37Z</time><speed>24.160</speed><sat>18</sat></trkpt>
  <trkpt lat="39.89040605" lon="32.81293221"><ele>1006.453</ele><time>2026-09-29T13:38:38Z</time><speed>24.340</speed><sat>18</sat></trkpt>
  <trkpt lat="39.89062643" lon="32.81293378"><ele>1006.622</ele><time>2026-09-29T13:38:39Z</time><speed>24.050</speed><sat>19</sat></trkpt>
  <trkpt lat="39.89085699" lon="32.81295334"><ele>1004.865</ele><time>2026-09-29T13:38:40Z</time><speed>24.710</speed><sat>19</sat></trkpt>
  <trkpt lat="39.89105695" lon="32.81297991"><ele>1001.765</ele><time>2026-09-29T13:38:41Z</time><speed>23.030</speed><sat>19</sat></trkpt>
  <trkpt lat="39.89126863" lon="32.81300751"><ele>1000.187</ele><time>2026-09-29T13:38:42Z</time><speed>23.520</speed><sat>23</sat></trkpt>
  <trkpt lat="39.89147307" lon="32.81305198"><ele>998.630</ele><time>2026-09-29T13:38:43Z</time><speed>23.620</speed><sat>23</sat></trkpt>
  <trkpt lat="39.89168071" lon="32.81308392"><ele>998.725</ele><time>2026-09-29T13:38:44Z</time><speed>23.320</speed><sat>24</sat></trkpt>
  <trkpt lat="39.89189121" lon="32.81310355"><ele>997.301</ele><time>2026-09-29T13:38:45Z</time><speed>23.290</speed><sat>23</sat></trkpt>
  <trkpt lat="39.89208256" lon="32.81312397"><ele>996.020</ele><time>2026-09-29T13:38:46Z</time><speed>23.080</speed><sat>24</sat></trkpt>
  <trkpt lat="39.89228910" lon="32.81314611"><ele>994.897</ele><time>2026-09-29T13:38:47Z</time><speed>23.150</speed><sat>29</sat></trkpt>
  <trkpt lat="39.89249288" lon="32.81317004"><ele>995.095</ele><time>2026-09-29T13:38:48Z</time><speed>22.700</speed><sat>28</sat></trkpt>
  <trkpt lat="39.89271154" lon="32.81316224"><ele>990.950</ele><time>2026-09-29T13:38:49Z</time><speed>23.080</speed><sat>29</sat></trkpt>
  <trkpt lat="39.89291351" lon="32.81320829"><ele>991.377</ele><time>2026-09-29T13:38:50Z</time><speed>22.490</speed><sat>30</sat></trkpt>
  <trkpt lat="39.89312280" lon="32.81321696"><ele>990.381</ele><time>2026-09-29T13:38:51Z</time><speed>22.750</speed><sat>31</sat></trkpt>
  <trkpt lat="39.89331843" lon="32.81324851"><ele>990.283</ele><time>2026-09-29T13:38:52Z</time><speed>21.900</speed><sat>32</sat></trkpt>
  <trkpt lat="39.89351430" lon="32.81326727"><ele>989.055</ele><time>2026-09-29T13:38:53Z</time><speed>21.740</speed><sat>33</sat></trkpt>
  <trkpt lat="39.89371007" lon="32.81329816"><ele>988.103</ele><time>2026-09-29T13:38:54Z</time><speed>21.800</speed><sat>33</sat></trkpt>
  <trkpt lat="39.89390327" lon="32.81332553"><ele>988.301</ele><time>2026-09-29T13:38:55Z</time><speed>21.720</speed><sat>33</sat></trkpt>
  <trkpt lat="39.89410226" lon="32.81335236"><ele>988.497</ele><time>2026-09-29T13:38:56Z</time><speed>21.850</speed><sat>33</sat></trkpt>
  <trkpt lat="39.89428744" lon="32.81337458"><ele>988.998</ele><time>2026-09-29T13:38:57Z</time><speed>21.020</speed><sat>33</sat></trkpt>
  <trkpt lat="39.89447759" lon="32.81339407"><ele>989.165</ele><time>2026-09-29T13:38:58Z</time><speed>20.960</speed><sat>33</sat></trkpt>
  <trkpt lat="39.89465996" lon="32.81343175"><ele>988.518</ele><time>2026-09-29T13:38:59Z</time><speed>20.900</speed><sat>33</sat></trkpt>
  <trkpt lat="39.89483750" lon="32.81345290"><ele>987.713</ele><time>2026-09-29T13:39:00Z</time><speed>20.150</speed><sat>32</sat></trkpt>
  <trkpt lat="39.89501920" lon="32.81349855"><ele>988.117</ele><time>2026-09-29T13:39:01Z</time><speed>20.270</speed><sat>31</sat></trkpt>
  <trkpt lat="39.89521169" lon="32.81350407"><ele>988.068</ele><time>2026-09-29T13:39:02Z</time><speed>21.130</speed><sat>30</sat></trkpt>
  <trkpt lat="39.89535690" lon="32.81352498"><ele>988.160</ele><time>2026-09-29T13:39:03Z</time><speed>18.500</speed><sat>30</sat></trkpt>
  <trkpt lat="39.89550764" lon="32.81354378"><ele>988.618</ele><time>2026-09-29T13:39:04Z</time><speed>17.740</speed><sat>29</sat></trkpt>
  <trkpt lat="39.89568786" lon="32.81362370"><ele>988.645</ele><time>2026-09-29T13:39:05Z</time><speed>19.650</speed><sat>29</sat></trkpt>
  <trkpt lat="39.89588006" lon="32.81358802"><ele>989.163</ele><time>2026-09-29T13:39:06Z</time><speed>19.900</speed><sat>28</sat></trkpt>
  <trkpt lat="39.89605809" lon="32.81361713"><ele>988.034</ele><time>2026-09-29T13:39:07Z</time><speed>20.190</speed><sat>26</sat></trkpt>
  <trkpt lat="39.89624892" lon="32.81361554"><ele>987.430</ele><time>2026-09-29T13:39:08Z</time><speed>20.110</speed><sat>25</sat></trkpt>
  <trkpt lat="39.89644459" lon="32.81360736"><ele>988.435</ele><time>2026-09-29T13:39:09Z</time><speed>20.860</speed><sat>25</sat></trkpt>
  <trkpt lat="39.89662091" lon="32.81363593"><ele>986.888</ele><time>2026-09-29T13:39:10Z</time><speed>19.370</speed><sat>24</sat></trkpt>
  <trkpt lat="39.89682685" lon="32.81363822"><ele>984.706</ele><time>2026-09-29T13:39:11Z</time><speed>20.730</speed><sat>25</sat></trkpt>
  <trkpt lat="39.89697954" lon="32.81367531"><ele>980.997</ele><time>2026-09-29T13:39:12Z</time><speed>17.900</speed><sat>30</sat></trkpt>
  <trkpt lat="39.89715938" lon="32.81369373"><ele>980.998</ele><time>2026-09-29T13:39:13Z</time><speed>19.250</speed><sat>31</sat></trkpt>
  <trkpt lat="39.89734416" lon="32.81371875"><ele>981.027</ele><time>2026-09-29T13:39:14Z</time><speed>20.550</speed><sat>32</sat></trkpt>
  <trkpt lat="39.89747487" lon="32.81375556"><ele>980.384</ele><time>2026-09-29T13:39:15Z</time><speed>17.040</speed><sat>32</sat></trkpt>
  <trkpt lat="39.89764731" lon="32.81375399"><ele>978.346</ele><time>2026-09-29T13:39:16Z</time><speed>17.460</speed><sat>32</sat></trkpt>
  <trkpt lat="39.89779768" lon="32.81377545"><ele>975.748</ele><time>2026-09-29T13:39:17Z</time><speed>17.860</speed><sat>32</sat></trkpt>
  <trkpt lat="39.89795952" lon="32.81378702"><ele>975.408</ele><time>2026-09-29T13:39:18Z</time><speed>17.730</speed><sat>33</sat></trkpt>
  <trkpt lat="39.89811944" lon="32.81380447"><ele>975.329</ele><time>2026-09-29T13:39:19Z</time><speed>18.490</speed><sat>32</sat></trkpt>
  <trkpt lat="39.89828732" lon="32.81383184"><ele>974.796</ele><time>2026-09-29T13:39:20Z</time><speed>18.300</speed><sat>33</sat></trkpt>
  <trkpt lat="39.89843915" lon="32.81384866"><ele>975.188</ele><time>2026-09-29T13:39:21Z</time><speed>17.670</speed><sat>34</sat></trkpt>
  <trkpt lat="39.89859629" lon="32.81385909"><ele>974.486</ele><time>2026-09-29T13:39:22Z</time><speed>16.870</speed><sat>34</sat></trkpt>
  <trkpt lat="39.89875245" lon="32.81388143"><ele>973.734</ele><time>2026-09-29T13:39:23Z</time><speed>17.010</speed><sat>34</sat></trkpt>
  <trkpt lat="39.89890251" lon="32.81389800"><ele>973.350</ele><time>2026-09-29T13:39:24Z</time><speed>16.750</speed><sat>33</sat></trkpt>
  <trkpt lat="39.89905887" lon="32.81391035"><ele>973.046</ele><time>2026-09-29T13:39:25Z</time><speed>17.250</speed><sat>34</sat></trkpt>
  <trkpt lat="39.89922708" lon="32.81391322"><ele>972.075</ele><time>2026-09-29T13:39:26Z</time><speed>17.850</speed><sat>34</sat></trkpt>
  <trkpt lat="39.89939493" lon="32.81393258"><ele>971.923</ele><time>2026-09-29T13:39:27Z</time><speed>18.090</speed><sat>34</sat></trkpt>
  <trkpt lat="39.89955626" lon="32.81393104"><ele>969.981</ele><time>2026-09-29T13:39:28Z</time><speed>18.840</speed><sat>34</sat></trkpt>
  <trkpt lat="39.89973116" lon="32.81394162"><ele>969.437</ele><time>2026-09-29T13:39:29Z</time><speed>19.440</speed><sat>34</sat></trkpt>
  <trkpt lat="39.89991625" lon="32.81395985"><ele>970.124</ele><time>2026-09-29T13:39:30Z</time><speed>20.380</speed><sat>34</sat></trkpt>
  <trkpt lat="39.90010924" lon="32.81397505"><ele>969.568</ele><time>2026-09-29T13:39:31Z</time><speed>21.290</speed><sat>33</sat></trkpt>
  <trkpt lat="39.90030859" lon="32.81399572"><ele>968.545</ele><time>2026-09-29T13:39:32Z</time><speed>22.050</speed><sat>32</sat></trkpt>
  <trkpt lat="39.90051156" lon="32.81401190"><ele>967.971</ele><time>2026-09-29T13:39:33Z</time><speed>22.830</speed><sat>31</sat></trkpt>
  <trkpt lat="39.90071408" lon="32.81403927"><ele>967.337</ele><time>2026-09-29T13:39:34Z</time><speed>22.320</speed><sat>32</sat></trkpt>
  <trkpt lat="39.90090543" lon="32.81406342"><ele>966.977</ele><time>2026-09-29T13:39:35Z</time><speed>21.510</speed><sat>32</sat></trkpt>
  <trkpt lat="39.90109442" lon="32.81408129"><ele>967.277</ele><time>2026-09-29T13:39:36Z</time><speed>20.640</speed><sat>33</sat></trkpt>
  <trkpt lat="39.90127350" lon="32.81409673"><ele>967.110</ele><time>2026-09-29T13:39:37Z</time><speed>20.230</speed><sat>33</sat></trkpt>
  <trkpt lat="39.90145522" lon="32.81411708"><ele>967.286</ele><time>2026-09-29T13:39:38Z</time><speed>20.400</speed><sat>35</sat></trkpt>
  <trkpt lat="39.90163913" lon="32.81413947"><ele>966.803</ele><time>2026-09-29T13:39:39Z</time><speed>20.450</speed><sat>34</sat></trkpt>
  <trkpt lat="39.90181626" lon="32.81417398"><ele>967.501</ele><time>2026-09-29T13:39:40Z</time><speed>20.220</speed><sat>33</sat></trkpt>
  <trkpt lat="39.90200195" lon="32.81419560"><ele>968.517</ele><time>2026-09-29T13:39:41Z</time><speed>20.210</speed><sat>33</sat></trkpt>
  <trkpt lat="39.90218798" lon="32.81421177"><ele>967.245</ele><time>2026-09-29T13:39:42Z</time><speed>20.360</speed><sat>33</sat></trkpt>
  <trkpt lat="39.90236662" lon="32.81423427"><ele>966.906</ele><time>2026-09-29T13:39:43Z</time><speed>19.960</speed><sat>33</sat></trkpt>
  <trkpt lat="39.90254885" lon="32.81424811"><ele>967.072</ele><time>2026-09-29T13:39:44Z</time><speed>19.870</speed><sat>32</sat></trkpt>
  <trkpt lat="39.90273774" lon="32.81425325"><ele>966.560</ele><time>2026-09-29T13:39:45Z</time><speed>20.160</speed><sat>32</sat></trkpt>
  <trkpt lat="39.90289663" lon="32.81427099"><ele>966.955</ele><time>2026-09-29T13:39:46Z</time><speed>19.140</speed><sat>31</sat></trkpt>
  <trkpt lat="39.90310314" lon="32.81433670"><ele>966.830</ele><time>2026-09-29T13:39:47Z</time><speed>20.330</speed><sat>31</sat></trkpt>
  <trkpt lat="39.90327729" lon="32.81433617"><ele>964.561</ele><time>2026-09-29T13:39:48Z</time><speed>19.940</speed><sat>31</sat></trkpt>
  <trkpt lat="39.90344757" lon="32.81434856"><ele>964.149</ele><time>2026-09-29T13:39:49Z</time><speed>18.550</speed><sat>29</sat></trkpt>
  <trkpt lat="39.90361436" lon="32.81436400"><ele>963.361</ele><time>2026-09-29T13:39:50Z</time><speed>18.300</speed><sat>29</sat></trkpt>
  <trkpt lat="39.90376287" lon="32.81438757"><ele>963.938</ele><time>2026-09-29T13:39:51Z</time><speed>17.830</speed><sat>29</sat></trkpt>
  <trkpt lat="39.90390980" lon="32.81440632"><ele>962.653</ele><time>2026-09-29T13:39:52Z</time><speed>17.820</speed><sat>29</sat></trkpt>
  <trkpt lat="39.90408231" lon="32.81442978"><ele>963.523</ele><time>2026-09-29T13:39:53Z</time><speed>18.210</speed><sat>29</sat></trkpt>
  <trkpt lat="39.90425306" lon="32.81445549"><ele>964.941</ele><time>2026-09-29T13:39:54Z</time><speed>18.960</speed><sat>29</sat></trkpt>
  <trkpt lat="39.90441994" lon="32.81448206"><ele>965.570</ele><time>2026-09-29T13:39:55Z</time><speed>19.150</speed><sat>30</sat></trkpt>
  <trkpt lat="39.90458795" lon="32.81450319"><ele>965.559</ele><time>2026-09-29T13:39:56Z</time><speed>18.870</speed><sat>30</sat></trkpt>
  <trkpt lat="39.90476038" lon="32.81451945"><ele>964.643</ele><time>2026-09-29T13:39:57Z</time><speed>18.740</speed><sat>29</sat></trkpt>
  <trkpt lat="39.90492675" lon="32.81453868"><ele>963.945</ele><time>2026-09-29T13:39:58Z</time><speed>18.440</speed><sat>30</sat></trkpt>
  <trkpt lat="39.90509165" lon="32.81455351"><ele>963.485</ele><time>2026-09-29T13:39:59Z</time><speed>18.440</speed><sat>30</sat></trkpt>
  <trkpt lat="39.90524466" lon="32.81456239"><ele>962.520</ele><time>2026-09-29T13:40:00Z</time><speed>17.780</speed><sat>30</sat></trkpt>
  <trkpt lat="39.90540431" lon="32.81458020"><ele>961.253</ele><time>2026-09-29T13:40:01Z</time><speed>17.790</speed><sat>29</sat></trkpt>
  <trkpt lat="39.90556616" lon="32.81460350"><ele>959.945</ele><time>2026-09-29T13:40:02Z</time><speed>17.860</speed><sat>30</sat></trkpt>
  <trkpt lat="39.90572876" lon="32.81462280"><ele>959.206</ele><time>2026-09-29T13:40:03Z</time><speed>17.430</speed><sat>30</sat></trkpt>
  <trkpt lat="39.90588434" lon="32.81463491"><ele>958.578</ele><time>2026-09-29T13:40:04Z</time><speed>17.830</speed><sat>29</sat></trkpt>
  <trkpt lat="39.90604445" lon="32.81465572"><ele>958.251</ele><time>2026-09-29T13:40:05Z</time><speed>17.960</speed><sat>30</sat></trkpt>
  <trkpt lat="39.90620908" lon="32.81468707"><ele>957.297</ele><time>2026-09-29T13:40:06Z</time><speed>18.070</speed><sat>30</sat></trkpt>
  <trkpt lat="39.90636768" lon="32.81471217"><ele>957.312</ele><time>2026-09-29T13:40:07Z</time><speed>18.320</speed><sat>31</sat></trkpt>
  <trkpt lat="39.90653098" lon="32.81473158"><ele>955.905</ele><time>2026-09-29T13:40:08Z</time><speed>18.100</speed><sat>33</sat></trkpt>
  <trkpt lat="39.90669651" lon="32.81474749"><ele>954.952</ele><time>2026-09-29T13:40:09Z</time><speed>18.100</speed><sat>34</sat></trkpt>
  <trkpt lat="39.90685895" lon="32.81476667"><ele>953.868</ele><time>2026-09-29T13:40:10Z</time><speed>18.120</speed><sat>34</sat></trkpt>
  <trkpt lat="39.90702056" lon="32.81479364"><ele>954.109</ele><time>2026-09-29T13:40:11Z</time><speed>18.210</speed><sat>33</sat></trkpt>
  <trkpt lat="39.90718343" lon="32.81481940"><ele>953.008</ele><time>2026-09-29T13:40:12Z</time><speed>17.510</speed><sat>33</sat></trkpt>
  <trkpt lat="39.90734035" lon="32.81482889"><ele>952.233</ele><time>2026-09-29T13:40:13Z</time><speed>17.200</speed><sat>33</sat></trkpt>
  <trkpt lat="39.90749301" lon="32.81483719"><ele>951.717</ele><time>2026-09-29T13:40:14Z</time><speed>17.030</speed><sat>33</sat></trkpt>
  <trkpt lat="39.90764924" lon="32.81484891"><ele>950.972</ele><time>2026-09-29T13:40:15Z</time><speed>17.030</speed><sat>33</sat></trkpt>
  <trkpt lat="39.90780290" lon="32.81486815"><ele>949.983</ele><time>2026-09-29T13:40:16Z</time><speed>16.830</speed><sat>32</sat></trkpt>
  <trkpt lat="39.90794923" lon="32.81487924"><ele>948.722</ele><time>2026-09-29T13:40:17Z</time><speed>16.600</speed><sat>34</sat></trkpt>
  <trkpt lat="39.90809258" lon="32.81489340"><ele>947.400</ele><time>2026-09-29T13:40:18Z</time><speed>16.570</speed><sat>34</sat></trkpt>
  <trkpt lat="39.90823974" lon="32.81491130"><ele>947.054</ele><time>2026-09-29T13:40:19Z</time><speed>16.360</speed><sat>34</sat></trkpt>
  <trkpt lat="39.90838748" lon="32.81492543"><ele>946.650</ele><time>2026-09-29T13:40:20Z</time><speed>16.410</speed><sat>34</sat></trkpt>
  <trkpt lat="39.90853787" lon="32.81494117"><ele>945.576</ele><time>2026-09-29T13:40:21Z</time><speed>16.460</speed><sat>34</sat></trkpt>
  <trkpt lat="39.90868944" lon="32.81495164"><ele>944.830</ele><time>2026-09-29T13:40:22Z</time><speed>16.510</speed><sat>34</sat></trkpt>
  <trkpt lat="39.90883997" lon="32.81495319"><ele>944.207</ele><time>2026-09-29T13:40:23Z</time><speed>16.560</speed><sat>34</sat></trkpt>
  <trkpt lat="39.90898270" lon="32.81495500"><ele>943.173</ele><time>2026-09-29T13:40:24Z</time><speed>16.580</speed><sat>33</sat></trkpt>
  <trkpt lat="39.90913296" lon="32.81496559"><ele>943.531</ele><time>2026-09-29T13:40:25Z</time><speed>16.380</speed><sat>33</sat></trkpt>
  <trkpt lat="39.90928366" lon="32.81496242"><ele>942.720</ele><time>2026-09-29T13:40:26Z</time><speed>16.720</speed><sat>33</sat></trkpt>
  <trkpt lat="39.90943826" lon="32.81496791"><ele>942.344</ele><time>2026-09-29T13:40:27Z</time><speed>16.910</speed><sat>33</sat></trkpt>
  <trkpt lat="39.90958967" lon="32.81498014"><ele>942.740</ele><time>2026-09-29T13:40:28Z</time><speed>16.480</speed><sat>33</sat></trkpt>
  <trkpt lat="39.90973569" lon="32.81498268"><ele>943.272</ele><time>2026-09-29T13:40:29Z</time><speed>16.130</speed><sat>32</sat></trkpt>
  <trkpt lat="39.90988274" lon="32.81497828"><ele>942.557</ele><time>2026-09-29T13:40:30Z</time><speed>16.100</speed><sat>33</sat></trkpt>
  <trkpt lat="39.91002326" lon="32.81497490"><ele>942.965</ele><time>2026-09-29T13:40:31Z</time><speed>15.770</speed><sat>33</sat></trkpt>
  <trkpt lat="39.91016464" lon="32.81497647"><ele>943.787</ele><time>2026-09-29T13:40:32Z</time><speed>15.580</speed><sat>33</sat></trkpt>
  <trkpt lat="39.91029781" lon="32.81496894"><ele>943.715</ele><time>2026-09-29T13:40:33Z</time><speed>15.320</speed><sat>33</sat></trkpt>
  <trkpt lat="39.91043050" lon="32.81495835"><ele>944.182</ele><time>2026-09-29T13:40:34Z</time><speed>15.030</speed><sat>34</sat></trkpt>
  <trkpt lat="39.91056417" lon="32.81495157"><ele>944.154</ele><time>2026-09-29T13:40:35Z</time><speed>14.700</speed><sat>34</sat></trkpt>
  <trkpt lat="39.91069222" lon="32.81493903"><ele>944.150</ele><time>2026-09-29T13:40:36Z</time><speed>14.420</speed><sat>33</sat></trkpt>
  <trkpt lat="39.91081823" lon="32.81494810"><ele>943.456</ele><time>2026-09-29T13:40:37Z</time><speed>13.900</speed><sat>33</sat></trkpt>
  <trkpt lat="39.91094828" lon="32.81496845"><ele>942.945</ele><time>2026-09-29T13:40:38Z</time><speed>13.840</speed><sat>33</sat></trkpt>
  <trkpt lat="39.91107985" lon="32.81498524"><ele>943.033</ele><time>2026-09-29T13:40:39Z</time><speed>14.580</speed><sat>33</sat></trkpt>
  <trkpt lat="39.91121379" lon="32.81502583"><ele>942.317</ele><time>2026-09-29T13:40:40Z</time><speed>14.770</speed><sat>33</sat></trkpt>
  <trkpt lat="39.91137558" lon="32.81508365"><ele>942.281</ele><time>2026-09-29T13:40:41Z</time><speed>17.220</speed><sat>33</sat></trkpt>
  <trkpt lat="39.91152845" lon="32.81515215"><ele>941.359</ele><time>2026-09-29T13:40:42Z</time><speed>17.890</speed><sat>33</sat></trkpt>
  <trkpt lat="39.91167392" lon="32.81523301"><ele>940.140</ele><time>2026-09-29T13:40:43Z</time><speed>17.730</speed><sat>34</sat></trkpt>
  <trkpt lat="39.91181134" lon="32.81531462"><ele>939.320</ele><time>2026-09-29T13:40:44Z</time><speed>17.510</speed><sat>34</sat></trkpt>
  <trkpt lat="39.91195277" lon="32.81541368"><ele>938.660</ele><time>2026-09-29T13:40:45Z</time><speed>17.470</speed><sat>33</sat></trkpt>
  <trkpt lat="39.91208856" lon="32.81552559"><ele>938.396</ele><time>2026-09-29T13:40:46Z</time><speed>17.650</speed><sat>33</sat></trkpt>
  <trkpt lat="39.91221840" lon="32.81564776"><ele>937.938</ele><time>2026-09-29T13:40:47Z</time><speed>17.560</speed><sat>33</sat></trkpt>
  <trkpt lat="39.91234424" lon="32.81577005"><ele>937.167</ele><time>2026-09-29T13:40:48Z</time><speed>17.550</speed><sat>33</sat></trkpt>
  <trkpt lat="39.91245797" lon="32.81589100"><ele>936.784</ele><time>2026-09-29T13:40:49Z</time><speed>16.900</speed><sat>33</sat></trkpt>
  <trkpt lat="39.91256276" lon="32.81601740"><ele>937.576</ele><time>2026-09-29T13:40:50Z</time><speed>16.400</speed><sat>33</sat></trkpt>
  <trkpt lat="39.91265964" lon="32.81613125"><ele>936.896</ele><time>2026-09-29T13:40:51Z</time><speed>15.200</speed><sat>33</sat></trkpt>
  <trkpt lat="39.91275449" lon="32.81625166"><ele>936.784</ele><time>2026-09-29T13:40:52Z</time><speed>14.450</speed><sat>33</sat></trkpt>
  <trkpt lat="39.91282983" lon="32.81637482"><ele>937.417</ele><time>2026-09-29T13:40:53Z</time><speed>13.500</speed><sat>33</sat></trkpt>
  <trkpt lat="39.91290635" lon="32.81649841"><ele>937.633</ele><time>2026-09-29T13:40:54Z</time><speed>13.050</speed><sat>33</sat></trkpt>
  <trkpt lat="39.91298052" lon="32.81661373"><ele>937.424</ele><time>2026-09-29T13:40:55Z</time><speed>12.280</speed><sat>32</sat></trkpt>
  <trkpt lat="39.91303820" lon="32.81672289"><ele>937.013</ele><time>2026-09-29T13:40:56Z</time><speed>11.650</speed><sat>32</sat></trkpt>
  <trkpt lat="39.91309385" lon="32.81682385"><ele>936.601</ele><time>2026-09-29T13:40:57Z</time><speed>11.040</speed><sat>32</sat></trkpt>
  <trkpt lat="39.91314017" lon="32.81693506"><ele>936.960</ele><time>2026-09-29T13:40:58Z</time><speed>11.090</speed><sat>31</sat></trkpt>
  <trkpt lat="39.91317402" lon="32.81704228"><ele>937.047</ele><time>2026-09-29T13:40:59Z</time><speed>10.570</speed><sat>30</sat></trkpt>
  <trkpt lat="39.91320894" lon="32.81712793"><ele>937.489</ele><time>2026-09-29T13:41:00Z</time><speed>9.780</speed><sat>30</sat></trkpt>
  <trkpt lat="39.91322761" lon="32.81725976"><ele>937.263</ele><time>2026-09-29T13:41:01Z</time><speed>10.710</speed><sat>30</sat></trkpt>
  <trkpt lat="39.91326765" lon="32.81737067"><ele>937.773</ele><time>2026-09-29T13:41:02Z</time><speed>11.020</speed><sat>30</sat></trkpt>
  <trkpt lat="39.91327130" lon="32.81743792"><ele>936.683</ele><time>2026-09-29T13:41:03Z</time><speed>8.780</speed><sat>29</sat></trkpt>
  <trkpt lat="39.91329298" lon="32.81752411"><ele>937.246</ele><time>2026-09-29T13:41:04Z</time><speed>8.370</speed><sat>29</sat></trkpt>
  <trkpt lat="39.91331296" lon="32.81760556"><ele>937.104</ele><time>2026-09-29T13:41:05Z</time><speed>7.760</speed><sat>29</sat></trkpt>
  <trkpt lat="39.91333186" lon="32.81768276"><ele>936.871</ele><time>2026-09-29T13:41:06Z</time><speed>6.780</speed><sat>28</sat></trkpt>
  <trkpt lat="39.91334793" lon="32.81774238"><ele>936.448</ele><time>2026-09-29T13:41:07Z</time><speed>5.820</speed><sat>28</sat></trkpt>
  <trkpt lat="39.91336275" lon="32.81779986"><ele>936.214</ele><time>2026-09-29T13:41:08Z</time><speed>4.870</speed><sat>27</sat></trkpt>
  <trkpt lat="39.91337957" lon="32.81783405"><ele>936.431</ele><time>2026-09-29T13:41:09Z</time><speed>4.130</speed><sat>27</sat></trkpt>
  <trkpt lat="39.91339257" lon="32.81787788"><ele>936.231</ele><time>2026-09-29T13:41:10Z</time><speed>4.080</speed><sat>27</sat></trkpt>
  <trkpt lat="39.91340612" lon="32.81793259"><ele>935.930</ele><time>2026-09-29T13:41:11Z</time><speed>4.570</speed><sat>27</sat></trkpt>
  <trkpt lat="39.91342294" lon="32.81799322"><ele>935.697</ele><time>2026-09-29T13:41:12Z</time><speed>5.620</speed><sat>28</sat></trkpt>
  <trkpt lat="39.91344716" lon="32.81806694"><ele>935.207</ele><time>2026-09-29T13:41:13Z</time><speed>6.970</speed><sat>28</sat></trkpt>
  <trkpt lat="39.91346037" lon="32.81815158"><ele>934.437</ele><time>2026-09-29T13:41:14Z</time><speed>7.260</speed><sat>29</sat></trkpt>
  <trkpt lat="39.91348176" lon="32.81823174"><ele>934.354</ele><time>2026-09-29T13:41:15Z</time><speed>7.360</speed><sat>30</sat></trkpt>
  <trkpt lat="39.91350997" lon="32.81830816"><ele>934.526</ele><time>2026-09-29T13:41:16Z</time><speed>7.740</speed><sat>30</sat></trkpt>
  <trkpt lat="39.91352993" lon="32.81842453"><ele>934.142</ele><time>2026-09-29T13:41:17Z</time><speed>9.230</speed><sat>29</sat></trkpt>
  <trkpt lat="39.91355644" lon="32.81852893"><ele>934.795</ele><time>2026-09-29T13:41:18Z</time><speed>9.320</speed><sat>29</sat></trkpt>
  <trkpt lat="39.91358570" lon="32.81862174"><ele>934.883</ele><time>2026-09-29T13:41:19Z</time><speed>8.690</speed><sat>31</sat></trkpt>
  <trkpt lat="39.91360944" lon="32.81870929"><ele>934.961</ele><time>2026-09-29T13:41:20Z</time><speed>8.090</speed><sat>31</sat></trkpt>
  <trkpt lat="39.91363199" lon="32.81880333"><ele>934.978</ele><time>2026-09-29T13:41:21Z</time><speed>7.990</speed><sat>31</sat></trkpt>
  <trkpt lat="39.91365622" lon="32.81890509"><ele>935.049</ele><time>2026-09-29T13:41:22Z</time><speed>8.570</speed><sat>31</sat></trkpt>
  <trkpt lat="39.91368054" lon="32.81900524"><ele>935.500</ele><time>2026-09-29T13:41:23Z</time><speed>8.900</speed><sat>31</sat></trkpt>
  <trkpt lat="39.91370218" lon="32.81910169"><ele>935.928</ele><time>2026-09-29T13:41:24Z</time><speed>8.840</speed><sat>31</sat></trkpt>
  <trkpt lat="39.91372721" lon="32.81919518"><ele>936.298</ele><time>2026-09-29T13:41:25Z</time><speed>8.600</speed><sat>32</sat></trkpt>
  <trkpt lat="39.91375343" lon="32.81929027"><ele>936.667</ele><time>2026-09-29T13:41:26Z</time><speed>8.770</speed><sat>32</sat></trkpt>
  <trkpt lat="39.91377648" lon="32.81938401"><ele>936.606</ele><time>2026-09-29T13:41:27Z</time><speed>8.440</speed><sat>31</sat></trkpt>
  <trkpt lat="39.91380006" lon="32.81947324"><ele>936.270</ele><time>2026-09-29T13:41:28Z</time><speed>8.370</speed><sat>31</sat></trkpt>
  <trkpt lat="39.91382344" lon="32.81957100"><ele>936.343</ele><time>2026-09-29T13:41:29Z</time><speed>8.740</speed><sat>31</sat></trkpt>
  <trkpt lat="39.91384591" lon="32.81966390"><ele>936.556</ele><time>2026-09-29T13:41:30Z</time><speed>8.540</speed><sat>29</sat></trkpt>
  <trkpt lat="39.91386896" lon="32.81975588"><ele>936.145</ele><time>2026-09-29T13:41:31Z</time><speed>8.270</speed><sat>28</sat></trkpt>
  <trkpt lat="39.91389544" lon="32.81984447"><ele>936.048</ele><time>2026-09-29T13:41:32Z</time><speed>7.890</speed><sat>29</sat></trkpt>
  <trkpt lat="39.91391747" lon="32.81993182"><ele>936.088</ele><time>2026-09-29T13:41:33Z</time><speed>7.870</speed><sat>28</sat></trkpt>
  <trkpt lat="39.91393279" lon="32.82001339"><ele>936.397</ele><time>2026-09-29T13:41:34Z</time><speed>7.440</speed><sat>28</sat></trkpt>
  <trkpt lat="39.91394882" lon="32.82009467"><ele>936.605</ele><time>2026-09-29T13:41:35Z</time><speed>7.250</speed><sat>28</sat></trkpt>
  <trkpt lat="39.91396394" lon="32.82017263"><ele>936.420</ele><time>2026-09-29T13:41:36Z</time><speed>6.880</speed><sat>29</sat></trkpt>
  <trkpt lat="39.91398096" lon="32.82024958"><ele>936.484</ele><time>2026-09-29T13:41:37Z</time><speed>6.800</speed><sat>29</sat></trkpt>
  <trkpt lat="39.91399153" lon="32.82033472"><ele>936.923</ele><time>2026-09-29T13:41:38Z</time><speed>7.010</speed><sat>29</sat></trkpt>
  <trkpt lat="39.91401585" lon="32.82041661"><ele>936.969</ele><time>2026-09-29T13:41:39Z</time><speed>7.400</speed><sat>29</sat></trkpt>
  <trkpt lat="39.91404234" lon="32.82050223"><ele>936.467</ele><time>2026-09-29T13:41:40Z</time><speed>7.760</speed><sat>29</sat></trkpt>
  <trkpt lat="39.91405982" lon="32.82056342"><ele>936.161</ele><time>2026-09-29T13:41:41Z</time><speed>6.640</speed><sat>31</sat></trkpt>
  <trkpt lat="39.91408411" lon="32.82066578"><ele>937.052</ele><time>2026-09-29T13:41:42Z</time><speed>8.140</speed><sat>31</sat></trkpt>
  <trkpt lat="39.91410132" lon="32.82075289"><ele>937.364</ele><time>2026-09-29T13:41:43Z</time><speed>7.470</speed><sat>31</sat></trkpt>
  <trkpt lat="39.91412146" lon="32.82084856"><ele>937.475</ele><time>2026-09-29T13:41:44Z</time><speed>7.600</speed><sat>31</sat></trkpt>
  <trkpt lat="39.91414109" lon="32.82094591"><ele>937.399</ele><time>2026-09-29T13:41:45Z</time><speed>8.220</speed><sat>31</sat></trkpt>
  <trkpt lat="39.91416712" lon="32.82104663"><ele>937.566</ele><time>2026-09-29T13:41:46Z</time><speed>9.080</speed><sat>31</sat></trkpt>
  <trkpt lat="39.91419332" lon="32.82116781"><ele>938.225</ele><time>2026-09-29T13:41:47Z</time><speed>10.530</speed><sat>32</sat></trkpt>
  <trkpt lat="39.91421968" lon="32.82128506"><ele>938.559</ele><time>2026-09-29T13:41:48Z</time><speed>10.410</speed><sat>34</sat></trkpt>
  <trkpt lat="39.91425548" lon="32.82139053"><ele>938.821</ele><time>2026-09-29T13:41:49Z</time><speed>10.050</speed><sat>34</sat></trkpt>
  <trkpt lat="39.91432072" lon="32.82160415"><ele>941.267</ele><time>2026-09-29T13:41:50Z</time><speed>13.580</speed><sat>34</sat></trkpt>
  <trkpt lat="39.91435883" lon="32.82175580"><ele>942.266</ele><time>2026-09-29T13:41:51Z</time><speed>13.370</speed><sat>34</sat></trkpt>
  <trkpt lat="39.91441546" lon="32.82190475"><ele>943.342</ele><time>2026-09-29T13:41:52Z</time><speed>13.720</speed><sat>34</sat></trkpt>
  <trkpt lat="39.91447281" lon="32.82205374"><ele>943.951</ele><time>2026-09-29T13:41:53Z</time><speed>13.880</speed><sat>34</sat></trkpt>
  <trkpt lat="39.91449195" lon="32.82215176"><ele>945.827</ele><time>2026-09-29T13:41:54Z</time><speed>12.050</speed><sat>34</sat></trkpt>
  <trkpt lat="39.91452813" lon="32.82225230"><ele>944.753</ele><time>2026-09-29T13:41:55Z</time><speed>10.830</speed><sat>35</sat></trkpt>
  <trkpt lat="39.91453342" lon="32.82236520"><ele>944.461</ele><time>2026-09-29T13:41:56Z</time><speed>9.800</speed><sat>34</sat></trkpt>
  <trkpt lat="39.91456054" lon="32.82247079"><ele>944.373</ele><time>2026-09-29T13:41:57Z</time><speed>9.640</speed><sat>34</sat></trkpt>
  <trkpt lat="39.91457332" lon="32.82257484"><ele>944.031</ele><time>2026-09-29T13:41:58Z</time><speed>8.970</speed><sat>34</sat></trkpt>
  <trkpt lat="39.91460760" lon="32.82269169"><ele>943.541</ele><time>2026-09-29T13:41:59Z</time><speed>9.490</speed><sat>34</sat></trkpt>
  <trkpt lat="39.91462623" lon="32.82281243"><ele>943.600</ele><time>2026-09-29T13:42:00Z</time><speed>10.370</speed><sat>33</sat></trkpt>
  <trkpt lat="39.91465756" lon="32.82292740"><ele>943.268</ele><time>2026-09-29T13:42:01Z</time><speed>10.870</speed><sat>30</sat></trkpt>
  <trkpt lat="39.91468533" lon="32.82304547"><ele>943.113</ele><time>2026-09-29T13:42:02Z</time><speed>10.600</speed><sat>29</sat></trkpt>
  <trkpt lat="39.91471054" lon="32.82317041"><ele>942.794</ele><time>2026-09-29T13:42:03Z</time><speed>11.510</speed><sat>28</sat></trkpt>
  <trkpt lat="39.91473528" lon="32.82330402"><ele>941.593</ele><time>2026-09-29T13:42:04Z</time><speed>11.540</speed><sat>28</sat></trkpt>
  <trkpt lat="39.91476639" lon="32.82343498"><ele>940.941</ele><time>2026-09-29T13:42:05Z</time><speed>11.630</speed><sat>27</sat></trkpt>
  <trkpt lat="39.91479523" lon="32.82357685"><ele>941.125</ele><time>2026-09-29T13:42:06Z</time><speed>11.760</speed><sat>28</sat></trkpt>
  <trkpt lat="39.91482554" lon="32.82371061"><ele>940.168</ele><time>2026-09-29T13:42:07Z</time><speed>12.280</speed><sat>29</sat></trkpt>
  <trkpt lat="39.91485970" lon="32.82384933"><ele>939.737</ele><time>2026-09-29T13:42:08Z</time><speed>13.040</speed><sat>28</sat></trkpt>
  <trkpt lat="39.91489784" lon="32.82399095"><ele>939.177</ele><time>2026-09-29T13:42:09Z</time><speed>12.860</speed><sat>27</sat></trkpt>
  <trkpt lat="39.91492842" lon="32.82412800"><ele>939.253</ele><time>2026-09-29T13:42:10Z</time><speed>12.250</speed><sat>27</sat></trkpt>
  <trkpt lat="39.91495736" lon="32.82425489"><ele>938.938</ele><time>2026-09-29T13:42:11Z</time><speed>11.100</speed><sat>27</sat></trkpt>
  <trkpt lat="39.91499163" lon="32.82439491"><ele>938.989</ele><time>2026-09-29T13:42:12Z</time><speed>12.510</speed><sat>24</sat></trkpt>
  <trkpt lat="39.91596810" lon="32.82966800"><ele>932.067</ele><time>2026-09-29T13:43:28Z</time><speed>4.250</speed><sat>17</sat></trkpt>
  <trkpt lat="39.91599797" lon="32.82975068"><ele>931.523</ele><time>2026-09-29T13:43:29Z</time><speed>6.720</speed><sat>20</sat></trkpt>
  <trkpt lat="39.91593576" lon="32.82980178"><ele>928.045</ele><time>2026-09-29T13:43:30Z</time><speed>5.040</speed><sat>20</sat></trkpt>
  <trkpt lat="39.91589864" lon="32.82989420"><ele>929.647</ele><time>2026-09-29T13:43:31Z</time><speed>5.630</speed><sat>20</sat></trkpt>
  <trkpt lat="39.91590458" lon="32.82995468"><ele>929.156</ele><time>2026-09-29T13:43:32Z</time><speed>5.720</speed><sat>20</sat></trkpt>
  <trkpt lat="39.91590626" lon="32.83011577"><ele>929.167</ele><time>2026-09-29T13:43:33Z</time><speed>9.930</speed><sat>19</sat></trkpt>
  <trkpt lat="39.91588139" lon="32.83024608"><ele>928.540</ele><time>2026-09-29T13:43:34Z</time><speed>10.430</speed><sat>18</sat></trkpt>
  <trkpt lat="39.91581057" lon="32.83038416"><ele>927.841</ele><time>2026-09-29T13:43:35Z</time><speed>9.080</speed><sat>18</sat></trkpt>
  <trkpt lat="39.91583745" lon="32.83047491"><ele>925.654</ele><time>2026-09-29T13:43:36Z</time><speed>8.120</speed><sat>18</sat></trkpt>
  <trkpt lat="39.91588919" lon="32.83058176"><ele>926.464</ele><time>2026-09-29T13:43:37Z</time><speed>8.960</speed><sat>18</sat></trkpt>
  <trkpt lat="39.91588153" lon="32.83074849"><ele>927.504</ele><time>2026-09-29T13:43:38Z</time><speed>12.010</speed><sat>18</sat></trkpt>
  <trkpt lat="39.91591474" lon="32.83086921"><ele>927.393</ele><time>2026-09-29T13:43:39Z</time><speed>10.660</speed><sat>20</sat></trkpt>
  <trkpt lat="39.91592064" lon="32.83102392"><ele>927.029</ele><time>2026-09-29T13:43:40Z</time><speed>13.090</speed><sat>21</sat></trkpt>
  <trkpt lat="39.91593471" lon="32.83115822"><ele>928.444</ele><time>2026-09-29T13:43:41Z</time><speed>12.090</speed><sat>26</sat></trkpt>
  <trkpt lat="39.91597061" lon="32.83128355"><ele>926.423</ele><time>2026-09-29T13:43:42Z</time><speed>11.670</speed><sat>26</sat></trkpt>
  <trkpt lat="39.91599178" lon="32.83143962"><ele>927.398</ele><time>2026-09-29T13:43:43Z</time><speed>12.670</speed><sat>25</sat></trkpt>
  <trkpt lat="39.91599413" lon="32.83157200"><ele>927.013</ele><time>2026-09-29T13:43:44Z</time><speed>11.710</speed><sat>26</sat></trkpt>
  <trkpt lat="39.91598917" lon="32.83169716"><ele>926.935</ele><time>2026-09-29T13:43:45Z</time><speed>11.420</speed><sat>27</sat></trkpt>
  <trkpt lat="39.91599211" lon="32.83184240"><ele>927.100</ele><time>2026-09-29T13:43:46Z</time><speed>11.440</speed><sat>24</sat></trkpt>
  <trkpt lat="39.91600867" lon="32.83198160"><ele>926.875</ele><time>2026-09-29T13:43:47Z</time><speed>12.120</speed><sat>17</sat></trkpt>
  <trkpt lat="39.91601198" lon="32.83214826"><ele>927.356</ele><time>2026-09-29T13:43:48Z</time><speed>13.950</speed><sat>15</sat></trkpt>
  <trkpt lat="39.91601965" lon="32.83229801"><ele>927.398</ele><time>2026-09-29T13:43:49Z</time><speed>13.080</speed><sat>16</sat></trkpt>
  <trkpt lat="39.91604180" lon="32.83250007"><ele>927.418</ele><time>2026-09-29T13:43:50Z</time><speed>15.870</speed><sat>14</sat></trkpt>
  <trkpt lat="39.91605203" lon="32.83262881"><ele>927.428</ele><time>2026-09-29T13:43:51Z</time><speed>13.060</speed><sat>12</sat></trkpt>
  <trkpt lat="39.91606728" lon="32.83274646"><ele>927.250</ele><time>2026-09-29T13:43:52Z</time><speed>12.600</speed><sat>10</sat></trkpt>
  <trkpt lat="39.91606867" lon="32.83286895"><ele>927.067</ele><time>2026-09-29T13:43:53Z</time><speed>12.420</speed><sat>6</sat></trkpt>
  <trkpt lat="39.91607742" lon="32.83298193"><ele>927.027</ele><time>2026-09-29T13:43:54Z</time><speed>11.870</speed><sat>7</sat></trkpt>
  <trkpt lat="39.91608593" lon="32.83308268"><ele>926.985</ele><time>2026-09-29T13:43:55Z</time><speed>11.330</speed><sat>4</sat></trkpt>
  <trkpt lat="39.91608956" lon="32.83318000"><ele>927.041</ele><time>2026-09-29T13:43:56Z</time><speed>10.750</speed><sat>3</sat></trkpt>
  <trkpt lat="39.91611900" lon="32.83330132"><ele>927.104</ele><time>2026-09-29T13:43:57Z</time><speed>10.490</speed><sat>4</sat></trkpt>
  <trkpt lat="39.91603204" lon="32.83341220"><ele>927.832</ele><time>2026-09-29T13:43:58Z</time><speed>9.730</speed><sat>5</sat></trkpt>
  <trkpt lat="39.91604224" lon="32.83352063"><ele>927.762</ele><time>2026-09-29T13:43:59Z</time><speed>9.190</speed><sat>6</sat></trkpt>
  <trkpt lat="39.91604833" lon="32.83368747"><ele>927.684</ele><time>2026-09-29T13:44:00Z</time><speed>11.150</speed><sat>6</sat></trkpt>
  <trkpt lat="39.91602175" lon="32.83380920"><ele>927.635</ele><time>2026-09-29T13:44:01Z</time><speed>10.510</speed><sat>6</sat></trkpt>
  <trkpt lat="39.91606134" lon="32.83389257"><ele>927.913</ele><time>2026-09-29T13:44:02Z</time><speed>9.560</speed><sat>6</sat></trkpt>
  <trkpt lat="39.91605859" lon="32.83400375"><ele>928.075</ele><time>2026-09-29T13:44:03Z</time><speed>9.570</speed><sat>6</sat></trkpt>
  <trkpt lat="39.91604445" lon="32.83420234"><ele>928.252</ele><time>2026-09-29T13:44:04Z</time><speed>10.860</speed><sat>5</sat></trkpt>
  <trkpt lat="39.91604127" lon="32.83439898"><ele>928.971</ele><time>2026-09-29T13:44:05Z</time><speed>11.120</speed><sat>6</sat></trkpt>
  <trkpt lat="39.91602482" lon="32.83460472"><ele>928.621</ele><time>2026-09-29T13:44:06Z</time><speed>12.230</speed><sat>7</sat></trkpt>
  <trkpt lat="39.91603213" lon="32.83481101"><ele>930.916</ele><time>2026-09-29T13:44:07Z</time><speed>13.240</speed><sat>8</sat></trkpt>
  <trkpt lat="39.91605227" lon="32.83492288"><ele>930.608</ele><time>2026-09-29T13:44:08Z</time><speed>10.180</speed><sat>12</sat></trkpt>
  <trkpt lat="39.91604904" lon="32.83506624"><ele>931.006</ele><time>2026-09-29T13:44:09Z</time><speed>10.610</speed><sat>14</sat></trkpt>
  <trkpt lat="39.91604909" lon="32.83518511"><ele>931.807</ele><time>2026-09-29T13:44:10Z</time><speed>10.300</speed><sat>17</sat></trkpt>
  <trkpt lat="39.91605072" lon="32.83529175"><ele>931.500</ele><time>2026-09-29T13:44:11Z</time><speed>9.620</speed><sat>19</sat></trkpt>
  <trkpt lat="39.91608209" lon="32.83537909"><ele>931.597</ele><time>2026-09-29T13:44:12Z</time><speed>8.460</speed><sat>21</sat></trkpt>
  <trkpt lat="39.91606685" lon="32.83547777"><ele>931.410</ele><time>2026-09-29T13:44:13Z</time><speed>8.560</speed><sat>22</sat></trkpt>
  <trkpt lat="39.91612532" lon="32.83553300"><ele>928.433</ele><time>2026-09-29T13:44:14Z</time><speed>4.130</speed><sat>22</sat></trkpt>
  <trkpt lat="39.91610418" lon="32.83561243"><ele>927.113</ele><time>2026-09-29T13:44:15Z</time><speed>6.330</speed><sat>23</sat></trkpt>
  <trkpt lat="39.91610263" lon="32.83570819"><ele>929.859</ele><time>2026-09-29T13:44:16Z</time><speed>6.770</speed><sat>22</sat></trkpt>
  <trkpt lat="39.91611251" lon="32.83577682"><ele>931.334</ele><time>2026-09-29T13:44:17Z</time><speed>6.440</speed><sat>21</sat></trkpt>
  <trkpt lat="39.91610037" lon="32.83583792"><ele>932.446</ele><time>2026-09-29T13:44:18Z</time><speed>5.930</speed><sat>18</sat></trkpt>
  <trkpt lat="39.91606480" lon="32.83589956"><ele>931.964</ele><time>2026-09-29T13:44:19Z</time><speed>6.330</speed><sat>19</sat></trkpt>
  <trkpt lat="39.91610021" lon="32.83586271"><ele>933.351</ele><time>2026-09-29T13:44:20Z</time><speed>3.170</speed><sat>18</sat></trkpt>
  <trkpt lat="39.91605875" lon="32.83584253"><ele>933.513</ele><time>2026-09-29T13:44:21Z</time><speed>2.170</speed><sat>17</sat></trkpt>
  <trkpt lat="39.91605332" lon="32.83581279"><ele>934.022</ele><time>2026-09-29T13:44:22Z</time><speed>1.580</speed><sat>16</sat></trkpt>
  <trkpt lat="39.91607880" lon="32.83579258"><ele>936.071</ele><time>2026-09-29T13:44:23Z</time><speed>1.090</speed><sat>16</sat></trkpt>
  <trkpt lat="39.91605883" lon="32.83584117"><ele>938.578</ele><time>2026-09-29T13:44:24Z</time><speed>1.860</speed><sat>16</sat></trkpt>
  <trkpt lat="39.91605413" lon="32.83592252"><ele>937.737</ele><time>2026-09-29T13:44:25Z</time><speed>5.830</speed><sat>16</sat></trkpt>
  <trkpt lat="39.91606045" lon="32.83596781"><ele>938.133</ele><time>2026-09-29T13:44:26Z</time><speed>4.040</speed><sat>16</sat></trkpt>
  <trkpt lat="39.91606150" lon="32.83603196"><ele>936.693</ele><time>2026-09-29T13:44:27Z</time><speed>5.860</speed><sat>16</sat></trkpt>
  <trkpt lat="39.91608548" lon="32.83610477"><ele>937.518</ele><time>2026-09-29T13:44:28Z</time><speed>5.720</speed><sat>15</sat></trkpt>
  <trkpt lat="39.91607899" lon="32.83617747"><ele>938.353</ele><time>2026-09-29T13:44:29Z</time><speed>5.960</speed><sat>15</sat></trkpt>
  <trkpt lat="39.91603628" lon="32.83625547"><ele>937.211</ele><time>2026-09-29T13:44:30Z</time><speed>6.840</speed><sat>14</sat></trkpt>
  <trkpt lat="39.91606711" lon="32.83637167"><ele>935.488</ele><time>2026-09-29T13:44:31Z</time><speed>8.690</speed><sat>14</sat></trkpt>
  <trkpt lat="39.91608197" lon="32.83642974"><ele>937.823</ele><time>2026-09-29T13:44:32Z</time><speed>6.090</speed><sat>15</sat></trkpt>
  <trkpt lat="39.91603858" lon="32.83653304"><ele>938.992</ele><time>2026-09-29T13:44:33Z</time><speed>6.780</speed><sat>14</sat></trkpt>
  <trkpt lat="39.91604118" lon="32.83660752"><ele>939.745</ele><time>2026-09-29T13:44:34Z</time><speed>6.300</speed><sat>13</sat></trkpt>
  <trkpt lat="39.91604257" lon="32.83667157"><ele>939.521</ele><time>2026-09-29T13:44:35Z</time><speed>6.170</speed><sat>13</sat></trkpt>
  <trkpt lat="39.91604270" lon="32.83671656"><ele>938.654</ele><time>2026-09-29T13:44:36Z</time><speed>5.300</speed><sat>14</sat></trkpt>
  <trkpt lat="39.91602951" lon="32.83677343"><ele>938.237</ele><time>2026-09-29T13:44:37Z</time><speed>4.590</speed><sat>13</sat></trkpt>
  <trkpt lat="39.91602993" lon="32.83686665"><ele>940.424</ele><time>2026-09-29T13:44:38Z</time><speed>5.790</speed><sat>14</sat></trkpt>
  <trkpt lat="39.91603142" lon="32.83691426"><ele>940.237</ele><time>2026-09-29T13:44:39Z</time><speed>4.440</speed><sat>16</sat></trkpt>
  <trkpt lat="39.91601753" lon="32.83697842"><ele>941.203</ele><time>2026-09-29T13:44:40Z</time><speed>4.660</speed><sat>17</sat></trkpt>
  <trkpt lat="39.91599241" lon="32.83703645"><ele>942.472</ele><time>2026-09-29T13:44:41Z</time><speed>4.910</speed><sat>18</sat></trkpt>
  <trkpt lat="39.91598600" lon="32.83707714"><ele>943.988</ele><time>2026-09-29T13:44:42Z</time><speed>3.430</speed><sat>19</sat></trkpt>
  <trkpt lat="39.91598064" lon="32.83710070"><ele>945.157</ele><time>2026-09-29T13:44:43Z</time><speed>2.820</speed><sat>24</sat></trkpt>
  <trkpt lat="39.91599439" lon="32.83712910"><ele>944.456</ele><time>2026-09-29T13:44:44Z</time><speed>2.300</speed><sat>25</sat></trkpt>
  <trkpt lat="39.91600939" lon="32.83714247"><ele>942.402</ele><time>2026-09-29T13:44:45Z</time><speed>1.580</speed><sat>26</sat></trkpt>
  <trkpt lat="39.91602938" lon="32.83712558"><ele>941.707</ele><time>2026-09-29T13:44:46Z</time><speed>1.040</speed><sat>26</sat></trkpt>
  <trkpt lat="39.91604956" lon="32.83709366"><ele>942.400</ele><time>2026-09-29T13:44:47Z</time><speed>1.240</speed><sat>26</sat></trkpt>
  <trkpt lat="39.91604741" lon="32.83710357"><ele>943.453</ele><time>2026-09-29T13:44:48Z</time><speed>0.220</speed><sat>25</sat></trkpt>
  <trkpt lat="39.91604229" lon="32.83711413"><ele>944.619</ele><time>2026-09-29T13:44:49Z</time><speed>0.540</speed><sat>26</sat></trkpt>
  <trkpt lat="39.91603827" lon="32.83712447"><ele>943.453</ele><time>2026-09-29T13:44:50Z</time><speed>0.360</speed><sat>25</sat></trkpt>
  <trkpt lat="39.91603023" lon="32.83712987"><ele>943.072</ele><time>2026-09-29T13:44:51Z</time><speed>0.850</speed><sat>22</sat></trkpt>
  <trkpt lat="39.91603382" lon="32.83713507"><ele>939.411</ele><time>2026-09-29T13:44:52Z</time><speed>0.800</speed><sat>22</sat></trkpt>
  <trkpt lat="39.91604089" lon="32.83712861"><ele>937.804</ele><time>2026-09-29T13:44:53Z</time><speed>0.000</speed><sat>23</sat></trkpt>
  <trkpt lat="39.91604373" lon="32.83712460"><ele>936.683</ele><time>2026-09-29T13:44:54Z</time><speed>0.000</speed><sat>24</sat></trkpt>
  <trkpt lat="39.91604334" lon="32.83712637"><ele>936.477</ele><time>2026-09-29T13:44:55Z</time><speed>0.000</speed><sat>23</sat></trkpt>
  <trkpt lat="39.91604134" lon="32.83712683"><ele>936.121</ele><time>2026-09-29T13:44:56Z</time><speed>0.000</speed><sat>23</sat></trkpt>
  <trkpt lat="39.91603685" lon="32.83712499"><ele>935.824</ele><time>2026-09-29T13:44:57Z</time><speed>0.000</speed><sat>23</sat></trkpt>
  <trkpt lat="39.91603489" lon="32.83712373"><ele>936.063</ele><time>2026-09-29T13:44:58Z</time><speed>0.000</speed><sat>23</sat></trkpt>
  <trkpt lat="39.91603238" lon="32.83712189"><ele>935.577</ele><time>2026-09-29T13:44:59Z</time><speed>0.000</speed><sat>24</sat></trkpt>
  <trkpt lat="39.91603159" lon="32.83712332"><ele>935.720</ele><time>2026-09-29T13:45:00Z</time><speed>0.000</speed><sat>25</sat></trkpt>
  <trkpt lat="39.91603044" lon="32.83712426"><ele>935.500</ele><time>2026-09-29T13:45:01Z</time><speed>0.000</speed><sat>25</sat></trkpt>
  <trkpt lat="39.91603001" lon="32.83712475"><ele>935.501</ele><time>2026-09-29T13:45:02Z</time><speed>0.000</speed><sat>25</sat></trkpt>
  <trkpt lat="39.91602911" lon="32.83712500"><ele>935.684</ele><time>2026-09-29T13:45:03Z</time><speed>0.000</speed><sat>24</sat></trkpt>
  <trkpt lat="39.91602937" lon="32.83712613"><ele>935.322</ele><time>2026-09-29T13:45:04Z</time><speed>0.000</speed><sat>25</sat></trkpt>
  <trkpt lat="39.91602936" lon="32.83712627"><ele>935.416</ele><time>2026-09-29T13:45:05Z</time><speed>0.000</speed><sat>25</sat></trkpt>
  <trkpt lat="39.91602947" lon="32.83712614"><ele>935.433</ele><time>2026-09-29T13:45:06Z</time><speed>0.000</speed><sat>24</sat></trkpt>
  <trkpt lat="39.91602923" lon="32.83712629"><ele>935.358</ele><time>2026-09-29T13:45:07Z</time><speed>0.000</speed><sat>25</sat></trkpt>
  <trkpt lat="39.91603009" lon="32.83712696"><ele>934.930</ele><time>2026-09-29T13:45:08Z</time><speed>0.000</speed><sat>26</sat></trkpt>
  <trkpt lat="39.91603049" lon="32.83712793"><ele>934.734</ele><time>2026-09-29T13:45:09Z</time><speed>0.000</speed><sat>26</sat></trkpt>
  <trkpt lat="39.91603084" lon="32.83712877"><ele>934.875</ele><time>2026-09-29T13:45:10Z</time><speed>0.000</speed><sat>26</sat></trkpt>
  <trkpt lat="39.91603109" lon="32.83712956"><ele>934.766</ele><time>2026-09-29T13:45:11Z</time><speed>0.000</speed><sat>25</sat></trkpt>
  <trkpt lat="39.91603155" lon="32.83713048"><ele>934.557</ele><time>2026-09-29T13:45:12Z</time><speed>0.000</speed><sat>25</sat></trkpt>
  <trkpt lat="39.91603234" lon="32.83713131"><ele>934.251</ele><time>2026-09-29T13:45:13Z</time><speed>0.000</speed><sat>25</sat></trkpt>
  <trkpt lat="39.91603288" lon="32.83713182"><ele>934.177</ele><time>2026-09-29T13:45:14Z</time><speed>0.000</speed><sat>26</sat></trkpt>
  <trkpt lat="39.91603331" lon="32.83713219"><ele>934.204</ele><time>2026-09-29T13:45:15Z</time><speed>0.000</speed><sat>26</sat></trkpt>
  <trkpt lat="39.91603344" lon="32.83713239"><ele>934.230</ele><time>2026-09-29T13:45:16Z</time><speed>0.000</speed><sat>26</sat></trkpt>
  <trkpt lat="39.91603351" lon="32.83713250"><ele>934.226</ele><time>2026-09-29T13:45:17Z</time><speed>0.000</speed><sat>27</sat></trkpt>
  <trkpt lat="39.91603356" lon="32.83713258"><ele>934.223</ele><time>2026-09-29T13:45:18Z</time><speed>0.000</speed><sat>27</sat></trkpt>
  <trkpt lat="39.91603359" lon="32.83713264"><ele>934.220</ele><time>2026-09-29T13:45:19Z</time><speed>0.000</speed><sat>26</sat></trkpt>
  <trkpt lat="39.91603370" lon="32.83713256"><ele>934.226</ele><time>2026-09-29T13:45:20Z</time><speed>0.000</speed><sat>25</sat></trkpt>
  <trkpt lat="39.91603376" lon="32.83713250"><ele>934.224</ele><time>2026-09-29T13:45:21Z</time><speed>0.000</speed><sat>26</sat></trkpt>
  <trkpt lat="39.91603379" lon="32.83713248"><ele>934.226</ele><time>2026-09-29T13:45:22Z</time><speed>0.000</speed><sat>23</sat></trkpt>
  <trkpt lat="39.91603381" lon="32.83713246"><ele>934.229</ele><time>2026-09-29T13:45:23Z</time><speed>0.000</speed><sat>18</sat></trkpt>
  <trkpt lat="39.91603383" lon="32.83713247"><ele>934.226</ele><time>2026-09-29T13:45:24Z</time><speed>0.000</speed><sat>16</sat></trkpt>
  <trkpt lat="39.91602953" lon="32.83716736"><ele>934.034</ele><time>2026-09-29T13:45:25Z</time><speed>3.210</speed><sat>15</sat></trkpt>
  <trkpt lat="39.91601791" lon="32.83722100"><ele>934.633</ele><time>2026-09-29T13:45:26Z</time><speed>3.760</speed><sat>16</sat></trkpt>
  <trkpt lat="39.91600818" lon="32.83728197"><ele>933.215</ele><time>2026-09-29T13:45:27Z</time><speed>4.630</speed><sat>15</sat></trkpt>
  <trkpt lat="39.91599829" lon="32.83734012"><ele>933.545</ele><time>2026-09-29T13:45:28Z</time><speed>4.400</speed><sat>15</sat></trkpt>
  <trkpt lat="39.91598849" lon="32.83740075"><ele>933.567</ele><time>2026-09-29T13:45:29Z</time><speed>4.890</speed><sat>15</sat></trkpt>
  <trkpt lat="39.91597782" lon="32.83745718"><ele>931.971</ele><time>2026-09-29T13:45:30Z</time><speed>4.350</speed><sat>15</sat></trkpt>
  <trkpt lat="39.91596899" lon="32.83751494"><ele>930.882</ele><time>2026-09-29T13:45:31Z</time><speed>4.550</speed><sat>15</sat></trkpt>
  <trkpt lat="39.91595979" lon="32.83757063"><ele>931.558</ele><time>2026-09-29T13:45:32Z</time><speed>4.470</speed><sat>14</sat></trkpt>
  <trkpt lat="39.91595545" lon="32.83766896"><ele>931.132</ele><time>2026-09-29T13:45:33Z</time><speed>5.070</speed><sat>15</sat></trkpt>
  <trkpt lat="39.91594183" lon="32.83774282"><ele>931.656</ele><time>2026-09-29T13:45:34Z</time><speed>4.990</speed><sat>15</sat></trkpt>
  <trkpt lat="39.91593990" lon="32.83777362"><ele>930.341</ele><time>2026-09-29T13:45:35Z</time><speed>4.450</speed><sat>16</sat></trkpt>
  <trkpt lat="39.91594619" lon="32.83781894"><ele>929.251</ele><time>2026-09-29T13:45:36Z</time><speed>4.100</speed><sat>18</sat></trkpt>
  <trkpt lat="39.91593852" lon="32.83786754"><ele>930.817</ele><time>2026-09-29T13:45:37Z</time><speed>3.420</speed><sat>19</sat></trkpt>
  <trkpt lat="39.91594466" lon="32.83791275"><ele>929.549</ele><time>2026-09-29T13:45:38Z</time><speed>3.090</speed><sat>21</sat></trkpt>
  <trkpt lat="39.91594583" lon="32.83795568"><ele>929.645</ele><time>2026-09-29T13:45:39Z</time><speed>3.390</speed><sat>21</sat></trkpt>
  <trkpt lat="39.91595543" lon="32.83801623"><ele>929.345</ele><time>2026-09-29T13:45:40Z</time><speed>4.350</speed><sat>21</sat></trkpt>
  <trkpt lat="39.91595490" lon="32.83807412"><ele>929.276</ele><time>2026-09-29T13:45:41Z</time><speed>4.380</speed><sat>22</sat></trkpt>
  <trkpt lat="39.91596113" lon="32.83814054"><ele>929.136</ele><time>2026-09-29T13:45:42Z</time><speed>4.890</speed><sat>21</sat></trkpt>
  <trkpt lat="39.91596185" lon="32.83819904"><ele>929.042</ele><time>2026-09-29T13:45:43Z</time><speed>4.780</speed><sat>20</sat></trkpt>
  <trkpt lat="39.91597060" lon="32.83825987"><ele>928.886</ele><time>2026-09-29T13:45:44Z</time><speed>4.930</speed><sat>9</sat></trkpt>
  <trkpt lat="39.91597757" lon="32.83831857"><ele>928.858</ele><time>2026-09-29T13:45:45Z</time><speed>4.930</speed><sat>7</sat></trkpt>
  <trkpt lat="39.91600861" lon="32.83838196"><ele>928.835</ele><time>2026-09-29T13:45:46Z</time><speed>5.070</speed><sat>7</sat></trkpt>
  <trkpt lat="39.91594886" lon="32.83836168"><ele>929.967</ele><time>2026-09-29T13:46:08Z</time><speed>0.390</speed><sat>10</sat></trkpt>
  <trkpt lat="39.92236377" lon="32.83790225"><ele>923.931</ele><time>2026-09-29T13:52:08Z</time><speed>1.610</speed><sat>7</sat></trkpt>
  <trkpt lat="39.92235475" lon="32.83790875"><ele>923.671</ele><time>2026-09-29T13:52:09Z</time><speed>0.960</speed><sat>7</sat></trkpt>
  <trkpt lat="39.92234865" lon="32.83792016"><ele>931.521</ele><time>2026-09-29T13:52:10Z</time><speed>1.000</speed><sat>6</sat></trkpt>
  <trkpt lat="39.92234275" lon="32.83793146"><ele>931.607</ele><time>2026-09-29T13:52:11Z</time><speed>1.000</speed><sat>7</sat></trkpt>
  <trkpt lat="39.92233417" lon="32.83793320"><ele>929.388</ele><time>2026-09-29T13:52:12Z</time><speed>0.590</speed><sat>6</sat></trkpt>
  <trkpt lat="39.92232554" lon="32.83791786"><ele>924.814</ele><time>2026-09-29T13:52:13Z</time><speed>0.360</speed><sat>4</sat></trkpt>
  <trkpt lat="39.92231340" lon="32.83791485"><ele>920.111</ele><time>2026-09-29T13:52:14Z</time><speed>0.000</speed><sat>5</sat></trkpt>
  <trkpt lat="39.92230672" lon="32.83790440"><ele>922.014</ele><time>2026-09-29T13:52:15Z</time><speed>0.160</speed><sat>6</sat></trkpt>
  <trkpt lat="39.92230201" lon="32.83789847"><ele>923.734</ele><time>2026-09-29T13:52:16Z</time><speed>0.440</speed><sat>8</sat></trkpt>
  <trkpt lat="39.92229159" lon="32.83790219"><ele>923.950</ele><time>2026-09-29T13:52:17Z</time><speed>1.250</speed><sat>8</sat></trkpt>
  <trkpt lat="39.92228486" lon="32.83790230"><ele>925.520</ele><time>2026-09-29T13:52:18Z</time><speed>0.550</speed><sat>8</sat></trkpt>
  <trkpt lat="39.92227516" lon="32.83791338"><ele>924.069</ele><time>2026-09-29T13:52:19Z</time><speed>2.420</speed><sat>8</sat></trkpt>
  <trkpt lat="39.92226163" lon="32.83793671"><ele>923.673</ele><time>2026-09-29T13:52:20Z</time><speed>2.480</speed><sat>8</sat></trkpt>
  <trkpt lat="39.92224782" lon="32.83796256"><ele>923.342</ele><time>2026-09-29T13:52:21Z</time><speed>2.640</speed><sat>8</sat></trkpt>
  <trkpt lat="39.92223289" lon="32.83799091"><ele>923.174</ele><time>2026-09-29T13:52:22Z</time><speed>2.830</speed><sat>7</sat></trkpt>
  <trkpt lat="39.92221787" lon="32.83801999"><ele>923.137</ele><time>2026-09-29T13:52:23Z</time><speed>2.830</speed><sat>7</sat></trkpt>
  <trkpt lat="39.92220314" lon="32.83804886"><ele>923.120</ele><time>2026-09-29T13:52:24Z</time><speed>2.830</speed><sat>6</sat></trkpt>
 </trkseg>
</trk>

</gpx>
 