<?xml version="1.0" encoding="UTF-8"?>
<!-- Created with BasicAirData GPS Logger for Android - ver. 3.3.0 -->
<!-- Track 73 = 600 TrackPoints + 0 Placemarks -->

<!-- Track Statistics (based on Total Time | Time in Movement): -->
<!--  Distance = 6.41 km -->
<!--  Duration = 10:00 | 08:12 -->
<!--  Altitude Gap = 38 m -->
<!--  Max Speed = 92 km/h -->
<!--  Avg Speed = 38.5 | 46.9 km/h -->
<!--  Direction = E -->
<!--  Activity = car -->
<!--  Altitudes = Raw -->

<gpx version="1.0"
     creator="BasicAirData GPS Logger 3.3.0"
     xmlns="http://www.topografix.com/GPX/1/0"
     xmlns:xsi="http://www.w3.org/2001/XMLSchema-instance"
     xsi:schemaLocation="http://www.topografix.com/GPX/1/0 http://www.topografix.com/GPX/1/0/gpx.xsd">
<name>GPS Logger 20261002-180912</name>
<time>2026-10-03T09:09:40Z</time>
<keywords>car</keywords>
<bounds minlat="39.91240982" minlon="32.93719428" maxlat="39.92631120" maxlon="33.00456814" />

<trk>
 <name>Track 20261002-180912</name>
 <trkseg>
  <trkpt lat="39.91645537" lon="32.93719428"><ele>965.512</ele><time>2026-10-02T15:09:12Z</time><speed>15.790</speed><sat>32</sat></trkpt>
  <trkpt lat="39.91639438" lon="32.93736242"><ele>966.326</ele><time>2026-10-02T15:09:13Z</time><speed>16.110</speed><sat>32</sat></trkpt>
  <trkpt lat="39.91632723" lon="32.93752864"><ele>966.489</ele><time>2026-10-02T15:09:14Z</time><speed>16.250</speed><sat>32</sat></trkpt>
  <trkpt lat="39.91626490" lon="32.93770804"><ele>966.621</ele><time>2026-10-02T15:09:15Z</time><speed>16.500</speed><sat>32</sat></trkpt>
  <trkpt lat="39.91619728" lon="32.93788670"><ele>968.198</ele><time>2026-10-02T15:09:16Z</time><speed>17.050</speed><sat>33</sat></trkpt>
  <trkpt lat="39.91613007" lon="32.93807879"><ele>968.681</ele><time>2026-10-02T15:09:17Z</time><speed>17.780</speed><sat>33</sat></trkpt>
  <trkpt lat="39.91605957" lon="32.93826870"><ele>968.830</ele><time>2026-10-02T15:09:18Z</time><speed>18.020</speed><sat>34</sat></trkpt>
  <trkpt lat="39.91598550" lon="32.93845009"><ele>968.669</ele><time>2026-10-02T15:09:19Z</time><speed>17.200</speed><sat>34</sat></trkpt>
  <trkpt lat="39.91591382" lon="32.93863102"><ele>968.380</ele><time>2026-10-02T15:09:20Z</time><speed>17.190</speed><sat>34</sat></trkpt>
  <trkpt lat="39.91584815" lon="32.93881923"><ele>968.649</ele><time>2026-10-02T15:09:21Z</time><speed>17.340</speed><sat>34</sat></trkpt>
  <trkpt lat="39.91578587" lon="32.93899798"><ele>968.264</ele><time>2026-10-02T15:09:22Z</time><speed>16.870</speed><sat>33</sat></trkpt>
  <trkpt lat="39.91572583" lon="32.93918045"><ele>968.368</ele><time>2026-10-02T15:09:23Z</time><speed>17.180</speed><sat>34</sat></trkpt>
  <trkpt lat="39.91566154" lon="32.93936639"><ele>968.266</ele><time>2026-10-02T15:09:24Z</time><speed>17.550</speed><sat>35</sat></trkpt>
  <trkpt lat="39.91560040" lon="32.93955482"><ele>967.895</ele><time>2026-10-02T15:09:25Z</time><speed>17.510</speed><sat>35</sat></trkpt>
  <trkpt lat="39.91553831" lon="32.93974547"><ele>967.270</ele><time>2026-10-02T15:09:26Z</time><speed>17.810</speed><sat>35</sat></trkpt>
  <trkpt lat="39.91547627" lon="32.93993993"><ele>966.917</ele><time>2026-10-02T15:09:27Z</time><speed>18.200</speed><sat>34</sat></trkpt>
  <trkpt lat="39.91541127" lon="32.94013615"><ele>966.121</ele><time>2026-10-02T15:09:28Z</time><speed>18.650</speed><sat>36</sat></trkpt>
  <trkpt lat="39.91534631" lon="32.94034261"><ele>965.616</ele><time>2026-10-02T15:09:29Z</time><speed>19.080</speed><sat>35</sat></trkpt>
  <trkpt lat="39.91528098" lon="32.94055571"><ele>965.019</ele><time>2026-10-02T15:09:30Z</time><speed>19.690</speed><sat>35</sat></trkpt>
  <trkpt lat="39.91521206" lon="32.94076744"><ele>964.223</ele><time>2026-10-02T15:09:31Z</time><speed>19.780</speed><sat>35</sat></trkpt>
  <trkpt lat="39.91514910" lon="32.94098475"><ele>963.854</ele><time>2026-10-02T15:09:32Z</time><speed>19.830</speed><sat>35</sat></trkpt>
  <trkpt lat="39.91508480" lon="32.94120390"><ele>963.423</ele><time>2026-10-02T15:09:33Z</time><speed>20.010</speed><sat>34</sat></trkpt>
  <trkpt lat="39.91501833" lon="32.94142360"><ele>963.176</ele><time>2026-10-02T15:09:34Z</time><speed>19.840</speed><sat>35</sat></trkpt>
  <trkpt lat="39.91495353" lon="32.94163935"><ele>962.731</ele><time>2026-10-02T15:09:35Z</time><speed>19.740</speed><sat>35</sat></trkpt>
  <trkpt lat="39.91488857" lon="32.94185429"><ele>962.193</ele><time>2026-10-02T15:09:36Z</time><speed>19.590</speed><sat>35</sat></trkpt>
  <trkpt lat="39.91482502" lon="32.94207192"><ele>962.170</ele><time>2026-10-02T15:09:37Z</time><speed>19.670</speed><sat>35</sat></trkpt>
  <trkpt lat="39.91476102" lon="32.94228715"><ele>961.979</ele><time>2026-10-02T15:09:38Z</time><speed>19.650</speed><sat>34</sat></trkpt>
  <trkpt lat="39.91469979" lon="32.94249979"><ele>962.099</ele><time>2026-10-02T15:09:39Z</time><speed>19.460</speed><sat>34</sat></trkpt>
  <trkpt lat="39.91464254" lon="32.94271744"><ele>962.039</ele><time>2026-10-02T15:09:40Z</time><speed>19.650</speed><sat>34</sat></trkpt>
  <trkpt lat="39.91458348" lon="32.94294007"><ele>961.896</ele><time>2026-10-02T15:09:41Z</time><speed>19.420</speed><sat>35</sat></trkpt>
  <trkpt lat="39.91453040" lon="32.94314763"><ele>961.680</ele><time>2026-10-02T15:09:42Z</time><speed>19.200</speed><sat>34</sat></trkpt>
  <trkpt lat="39.91447653" lon="32.94335958"><ele>961.656</ele><time>2026-10-02T15:09:43Z</time><speed>19.310</speed><sat>37</sat></trkpt>
  <trkpt lat="39.91442331" lon="32.94356851"><ele>961.498</ele><time>2026-10-02T15:09:44Z</time><speed>19.070</speed><sat>37</sat></trkpt>
  <trkpt lat="39.91436974" lon="32.94377827"><ele>961.563</ele><time>2026-10-02T15:09:45Z</time><speed>18.820</speed><sat>37</sat></trkpt>
  <trkpt lat="39.91431725" lon="32.94398619"><ele>961.947</ele><time>2026-10-02T15:09:46Z</time><speed>18.570</speed><sat>37</sat></trkpt>
  <trkpt lat="39.91426924" lon="32.94419152"><ele>961.833</ele><time>2026-10-02T15:09:47Z</time><speed>18.550</speed><sat>37</sat></trkpt>
  <trkpt lat="39.91421994" lon="32.94439426"><ele>961.743</ele><time>2026-10-02T15:09:48Z</time><speed>18.240</speed><sat>37</sat></trkpt>
  <trkpt lat="39.91416569" lon="32.94459731"><ele>961.640</ele><time>2026-10-02T15:09:49Z</time><speed>18.190</speed><sat>36</sat></trkpt>
  <trkpt lat="39.91411521" lon="32.94480091"><ele>961.254</ele><time>2026-10-02T15:09:50Z</time><speed>18.480</speed><sat>36</sat></trkpt>
  <trkpt lat="39.91407166" lon="32.94499978"><ele>961.154</ele><time>2026-10-02T15:09:51Z</time><speed>17.880</speed><sat>36</sat></trkpt>
  <trkpt lat="39.91403016" lon="32.94519932"><ele>961.896</ele><time>2026-10-02T15:09:52Z</time><speed>18.150</speed><sat>35</sat></trkpt>
  <trkpt lat="39.91398201" lon="32.94539978"><ele>962.833</ele><time>2026-10-02T15:09:53Z</time><speed>17.930</speed><sat>34</sat></trkpt>
  <trkpt lat="39.91394109" lon="32.94560561"><ele>962.951</ele><time>2026-10-02T15:09:54Z</time><speed>17.880</speed><sat>34</sat></trkpt>
  <trkpt lat="39.91388662" lon="32.94580242"><ele>963.915</ele><time>2026-10-02T15:09:55Z</time><speed>17.880</speed><sat>35</sat></trkpt>
  <trkpt lat="39.91384636" lon="32.94599674"><ele>963.937</ele><time>2026-10-02T15:09:56Z</time><speed>17.180</speed><sat>36</sat></trkpt>
  <trkpt lat="39.91380226" lon="32.94619110"><ele>963.691</ele><time>2026-10-02T15:09:57Z</time><speed>16.910</speed><sat>37</sat></trkpt>
  <trkpt lat="39.91376423" lon="32.94637752"><ele>963.571</ele><time>2026-10-02T15:09:58Z</time><speed>16.640</speed><sat>38</sat></trkpt>
  <trkpt lat="39.91372286" lon="32.94656200"><ele>963.978</ele><time>2026-10-02T15:09:59Z</time><speed>16.340</speed><sat>38</sat></trkpt>
  <trkpt lat="39.91368482" lon="32.94674129"><ele>964.048</ele><time>2026-10-02T15:10:00Z</time><speed>15.970</speed><sat>38</sat></trkpt>
  <trkpt lat="39.91364777" lon="32.94691991"><ele>964.355</ele><time>2026-10-02T15:10:01Z</time><speed>15.740</speed><sat>37</sat></trkpt>
  <trkpt lat="39.91361043" lon="32.94709675"><ele>964.224</ele><time>2026-10-02T15:10:02Z</time><speed>15.380</speed><sat>37</sat></trkpt>
  <trkpt lat="39.91357460" lon="32.94727315"><ele>964.432</ele><time>2026-10-02T15:10:03Z</time><speed>15.710</speed><sat>37</sat></trkpt>
  <trkpt lat="39.91354092" lon="32.94745042"><ele>964.321</ele><time>2026-10-02T15:10:04Z</time><speed>15.780</speed><sat>37</sat></trkpt>
  <trkpt lat="39.91350744" lon="32.94763273"><ele>964.453</ele><time>2026-10-02T15:10:05Z</time><speed>16.020</speed><sat>37</sat></trkpt>
  <trkpt lat="39.91347003" lon="32.94781493"><ele>963.903</ele><time>2026-10-02T15:10:06Z</time><speed>16.070</speed><sat>37</sat></trkpt>
  <trkpt lat="39.91343579" lon="32.94799498"><ele>963.859</ele><time>2026-10-02T15:10:07Z</time><speed>15.850</speed><sat>37</sat></trkpt>
  <trkpt lat="39.91340287" lon="32.94817717"><ele>963.766</ele><time>2026-10-02T15:10:08Z</time><speed>16.000</speed><sat>37</sat></trkpt>
  <trkpt lat="39.91336771" lon="32.94836437"><ele>964.047</ele><time>2026-10-02T15:10:09Z</time><speed>16.290</speed><sat>37</sat></trkpt>
  <trkpt lat="39.91333292" lon="32.94855342"><ele>964.181</ele><time>2026-10-02T15:10:10Z</time><speed>16.630</speed><sat>37</sat></trkpt>
  <trkpt lat="39.91329886" lon="32.94874738"><ele>964.195</ele><time>2026-10-02T15:10:11Z</time><speed>16.820</speed><sat>37</sat></trkpt>
  <trkpt lat="39.91326930" lon="32.94893939"><ele>964.062</ele><time>2026-10-02T15:10:12Z</time><speed>17.170</speed><sat>37</sat></trkpt>
  <trkpt lat="39.91324182" lon="32.94913508"><ele>964.082</ele><time>2026-10-02T15:10:13Z</time><speed>17.190</speed><sat>37</sat></trkpt>
  <trkpt lat="39.91320859" lon="32.94933405"><ele>963.670</ele><time>2026-10-02T15:10:14Z</time><speed>17.550</speed><sat>37</sat></trkpt>
  <trkpt lat="39.91318023" lon="32.94953891"><ele>963.507</ele><time>2026-10-02T15:10:15Z</time><speed>17.750</speed><sat>36</sat></trkpt>
  <trkpt lat="39.91315087" lon="32.94974312"><ele>963.416</ele><time>2026-10-02T15:10:16Z</time><speed>18.000</speed><sat>36</sat></trkpt>
  <trkpt lat="39.91312128" lon="32.94995030"><ele>963.378</ele><time>2026-10-02T15:10:17Z</time><speed>18.150</speed><sat>36</sat></trkpt>
  <trkpt lat="39.91309175" lon="32.95015957"><ele>963.515</ele><time>2026-10-02T15:10:18Z</time><speed>18.250</speed><sat>35</sat></trkpt>
  <trkpt lat="39.91306177" lon="32.95036831"><ele>963.794</ele><time>2026-10-02T15:10:19Z</time><speed>18.350</speed><sat>34</sat></trkpt>
  <trkpt lat="39.91303205" lon="32.95058180"><ele>964.020</ele><time>2026-10-02T15:10:20Z</time><speed>18.450</speed><sat>34</sat></trkpt>
  <trkpt lat="39.91300351" lon="32.95079538"><ele>964.277</ele><time>2026-10-02T15:10:21Z</time><speed>18.580</speed><sat>35</sat></trkpt>
  <trkpt lat="39.91297446" lon="32.95100945"><ele>964.609</ele><time>2026-10-02T15:10:22Z</time><speed>18.600</speed><sat>35</sat></trkpt>
  <trkpt lat="39.91294751" lon="32.95122477"><ele>964.856</ele><time>2026-10-02T15:10:23Z</time><speed>18.660</speed><sat>35</sat></trkpt>
  <trkpt lat="39.91292434" lon="32.95144018"><ele>965.197</ele><time>2026-10-02T15:10:24Z</time><speed>18.660</speed><sat>35</sat></trkpt>
  <trkpt lat="39.91289834" lon="32.95165443"><ele>965.753</ele><time>2026-10-02T15:10:25Z</time><speed>18.470</speed><sat>35</sat></trkpt>
  <trkpt lat="39.91287441" lon="32.95186978"><ele>965.315</ele><time>2026-10-02T15:10:26Z</time><speed>18.820</speed><sat>36</sat></trkpt>
  <trkpt lat="39.91284810" lon="32.95208661"><ele>965.270</ele><time>2026-10-02T15:10:27Z</time><speed>18.580</speed><sat>36</sat></trkpt>
  <trkpt lat="39.91282532" lon="32.95230587"><ele>965.939</ele><time>2026-10-02T15:10:28Z</time><speed>18.560</speed><sat>34</sat></trkpt>
  <trkpt lat="39.91280230" lon="32.95252319"><ele>966.035</ele><time>2026-10-02T15:10:29Z</time><speed>18.470</speed><sat>35</sat></trkpt>
  <trkpt lat="39.91277925" lon="32.95273732"><ele>965.982</ele><time>2026-10-02T15:10:30Z</time><speed>18.400</speed><sat>36</sat></trkpt>
  <trkpt lat="39.91275771" lon="32.95295037"><ele>966.131</ele><time>2026-10-02T15:10:31Z</time><speed>18.390</speed><sat>36</sat></trkpt>
  <trkpt lat="39.91273860" lon="32.95316336"><ele>966.046</ele><time>2026-10-02T15:10:32Z</time><speed>18.390</speed><sat>36</sat></trkpt>
  <trkpt lat="39.91271881" lon="32.95337848"><ele>965.995</ele><time>2026-10-02T15:10:33Z</time><speed>18.370</speed><sat>37</sat></trkpt>
  <trkpt lat="39.91270090" lon="32.95359411"><ele>966.068</ele><time>2026-10-02T15:10:34Z</time><speed>18.390</speed><sat>37</sat></trkpt>
  <trkpt lat="39.91268356" lon="32.95380497"><ele>966.056</ele><time>2026-10-02T15:10:35Z</time><speed>18.270</speed><sat>35</sat></trkpt>
  <trkpt lat="39.91266389" lon="32.95401631"><ele>966.074</ele><time>2026-10-02T15:10:36Z</time><speed>18.270</speed><sat>37</sat></trkpt>
  <trkpt lat="39.91264914" lon="32.95422753"><ele>966.426</ele><time>2026-10-02T15:10:37Z</time><speed>18.290</speed><sat>34</sat></trkpt>
  <trkpt lat="39.91263593" lon="32.95444496"><ele>966.710</ele><time>2026-10-02T15:10:38Z</time><speed>18.320</speed><sat>34</sat></trkpt>
  <trkpt lat="39.91262204" lon="32.95466005"><ele>966.697</ele><time>2026-10-02T15:10:39Z</time><speed>18.350</speed><sat>35</sat></trkpt>
  <trkpt lat="39.91260785" lon="32.95487394"><ele>967.075</ele><time>2026-10-02T15:10:40Z</time><speed>18.360</speed><sat>36</sat></trkpt>
  <trkpt lat="39.91259511" lon="32.95508573"><ele>967.267</ele><time>2026-10-02T15:10:41Z</time><speed>18.380</speed><sat>36</sat></trkpt>
  <trkpt lat="39.91258139" lon="32.95529886"><ele>967.262</ele><time>2026-10-02T15:10:42Z</time><speed>18.500</speed><sat>36</sat></trkpt>
  <trkpt lat="39.91257071" lon="32.95551552"><ele>967.280</ele><time>2026-10-02T15:10:43Z</time><speed>18.440</speed><sat>37</sat></trkpt>
  <trkpt lat="39.91256324" lon="32.95573395"><ele>967.176</ele><time>2026-10-02T15:10:44Z</time><speed>18.450</speed><sat>39</sat></trkpt>
  <trkpt lat="39.91255520" lon="32.95595033"><ele>967.031</ele><time>2026-10-02T15:10:45Z</time><speed>18.420</speed><sat>39</sat></trkpt>
  <trkpt lat="39.91254417" lon="32.95616780"><ele>966.715</ele><time>2026-10-02T15:10:46Z</time><speed>18.600</speed><sat>39</sat></trkpt>
  <trkpt lat="39.91253468" lon="32.95639304"><ele>966.370</ele><time>2026-10-02T15:10:47Z</time><speed>19.120</speed><sat>39</sat></trkpt>
  <trkpt lat="39.91252184" lon="32.95661955"><ele>966.097</ele><time>2026-10-02T15:10:48Z</time><speed>19.520</speed><sat>39</sat></trkpt>
  <trkpt lat="39.91251286" lon="32.95685030"><ele>965.218</ele><time>2026-10-02T15:10:49Z</time><speed>20.080</speed><sat>39</sat></trkpt>
  <trkpt lat="39.91250409" lon="32.95708619"><ele>965.187</ele><time>2026-10-02T15:10:50Z</time><speed>20.370</speed><sat>39</sat></trkpt>
  <trkpt lat="39.91249969" lon="32.95732857"><ele>964.316</ele><time>2026-10-02T15:10:51Z</time><speed>20.980</speed><sat>39</sat></trkpt>
  <trkpt lat="39.91249679" lon="32.95757296"><ele>963.192</ele><time>2026-10-02T15:10:52Z</time><speed>21.210</speed><sat>38</sat></trkpt>
  <trkpt lat="39.91248806" lon="32.95782363"><ele>962.705</ele><time>2026-10-02T15:10:53Z</time><speed>21.470</speed><sat>37</sat></trkpt>
  <trkpt lat="39.91248018" lon="32.95808540"><ele>962.182</ele><time>2026-10-02T15:10:54Z</time><speed>22.520</speed><sat>36</sat></trkpt>
  <trkpt lat="39.91247379" lon="32.95837357"><ele>962.092</ele><time>2026-10-02T15:10:55Z</time><speed>24.810</speed><sat>35</sat></trkpt>
  <trkpt lat="39.91245696" lon="32.95866794"><ele>962.425</ele><time>2026-10-02T15:10:56Z</time><speed>25.640</speed><sat>35</sat></trkpt>
  <trkpt lat="39.91244308" lon="32.95895918"><ele>962.421</ele><time>2026-10-02T15:10:57Z</time><speed>25.630</speed><sat>31</sat></trkpt>
  <trkpt lat="39.91240982" lon="32.95907387"><ele>962.482</ele><time>2026-10-02T15:10:58Z</time><speed>20.760</speed><sat>31</sat></trkpt>
  <trkpt lat="39.91242150" lon="32.95931512"><ele>962.277</ele><time>2026-10-02T15:10:59Z</time><speed>20.470</speed><sat>30</sat></trkpt>
  <trkpt lat="39.91244006" lon="32.95960391"><ele>963.710</ele><time>2026-10-02T15:11:00Z</time><speed>21.390</speed><sat>29</sat></trkpt>
  <trkpt lat="39.91244912" lon="32.95985227"><ele>963.809</ele><time>2026-10-02T15:11:01Z</time><speed>20.940</speed><sat>31</sat></trkpt>
  <trkpt lat="39.91247523" lon="32.96007979"><ele>963.459</ele><time>2026-10-02T15:11:02Z</time><speed>20.860</speed><sat>31</sat></trkpt>
  <trkpt lat="39.91247107" lon="32.96031730"><ele>964.031</ele><time>2026-10-02T15:11:03Z</time><speed>20.470</speed><sat>31</sat></trkpt>
  <trkpt lat="39.91246236" lon="32.96056894"><ele>964.294</ele><time>2026-10-02T15:11:04Z</time><speed>21.370</speed><sat>32</sat></trkpt>
  <trkpt lat="39.91247831" lon="32.96078945"><ele>967.755</ele><time>2026-10-02T15:11:05Z</time><speed>19.350</speed><sat>32</sat></trkpt>
  <trkpt lat="39.91247572" lon="32.96102127"><ele>967.998</ele><time>2026-10-02T15:11:06Z</time><speed>19.170</speed><sat>33</sat></trkpt>
  <trkpt lat="39.91247718" lon="32.96124401"><ele>968.492</ele><time>2026-10-02T15:11:07Z</time><speed>18.660</speed><sat>32</sat></trkpt>
  <trkpt lat="39.91248920" lon="32.96146902"><ele>969.135</ele><time>2026-10-02T15:11:08Z</time><speed>18.350</speed><sat>32</sat></trkpt>
  <trkpt lat="39.91248913" lon="32.96168253"><ele>970.310</ele><time>2026-10-02T15:11:09Z</time><speed>18.370</speed><sat>32</sat></trkpt>
  <trkpt lat="39.91248456" lon="32.96188739"><ele>970.073</ele><time>2026-10-02T15:11:10Z</time><speed>17.880</speed><sat>32</sat></trkpt>
  <trkpt lat="39.91248462" lon="32.96209197"><ele>970.451</ele><time>2026-10-02T15:11:11Z</time><speed>17.870</speed><sat>32</sat></trkpt>
  <trkpt lat="39.91248510" lon="32.96230148"><ele>969.806</ele><time>2026-10-02T15:11:12Z</time><speed>18.200</speed><sat>32</sat></trkpt>
  <trkpt lat="39.91248488" lon="32.96251917"><ele>970.349</ele><time>2026-10-02T15:11:13Z</time><speed>18.340</speed><sat>33</sat></trkpt>
  <trkpt lat="39.91248494" lon="32.96273690"><ele>970.842</ele><time>2026-10-02T15:11:14Z</time><speed>18.400</speed><sat>33</sat></trkpt>
  <trkpt lat="39.91248564" lon="32.96295173"><ele>971.220</ele><time>2026-10-02T15:11:15Z</time><speed>18.480</speed><sat>33</sat></trkpt>
  <trkpt lat="39.91248363" lon="32.96316951"><ele>971.433</ele><time>2026-10-02T15:11:16Z</time><speed>18.530</speed><sat>33</sat></trkpt>
  <trkpt lat="39.91248288" lon="32.96338837"><ele>971.793</ele><time>2026-10-02T15:11:17Z</time><speed>18.670</speed><sat>33</sat></trkpt>
  <trkpt lat="39.91248007" lon="32.96360638"><ele>972.043</ele><time>2026-10-02T15:11:18Z</time><speed>18.630</speed><sat>32</sat></trkpt>
  <trkpt lat="39.91247608" lon="32.96382334"><ele>972.257</ele><time>2026-10-02T15:11:19Z</time><speed>18.610</speed><sat>31</sat></trkpt>
  <trkpt lat="39.91247824" lon="32.96404172"><ele>972.442</ele><time>2026-10-02T15:11:20Z</time><speed>18.860</speed><sat>31</sat></trkpt>
  <trkpt lat="39.91247731" lon="32.96426229"><ele>972.487</ele><time>2026-10-02T15:11:21Z</time><speed>19.120</speed><sat>32</sat></trkpt>
  <trkpt lat="39.91247515" lon="32.96448752"><ele>972.475</ele><time>2026-10-02T15:11:22Z</time><speed>19.350</speed><sat>32</sat></trkpt>
  <trkpt lat="39.91247671" lon="32.96471413"><ele>972.941</ele><time>2026-10-02T15:11:23Z</time><speed>19.600</speed><sat>33</sat></trkpt>
  <trkpt lat="39.91247726" lon="32.96494474"><ele>973.339</ele><time>2026-10-02T15:11:24Z</time><speed>19.700</speed><sat>33</sat></trkpt>
  <trkpt lat="39.91247966" lon="32.96518002"><ele>973.587</ele><time>2026-10-02T15:11:25Z</time><speed>20.070</speed><sat>33</sat></trkpt>
  <trkpt lat="39.91248346" lon="32.96541697"><ele>973.914</ele><time>2026-10-02T15:11:26Z</time><speed>20.460</speed><sat>33</sat></trkpt>
  <trkpt lat="39.91248247" lon="32.96565564"><ele>973.961</ele><time>2026-10-02T15:11:27Z</time><speed>20.450</speed><sat>33</sat></trkpt>
  <trkpt lat="39.91248272" lon="32.96589661"><ele>974.178</ele><time>2026-10-02T15:11:28Z</time><speed>20.770</speed><sat>33</sat></trkpt>
  <trkpt lat="39.91248083" lon="32.96614072"><ele>973.862</ele><time>2026-10-02T15:11:29Z</time><speed>20.940</speed><sat>33</sat></trkpt>
  <trkpt lat="39.91248104" lon="32.96638597"><ele>973.841</ele><time>2026-10-02T15:11:30Z</time><speed>21.110</speed><sat>32</sat></trkpt>
  <trkpt lat="39.91247880" lon="32.96663204"><ele>973.771</ele><time>2026-10-02T15:11:31Z</time><speed>21.280</speed><sat>34</sat></trkpt>
  <trkpt lat="39.91247769" lon="32.96688136"><ele>973.752</ele><time>2026-10-02T15:11:32Z</time><speed>21.450</speed><sat>35</sat></trkpt>
  <trkpt lat="39.91247887" lon="32.96713607"><ele>974.159</ele><time>2026-10-02T15:11:33Z</time><speed>21.460</speed><sat>35</sat></trkpt>
  <trkpt lat="39.91248210" lon="32.96738688"><ele>973.937</ele><time>2026-10-02T15:11:34Z</time><speed>21.490</speed><sat>33</sat></trkpt>
  <trkpt lat="39.91248680" lon="32.96763486"><ele>974.143</ele><time>2026-10-02T15:11:35Z</time><speed>21.380</speed><sat>33</sat></trkpt>
  <trkpt lat="39.91248965" lon="32.96788158"><ele>974.242</ele><time>2026-10-02T15:11:36Z</time><speed>21.050</speed><sat>32</sat></trkpt>
  <trkpt lat="39.91249231" lon="32.96812316"><ele>974.195</ele><time>2026-10-02T15:11:37Z</time><speed>20.870</speed><sat>32</sat></trkpt>
  <trkpt lat="39.91249484" lon="32.96836478"><ele>974.122</ele><time>2026-10-02T15:11:38Z</time><speed>20.870</speed><sat>32</sat></trkpt>
  <trkpt lat="39.91249744" lon="32.96861099"><ele>974.116</ele><time>2026-10-02T15:11:39Z</time><speed>20.930</speed><sat>33</sat></trkpt>
  <trkpt lat="39.91250036" lon="32.96885794"><ele>974.225</ele><time>2026-10-02T15:11:40Z</time><speed>21.040</speed><sat>34</sat></trkpt>
  <trkpt lat="39.91250023" lon="32.96910874"><ele>974.108</ele><time>2026-10-02T15:11:41Z</time><speed>21.160</speed><sat>35</sat></trkpt>
  <trkpt lat="39.91249738" lon="32.96935965"><ele>973.898</ele><time>2026-10-02T15:11:42Z</time><speed>21.370</speed><sat>36</sat></trkpt>
  <trkpt lat="39.91249486" lon="32.96961533"><ele>973.632</ele><time>2026-10-02T15:11:43Z</time><speed>21.700</speed><sat>36</sat></trkpt>
  <trkpt lat="39.91249269" lon="32.96987387"><ele>973.342</ele><time>2026-10-02T15:11:44Z</time><speed>22.040</speed><sat>36</sat></trkpt>
  <trkpt lat="39.91249468" lon="32.97013856"><ele>972.839</ele><time>2026-10-02T15:11:45Z</time><speed>22.410</speed><sat>36</sat></trkpt>
  <trkpt lat="39.91249417" lon="32.97040243"><ele>972.174</ele><time>2026-10-02T15:11:46Z</time><speed>22.760</speed><sat>36</sat></trkpt>
  <trkpt lat="39.91249447" lon="32.97067384"><ele>971.475</ele><time>2026-10-02T15:11:47Z</time><speed>23.130</speed><sat>36</sat></trkpt>
  <trkpt lat="39.91249441" lon="32.97094994"><ele>971.134</ele><time>2026-10-02T15:11:48Z</time><speed>23.450</speed><sat>36</sat></trkpt>
  <trkpt lat="39.91249466" lon="32.97122508"><ele>970.910</ele><time>2026-10-02T15:11:49Z</time><speed>23.620</speed><sat>36</sat></trkpt>
  <trkpt lat="39.91249438" lon="32.97149851"><ele>971.033</ele><time>2026-10-02T15:11:50Z</time><speed>23.290</speed><sat>34</sat></trkpt>
  <trkpt lat="39.91249749" lon="32.97176323"><ele>971.002</ele><time>2026-10-02T15:11:51Z</time><speed>22.830</speed><sat>33</sat></trkpt>
  <trkpt lat="39.91250051" lon="32.97201962"><ele>970.834</ele><time>2026-10-02T15:11:52Z</time><speed>22.090</speed><sat>31</sat></trkpt>
  <trkpt lat="39.91250343" lon="32.97227791"><ele>970.821</ele><time>2026-10-02T15:11:53Z</time><speed>22.090</speed><sat>30</sat></trkpt>
  <trkpt lat="39.91250323" lon="32.97263761"><ele>970.772</ele><time>2026-10-02T15:11:54Z</time><speed>24.570</speed><sat>30</sat></trkpt>
  <trkpt lat="39.91250426" lon="32.97283930"><ele>972.333</ele><time>2026-10-02T15:11:55Z</time><speed>22.750</speed><sat>28</sat></trkpt>
  <trkpt lat="39.91252720" lon="32.97311522"><ele>972.854</ele><time>2026-10-02T15:11:56Z</time><speed>23.010</speed><sat>25</sat></trkpt>
  <trkpt lat="39.91252713" lon="32.97337916"><ele>973.655</ele><time>2026-10-02T15:11:57Z</time><speed>22.920</speed><sat>27</sat></trkpt>
  <trkpt lat="39.91252944" lon="32.97364179"><ele>974.695</ele><time>2026-10-02T15:11:58Z</time><speed>22.820</speed><sat>30</sat></trkpt>
  <trkpt lat="39.91254928" lon="32.97389973"><ele>975.929</ele><time>2026-10-02T15:11:59Z</time><speed>22.590</speed><sat>30</sat></trkpt>
  <trkpt lat="39.91257139" lon="32.97416629"><ele>976.305</ele><time>2026-10-02T15:12:00Z</time><speed>22.300</speed><sat>30</sat></trkpt>
  <trkpt lat="39.91259229" lon="32.97442820"><ele>977.509</ele><time>2026-10-02T15:12:01Z</time><speed>21.990</speed><sat>30</sat></trkpt>
  <trkpt lat="39.91262684" lon="32.97467995"><ele>978.709</ele><time>2026-10-02T15:12:02Z</time><speed>21.700</speed><sat>32</sat></trkpt>
  <trkpt lat="39.91266074" lon="32.97492781"><ele>979.716</ele><time>2026-10-02T15:12:03Z</time><speed>21.440</speed><sat>33</sat></trkpt>
  <trkpt lat="39.91269710" lon="32.97517214"><ele>980.666</ele><time>2026-10-02T15:12:04Z</time><speed>21.100</speed><sat>34</sat></trkpt>
  <trkpt lat="39.91273825" lon="32.97540926"><ele>981.152</ele><time>2026-10-02T15:12:05Z</time><speed>20.680</speed><sat>35</sat></trkpt>
  <trkpt lat="39.91277796" lon="32.97564177"><ele>980.875</ele><time>2026-10-02T15:12:06Z</time><speed>20.450</speed><sat>35</sat></trkpt>
  <trkpt lat="39.91282756" lon="32.97587481"><ele>981.521</ele><time>2026-10-02T15:12:07Z</time><speed>20.420</speed><sat>35</sat></trkpt>
  <trkpt lat="39.91287722" lon="32.97610372"><ele>981.697</ele><time>2026-10-02T15:12:08Z</time><speed>20.230</speed><sat>35</sat></trkpt>
  <trkpt lat="39.91292639" lon="32.97633226"><ele>981.917</ele><time>2026-10-02T15:12:09Z</time><speed>20.070</speed><sat>35</sat></trkpt>
  <trkpt lat="39.91297997" lon="32.97655427"><ele>982.062</ele><time>2026-10-02T15:12:10Z</time><speed>20.000</speed><sat>35</sat></trkpt>
  <trkpt lat="39.91303792" lon="32.97677283"><ele>982.402</ele><time>2026-10-02T15:12:11Z</time><speed>19.850</speed><sat>34</sat></trkpt>
  <trkpt lat="39.91309793" lon="32.97699011"><ele>982.631</ele><time>2026-10-02T15:12:12Z</time><speed>19.520</speed><sat>34</sat></trkpt>
  <trkpt lat="39.91315725" lon="32.97719735"><ele>982.960</ele><time>2026-10-02T15:12:13Z</time><speed>19.040</speed><sat>34</sat></trkpt>
  <trkpt lat="39.91321880" lon="32.97739715"><ele>983.166</ele><time>2026-10-02T15:12:14Z</time><speed>18.480</speed><sat>34</sat></trkpt>
  <trkpt lat="39.91327736" lon="32.97759481"><ele>983.721</ele><time>2026-10-02T15:12:15Z</time><speed>18.020</speed><sat>34</sat></trkpt>
  <trkpt lat="39.91333015" lon="32.97778657"><ele>983.874</ele><time>2026-10-02T15:12:16Z</time><speed>17.650</speed><sat>33</sat></trkpt>
  <trkpt lat="39.91338815" lon="32.97797067"><ele>984.170</ele><time>2026-10-02T15:12:17Z</time><speed>16.860</speed><sat>32</sat></trkpt>
  <trkpt lat="39.91344009" lon="32.97814804"><ele>984.159</ele><time>2026-10-02T15:12:18Z</time><speed>16.520</speed><sat>33</sat></trkpt>
  <trkpt lat="39.91349848" lon="32.97832129"><ele>984.200</ele><time>2026-10-02T15:12:19Z</time><speed>16.170</speed><sat>34</sat></trkpt>
  <trkpt lat="39.91355784" lon="32.97849086"><ele>984.437</ele><time>2026-10-02T15:12:20Z</time><speed>15.640</speed><sat>34</sat></trkpt>
  <trkpt lat="39.91362168" lon="32.97864987"><ele>984.848</ele><time>2026-10-02T15:12:21Z</time><speed>15.200</speed><sat>34</sat></trkpt>
  <trkpt lat="39.91368487" lon="32.97880212"><ele>985.028</ele><time>2026-10-02T15:12:22Z</time><speed>15.030</speed><sat>34</sat></trkpt>
  <trkpt lat="39.91375031" lon="32.97895481"><ele>985.322</ele><time>2026-10-02T15:12:23Z</time><speed>14.870</speed><sat>34</sat></trkpt>
  <trkpt lat="39.91381650" lon="32.97910585"><ele>985.354</ele><time>2026-10-02T15:12:24Z</time><speed>14.720</speed><sat>34</sat></trkpt>
  <trkpt lat="39.91388080" lon="32.97925412"><ele>985.178</ele><time>2026-10-02T15:12:25Z</time><speed>14.430</speed><sat>35</sat></trkpt>
  <trkpt lat="39.91394342" lon="32.97940144"><ele>985.388</ele><time>2026-10-02T15:12:26Z</time><speed>14.140</speed><sat>34</sat></trkpt>
  <trkpt lat="39.91400347" lon="32.97954088"><ele>985.558</ele><time>2026-10-02T15:12:27Z</time><speed>13.690</speed><sat>33</sat></trkpt>
  <trkpt lat="39.91406107" lon="32.97967880"><ele>985.470</ele><time>2026-10-02T15:12:28Z</time><speed>13.400</speed><sat>32</sat></trkpt>
  <trkpt lat="39.91411955" lon="32.97981202"><ele>985.438</ele><time>2026-10-02T15:12:29Z</time><speed>13.020</speed><sat>30</sat></trkpt>
  <trkpt lat="39.91417159" lon="32.97993965"><ele>985.298</ele><time>2026-10-02T15:12:30Z</time><speed>12.330</speed><sat>29</sat></trkpt>
  <trkpt lat="39.91422004" lon="32.98005837"><ele>985.290</ele><time>2026-10-02T15:12:31Z</time><speed>11.460</speed><sat>28</sat></trkpt>
  <trkpt lat="39.91426365" lon="32.98015738"><ele>985.090</ele><time>2026-10-02T15:12:32Z</time><speed>9.870</speed><sat>28</sat></trkpt>
  <trkpt lat="39.91429896" lon="32.98024628"><ele>984.387</ele><time>2026-10-02T15:12:33Z</time><speed>8.570</speed><sat>28</sat></trkpt>
  <trkpt lat="39.91432932" lon="32.98031017"><ele>984.935</ele><time>2026-10-02T15:12:34Z</time><speed>6.510</speed><sat>27</sat></trkpt>
  <trkpt lat="39.91435231" lon="32.98036251"><ele>984.924</ele><time>2026-10-02T15:12:35Z</time><speed>5.200</speed><sat>27</sat></trkpt>
  <trkpt lat="39.91437466" lon="32.98040905"><ele>985.102</ele><time>2026-10-02T15:12:36Z</time><speed>4.770</speed><sat>27</sat></trkpt>
  <trkpt lat="39.91439585" lon="32.98045284"><ele>985.035</ele><time>2026-10-02T15:12:37Z</time><speed>4.470</speed><sat>27</sat></trkpt>
  <trkpt lat="39.91441469" lon="32.98049986"><ele>985.050</ele><time>2026-10-02T15:12:38Z</time><speed>4.480</speed><sat>27</sat></trkpt>
  <trkpt lat="39.91443482" lon="32.98054837"><ele>984.983</ele><time>2026-10-02T15:12:39Z</time><speed>4.730</speed><sat>27</sat></trkpt>
  <trkpt lat="39.91445617" lon="32.98059461"><ele>985.017</ele><time>2026-10-02T15:12:40Z</time><speed>4.660</speed><sat>27</sat></trkpt>
  <trkpt lat="39.91447093" lon="32.98063029"><ele>985.089</ele><time>2026-10-02T15:12:41Z</time><speed>3.710</speed><sat>27</sat></trkpt>
  <trkpt lat="39.91447436" lon="32.98063884"><ele>985.394</ele><time>2026-10-02T15:12:42Z</time><speed>1.240</speed><sat>29</sat></trkpt>
  <trkpt lat="39.91447552" lon="32.98063597"><ele>985.585</ele><time>2026-10-02T15:12:43Z</time><speed>0.000</speed><sat>27</sat></trkpt>
  <trkpt lat="39.91447089" lon="32.98063267"><ele>985.776</ele><time>2026-10-02T15:12:44Z</time><speed>0.000</speed><sat>25</sat></trkpt>
  <trkpt lat="39.91447079" lon="32.98063315"><ele>986.123</ele><time>2026-10-02T15:12:45Z</time><speed>0.000</speed><sat>26</sat></trkpt>
  <trkpt lat="39.91447115" lon="32.98063225"><ele>986.093</ele><time>2026-10-02T15:12:46Z</time><speed>0.000</speed><sat>27</sat></trkpt>
  <trkpt lat="39.91447191" lon="32.98063280"><ele>986.178</ele><time>2026-10-02T15:12:47Z</time><speed>0.000</speed><sat>27</sat></trkpt>
  <trkpt lat="39.91447210" lon="32.98063469"><ele>986.279</ele><time>2026-10-02T15:12:48Z</time><speed>0.000</speed><sat>27</sat></trkpt>
  <trkpt lat="39.91447205" lon="32.98063544"><ele>986.145</ele><time>2026-10-02T15:12:49Z</time><speed>0.000</speed><sat>26</sat></trkpt>
  <trkpt lat="39.91447179" lon="32.98063509"><ele>986.017</ele><time>2026-10-02T15:12:50Z</time><speed>0.000</speed><sat>26</sat></trkpt>
  <trkpt lat="39.91447211" lon="32.98063485"><ele>986.128</ele><time>2026-10-02T15:12:51Z</time><speed>0.000</speed><sat>26</sat></trkpt>
  <trkpt lat="39.91447184" lon="32.98063469"><ele>986.255</ele><time>2026-10-02T15:12:52Z</time><speed>0.000</speed><sat>26</sat></trkpt>
  <trkpt lat="39.91447176" lon="32.98063161"><ele>986.433</ele><time>2026-10-02T15:12:53Z</time><speed>0.330</speed><sat>26</sat></trkpt>
  <trkpt lat="39.91447132" lon="32.98063167"><ele>986.123</ele><time>2026-10-02T15:12:54Z</time><speed>0.220</speed><sat>27</sat></trkpt>
  <trkpt lat="39.91447555" lon="32.98064206"><ele>985.553</ele><time>2026-10-02T15:12:55Z</time><speed>1.650</speed><sat>28</sat></trkpt>
  <trkpt lat="39.91448806" lon="32.98067045"><ele>985.355</ele><time>2026-10-02T15:12:56Z</time><speed>3.700</speed><sat>28</sat></trkpt>
  <trkpt lat="39.91451218" lon="32.98071817"><ele>985.261</ele><time>2026-10-02T15:12:57Z</time><speed>5.110</speed><sat>28</sat></trkpt>
  <trkpt lat="39.91453088" lon="32.98077025"><ele>984.551</ele><time>2026-10-02T15:12:58Z</time><speed>5.610</speed><sat>26</sat></trkpt>
  <trkpt lat="39.91455637" lon="32.98083286"><ele>984.500</ele><time>2026-10-02T15:12:59Z</time><speed>6.580</speed><sat>26</sat></trkpt>
  <trkpt lat="39.91458797" lon="32.98091207"><ele>984.026</ele><time>2026-10-02T15:13:00Z</time><speed>8.360</speed><sat>26</sat></trkpt>
  <trkpt lat="39.91462472" lon="32.98100625"><ele>983.850</ele><time>2026-10-02T15:13:01Z</time><speed>9.900</speed><sat>25</sat></trkpt>
  <trkpt lat="39.91467046" lon="32.98111845"><ele>983.992</ele><time>2026-10-02T15:13:02Z</time><speed>11.600</speed><sat>25</sat></trkpt>
  <trkpt lat="39.91471964" lon="32.98124580"><ele>984.009</ele><time>2026-10-02T15:13:03Z</time><speed>12.960</speed><sat>25</sat></trkpt>
  <trkpt lat="39.91477781" lon="32.98139156"><ele>984.934</ele><time>2026-10-02T15:13:04Z</time><speed>14.350</speed><sat>26</sat></trkpt>
  <trkpt lat="39.91483549" lon="32.98152683"><ele>984.413</ele><time>2026-10-02T15:13:05Z</time><speed>13.230</speed><sat>25</sat></trkpt>
  <trkpt lat="39.91490572" lon="32.98168976"><ele>985.423</ele><time>2026-10-02T15:13:06Z</time><speed>15.720</speed><sat>25</sat></trkpt>
  <trkpt lat="39.91497616" lon="32.98184148"><ele>985.283</ele><time>2026-10-02T15:13:07Z</time><speed>15.450</speed><sat>26</sat></trkpt>
  <trkpt lat="39.91504583" lon="32.98201264"><ele>985.507</ele><time>2026-10-02T15:13:08Z</time><speed>16.490</speed><sat>26</sat></trkpt>
  <trkpt lat="39.91511389" lon="32.98217880"><ele>985.645</ele><time>2026-10-02T15:13:09Z</time><speed>16.260</speed><sat>27</sat></trkpt>
  <trkpt lat="39.91518563" lon="32.98234444"><ele>985.732</ele><time>2026-10-02T15:13:10Z</time><speed>16.020</speed><sat>29</sat></trkpt>
  <trkpt lat="39.91525320" lon="32.98250658"><ele>985.796</ele><time>2026-10-02T15:13:11Z</time><speed>15.600</speed><sat>31</sat></trkpt>
  <trkpt lat="39.91532280" lon="32.98266912"><ele>985.765</ele><time>2026-10-02T15:13:12Z</time><speed>15.580</speed><sat>32</sat></trkpt>
  <trkpt lat="39.91539578" lon="32.98284649"><ele>986.521</ele><time>2026-10-02T15:13:13Z</time><speed>16.810</speed><sat>33</sat></trkpt>
  <trkpt lat="39.91546870" lon="32.98301349"><ele>986.772</ele><time>2026-10-02T15:13:14Z</time><speed>16.370</speed><sat>35</sat></trkpt>
  <trkpt lat="39.91554177" lon="32.98317597"><ele>987.229</ele><time>2026-10-02T15:13:15Z</time><speed>16.150</speed><sat>35</sat></trkpt>
  <trkpt lat="39.91561777" lon="32.98334229"><ele>987.383</ele><time>2026-10-02T15:13:16Z</time><speed>16.590</speed><sat>35</sat></trkpt>
  <trkpt lat="39.91569818" lon="32.98350524"><ele>987.424</ele><time>2026-10-02T15:13:17Z</time><speed>16.820</speed><sat>35</sat></trkpt>
  <trkpt lat="39.91577837" lon="32.98367435"><ele>986.984</ele><time>2026-10-02T15:13:18Z</time><speed>17.370</speed><sat>35</sat></trkpt>
  <trkpt lat="39.91585887" lon="32.98385588"><ele>986.854</ele><time>2026-10-02T15:13:19Z</time><speed>17.830</speed><sat>35</sat></trkpt>
  <trkpt lat="39.91594610" lon="32.98403980"><ele>987.222</ele><time>2026-10-02T15:13:20Z</time><speed>18.530</speed><sat>35</sat></trkpt>
  <trkpt lat="39.91603455" lon="32.98422580"><ele>987.362</ele><time>2026-10-02T15:13:21Z</time><speed>18.940</speed><sat>35</sat></trkpt>
  <trkpt lat="39.91612412" lon="32.98442161"><ele>987.629</ele><time>2026-10-02T15:13:22Z</time><speed>19.470</speed><sat>35</sat></trkpt>
  <trkpt lat="39.91621112" lon="32.98462106"><ele>988.017</ele><time>2026-10-02T15:13:23Z</time><speed>20.030</speed><sat>34</sat></trkpt>
  <trkpt lat="39.91630093" lon="32.98483420"><ele>988.250</ele><time>2026-10-02T15:13:24Z</time><speed>20.820</speed><sat>34</sat></trkpt>
  <trkpt lat="39.91639209" lon="32.98504181"><ele>988.621</ele><time>2026-10-02T15:13:25Z</time><speed>20.930</speed><sat>35</sat></trkpt>
  <trkpt lat="39.91648756" lon="32.98525208"><ele>988.922</ele><time>2026-10-02T15:13:26Z</time><speed>20.980</speed><sat>36</sat></trkpt>
  <trkpt lat="39.91658446" lon="32.98546570"><ele>989.209</ele><time>2026-10-02T15:13:27Z</time><speed>21.460</speed><sat>36</sat></trkpt>
  <trkpt lat="39.91668395" lon="32.98568386"><ele>989.483</ele><time>2026-10-02T15:13:28Z</time><speed>21.900</speed><sat>36</sat></trkpt>
  <trkpt lat="39.91678617" lon="32.98590809"><ele>989.541</ele><time>2026-10-02T15:13:29Z</time><speed>22.380</speed><sat>36</sat></trkpt>
  <trkpt lat="39.91688942" lon="32.98613115"><ele>989.426</ele><time>2026-10-02T15:13:30Z</time><speed>22.480</speed><sat>35</sat></trkpt>
  <trkpt lat="39.91699298" lon="32.98635179"><ele>990.065</ele><time>2026-10-02T15:13:31Z</time><speed>22.150</speed><sat>36</sat></trkpt>
  <trkpt lat="39.91710143" lon="32.98657210"><ele>990.316</ele><time>2026-10-02T15:13:32Z</time><speed>22.060</speed><sat>36</sat></trkpt>
  <trkpt lat="39.91720486" lon="32.98678853"><ele>990.811</ele><time>2026-10-02T15:13:33Z</time><speed>21.840</speed><sat>36</sat></trkpt>
  <trkpt lat="39.91730740" lon="32.98700964"><ele>991.620</ele><time>2026-10-02T15:13:34Z</time><speed>21.870</speed><sat>36</sat></trkpt>
  <trkpt lat="39.91741329" lon="32.98721529"><ele>992.493</ele><time>2026-10-02T15:13:35Z</time><speed>21.270</speed><sat>37</sat></trkpt>
  <trkpt lat="39.91752034" lon="32.98741748"><ele>991.897</ele><time>2026-10-02T15:13:36Z</time><speed>20.980</speed><sat>36</sat></trkpt>
  <trkpt lat="39.91763352" lon="32.98761753"><ele>991.732</ele><time>2026-10-02T15:13:37Z</time><speed>21.230</speed><sat>37</sat></trkpt>
  <trkpt lat="39.91773858" lon="32.98782129"><ele>991.925</ele><time>2026-10-02T15:13:38Z</time><speed>20.930</speed><sat>37</sat></trkpt>
  <trkpt lat="39.91784326" lon="32.98802386"><ele>991.977</ele><time>2026-10-02T15:13:39Z</time><speed>21.120</speed><sat>37</sat></trkpt>
  <trkpt lat="39.91795215" lon="32.98823059"><ele>992.079</ele><time>2026-10-02T15:13:40Z</time><speed>21.350</speed><sat>36</sat></trkpt>
  <trkpt lat="39.91805892" lon="32.98843653"><ele>992.581</ele><time>2026-10-02T15:13:41Z</time><speed>21.240</speed><sat>35</sat></trkpt>
  <trkpt lat="39.91816450" lon="32.98864937"><ele>993.008</ele><time>2026-10-02T15:13:42Z</time><speed>21.530</speed><sat>36</sat></trkpt>
  <trkpt lat="39.91826857" lon="32.98885701"><ele>993.283</ele><time>2026-10-02T15:13:43Z</time><speed>21.090</speed><sat>36</sat></trkpt>
  <trkpt lat="39.91837130" lon="32.98906691"><ele>993.275</ele><time>2026-10-02T15:13:44Z</time><speed>21.100</speed><sat>36</sat></trkpt>
  <trkpt lat="39.91847466" lon="32.98927365"><ele>993.376</ele><time>2026-10-02T15:13:45Z</time><speed>21.050</speed><sat>36</sat></trkpt>
  <trkpt lat="39.91857859" lon="32.98947852"><ele>993.696</ele><time>2026-10-02T15:13:46Z</time><speed>21.000</speed><sat>35</sat></trkpt>
  <trkpt lat="39.91868012" lon="32.98968600"><ele>993.798</ele><time>2026-10-02T15:13:47Z</time><speed>21.110</speed><sat>35</sat></trkpt>
  <trkpt lat="39.91878109" lon="32.98989688"><ele>994.013</ele><time>2026-10-02T15:13:48Z</time><speed>21.230</speed><sat>33</sat></trkpt>
  <trkpt lat="39.91888363" lon="32.99010947"><ele>994.234</ele><time>2026-10-02T15:13:49Z</time><speed>21.470</speed><sat>33</sat></trkpt>
  <trkpt lat="39.91898802" lon="32.99032228"><ele>994.253</ele><time>2026-10-02T15:13:50Z</time><speed>21.610</speed><sat>32</sat></trkpt>
  <trkpt lat="39.91909487" lon="32.99053483"><ele>994.325</ele><time>2026-10-02T15:13:51Z</time><speed>21.780</speed><sat>32</sat></trkpt>
  <trkpt lat="39.91920078" lon="32.99074936"><ele>994.290</ele><time>2026-10-02T15:13:52Z</time><speed>22.000</speed><sat>32</sat></trkpt>
  <trkpt lat="39.91930802" lon="32.99096756"><ele>994.142</ele><time>2026-10-02T15:13:53Z</time><speed>22.160</speed><sat>32</sat></trkpt>
  <trkpt lat="39.91941718" lon="32.99118664"><ele>994.187</ele><time>2026-10-02T15:13:54Z</time><speed>22.300</speed><sat>32</sat></trkpt>
  <trkpt lat="39.91952809" lon="32.99140388"><ele>994.184</ele><time>2026-10-02T15:13:55Z</time><speed>22.490</speed><sat>33</sat></trkpt>
  <trkpt lat="39.91963960" lon="32.99162526"><ele>994.318</ele><time>2026-10-02T15:13:56Z</time><speed>22.610</speed><sat>33</sat></trkpt>
  <trkpt lat="39.91975227" lon="32.99184919"><ele>994.430</ele><time>2026-10-02T15:13:57Z</time><speed>22.730</speed><sat>33</sat></trkpt>
  <trkpt lat="39.91986867" lon="32.99206700"><ele>995.535</ele><time>2026-10-02T15:13:58Z</time><speed>23.040</speed><sat>34</sat></trkpt>
  <trkpt lat="39.91998188" lon="32.99228683"><ele>995.047</ele><time>2026-10-02T15:13:59Z</time><speed>22.630</speed><sat>35</sat></trkpt>
  <trkpt lat="39.92009511" lon="32.99250538"><ele>995.212</ele><time>2026-10-02T15:14:00Z</time><speed>22.320</speed><sat>35</sat></trkpt>
  <trkpt lat="39.92020533" lon="32.99272310"><ele>995.294</ele><time>2026-10-02T15:14:01Z</time><speed>22.240</speed><sat>35</sat></trkpt>
  <trkpt lat="39.92031546" lon="32.99293679"><ele>995.452</ele><time>2026-10-02T15:14:02Z</time><speed>21.740</speed><sat>35</sat></trkpt>
  <trkpt lat="39.92042485" lon="32.99314525"><ele>995.671</ele><time>2026-10-02T15:14:03Z</time><speed>21.450</speed><sat>35</sat></trkpt>
  <trkpt lat="39.92053450" lon="32.99335215"><ele>995.774</ele><time>2026-10-02T15:14:04Z</time><speed>21.160</speed><sat>35</sat></trkpt>
  <trkpt lat="39.92064110" lon="32.99355399"><ele>995.855</ele><time>2026-10-02T15:14:05Z</time><speed>20.500</speed><sat>35</sat></trkpt>
  <trkpt lat="39.92073980" lon="32.99374841"><ele>995.820</ele><time>2026-10-02T15:14:06Z</time><speed>19.630</speed><sat>33</sat></trkpt>
  <trkpt lat="39.92083621" lon="32.99393597"><ele>995.904</ele><time>2026-10-02T15:14:07Z</time><speed>18.830</speed><sat>33</sat></trkpt>
  <trkpt lat="39.92092702" lon="32.99411180"><ele>996.085</ele><time>2026-10-02T15:14:08Z</time><speed>17.770</speed><sat>32</sat></trkpt>
  <trkpt lat="39.92101491" lon="32.99428274"><ele>996.200</ele><time>2026-10-02T15:14:09Z</time><speed>17.280</speed><sat>33</sat></trkpt>
  <trkpt lat="39.92110033" lon="32.99445235"><ele>996.404</ele><time>2026-10-02T15:14:10Z</time><speed>17.000</speed><sat>33</sat></trkpt>
  <trkpt lat="39.92118200" lon="32.99461701"><ele>996.640</ele><time>2026-10-02T15:14:11Z</time><speed>16.810</speed><sat>32</sat></trkpt>
  <trkpt lat="39.92126448" lon="32.99478078"><ele>996.917</ele><time>2026-10-02T15:14:12Z</time><speed>16.610</speed><sat>31</sat></trkpt>
  <trkpt lat="39.92134701" lon="32.99494480"><ele>997.041</ele><time>2026-10-02T15:14:13Z</time><speed>16.770</speed><sat>31</sat></trkpt>
  <trkpt lat="39.92143236" lon="32.99510915"><ele>997.249</ele><time>2026-10-02T15:14:14Z</time><speed>17.010</speed><sat>31</sat></trkpt>
  <trkpt lat="39.92151757" lon="32.99527424"><ele>997.478</ele><time>2026-10-02T15:14:15Z</time><speed>16.980</speed><sat>31</sat></trkpt>
  <trkpt lat="39.92160329" lon="32.99544374"><ele>997.467</ele><time>2026-10-02T15:14:16Z</time><speed>17.340</speed><sat>32</sat></trkpt>
  <trkpt lat="39.92168874" lon="32.99561375"><ele>997.505</ele><time>2026-10-02T15:14:17Z</time><speed>17.180</speed><sat>32</sat></trkpt>
  <trkpt lat="39.92177336" lon="32.99577981"><ele>997.624</ele><time>2026-10-02T15:14:18Z</time><speed>16.990</speed><sat>32</sat></trkpt>
  <trkpt lat="39.92185921" lon="32.99594452"><ele>997.883</ele><time>2026-10-02T15:14:19Z</time><speed>17.010</speed><sat>32</sat></trkpt>
  <trkpt lat="39.92194279" lon="32.99611084"><ele>998.086</ele><time>2026-10-02T15:14:20Z</time><speed>17.050</speed><sat>32</sat></trkpt>
  <trkpt lat="39.92202989" lon="32.99627886"><ele>998.242</ele><time>2026-10-02T15:14:21Z</time><speed>17.280</speed><sat>31</sat></trkpt>
  <trkpt lat="39.92211572" lon="32.99644569"><ele>998.405</ele><time>2026-10-02T15:14:22Z</time><speed>17.180</speed><sat>31</sat></trkpt>
  <trkpt lat="39.92220295" lon="32.99661429"><ele>998.538</ele><time>2026-10-02T15:14:23Z</time><speed>17.320</speed><sat>31</sat></trkpt>
  <trkpt lat="39.92229000" lon="32.99678449"><ele>998.733</ele><time>2026-10-02T15:14:24Z</time><speed>17.580</speed><sat>30</sat></trkpt>
  <trkpt lat="39.92237521" lon="32.99695488"><ele>998.346</ele><time>2026-10-02T15:14:25Z</time><speed>17.170</speed><sat>31</sat></trkpt>
  <trkpt lat="39.92246333" lon="32.99712896"><ele>998.429</ele><time>2026-10-02T15:14:26Z</time><speed>17.880</speed><sat>32</sat></trkpt>
  <trkpt lat="39.92254977" lon="32.99730665"><ele>999.078</ele><time>2026-10-02T15:14:27Z</time><speed>17.610</speed><sat>32</sat></trkpt>
  <trkpt lat="39.92263749" lon="32.99747924"><ele>999.193</ele><time>2026-10-02T15:14:28Z</time><speed>17.730</speed><sat>33</sat></trkpt>
  <trkpt lat="39.92272631" lon="32.99765643"><ele>998.943</ele><time>2026-10-02T15:14:29Z</time><speed>17.940</speed><sat>33</sat></trkpt>
  <trkpt lat="39.92281453" lon="32.99782811"><ele>999.007</ele><time>2026-10-02T15:14:30Z</time><speed>17.780</speed><sat>33</sat></trkpt>
  <trkpt lat="39.92290305" lon="32.99799867"><ele>998.973</ele><time>2026-10-02T15:14:31Z</time><speed>17.680</speed><sat>33</sat></trkpt>
  <trkpt lat="39.92299242" lon="32.99817094"><ele>998.984</ele><time>2026-10-02T15:14:32Z</time><speed>17.540</speed><sat>33</sat></trkpt>
  <trkpt lat="39.92307937" lon="32.99834465"><ele>998.897</ele><time>2026-10-02T15:14:33Z</time><speed>17.970</speed><sat>33</sat></trkpt>
  <trkpt lat="39.92316489" lon="32.99851546"><ele>999.044</ele><time>2026-10-02T15:14:34Z</time><speed>17.650</speed><sat>33</sat></trkpt>
  <trkpt lat="39.92325110" lon="32.99868836"><ele>999.184</ele><time>2026-10-02T15:14:35Z</time><speed>17.630</speed><sat>33</sat></trkpt>
  <trkpt lat="39.92333471" lon="32.99885541"><ele>998.968</ele><time>2026-10-02T15:14:36Z</time><speed>17.030</speed><sat>33</sat></trkpt>
  <trkpt lat="39.92342029" lon="32.99903430"><ele>999.573</ele><time>2026-10-02T15:14:37Z</time><speed>17.420</speed><sat>34</sat></trkpt>
  <trkpt lat="39.92350758" lon="32.99920203"><ele>999.984</ele><time>2026-10-02T15:14:38Z</time><speed>17.260</speed><sat>34</sat></trkpt>
  <trkpt lat="39.92359169" lon="32.99937408"><ele>999.850</ele><time>2026-10-02T15:14:39Z</time><speed>17.280</speed><sat>34</sat></trkpt>
  <trkpt lat="39.92367682" lon="32.99954031"><ele>999.820</ele><time>2026-10-02T15:14:40Z</time><speed>17.090</speed><sat>34</sat></trkpt>
  <trkpt lat="39.92376210" lon="32.99970354"><ele>999.678</ele><time>2026-10-02T15:14:41Z</time><speed>16.860</speed><sat>35</sat></trkpt>
  <trkpt lat="39.92384070" lon="32.99985625"><ele>1000.647</ele><time>2026-10-02T15:14:42Z</time><speed>16.550</speed><sat>35</sat></trkpt>
  <trkpt lat="39.92391583" lon="33.00001172"><ele>1000.288</ele><time>2026-10-02T15:14:43Z</time><speed>15.580</speed><sat>35</sat></trkpt>
  <trkpt lat="39.92399075" lon="33.00014877"><ele>1000.025</ele><time>2026-10-02T15:14:44Z</time><speed>14.430</speed><sat>36</sat></trkpt>
  <trkpt lat="39.92406073" lon="33.00028158"><ele>1000.273</ele><time>2026-10-02T15:14:45Z</time><speed>13.720</speed><sat>36</sat></trkpt>
  <trkpt lat="39.92413098" lon="33.00041295"><ele>1000.556</ele><time>2026-10-02T15:14:46Z</time><speed>13.190</speed><sat>36</sat></trkpt>
  <trkpt lat="39.92419927" lon="33.00054050"><ele>1000.626</ele><time>2026-10-02T15:14:47Z</time><speed>13.120</speed><sat>35</sat></trkpt>
  <trkpt lat="39.92426501" lon="33.00066825"><ele>1000.879</ele><time>2026-10-02T15:14:48Z</time><speed>12.770</speed><sat>35</sat></trkpt>
  <trkpt lat="39.92432634" lon="33.00078397"><ele>1000.271</ele><time>2026-10-02T15:14:49Z</time><speed>12.150</speed><sat>35</sat></trkpt>
  <trkpt lat="39.92438564" lon="33.00090047"><ele>1000.229</ele><time>2026-10-02T15:14:50Z</time><speed>11.550</speed><sat>35</sat></trkpt>
  <trkpt lat="39.92444530" lon="33.00101042"><ele>1000.347</ele><time>2026-10-02T15:14:51Z</time><speed>11.420</speed><sat>35</sat></trkpt>
  <trkpt lat="39.92450568" lon="33.00111758"><ele>1000.624</ele><time>2026-10-02T15:14:52Z</time><speed>11.130</speed><sat>35</sat></trkpt>
  <trkpt lat="39.92456178" lon="33.00122099"><ele>1000.493</ele><time>2026-10-02T15:14:53Z</time><speed>10.910</speed><sat>34</sat></trkpt>
  <trkpt lat="39.92461842" lon="33.00133094"><ele>1000.937</ele><time>2026-10-02T15:14:54Z</time><speed>10.780</speed><sat>34</sat></trkpt>
  <trkpt lat="39.92467599" lon="33.00143649"><ele>1001.014</ele><time>2026-10-02T15:14:55Z</time><speed>10.960</speed><sat>34</sat></trkpt>
  <trkpt lat="39.92473197" lon="33.00153400"><ele>1001.072</ele><time>2026-10-02T15:14:56Z</time><speed>10.680</speed><sat>34</sat></trkpt>
  <trkpt lat="39.92478708" lon="33.00163690"><ele>1001.218</ele><time>2026-10-02T15:14:57Z</time><speed>10.550</speed><sat>34</sat></trkpt>
  <trkpt lat="39.92484479" lon="33.00173772"><ele>1001.347</ele><time>2026-10-02T15:14:58Z</time><speed>10.700</speed><sat>33</sat></trkpt>
  <trkpt lat="39.92489985" lon="33.00183630"><ele>1001.389</ele><time>2026-10-02T15:14:59Z</time><speed>10.650</speed><sat>33</sat></trkpt>
  <trkpt lat="39.92495606" lon="33.00194004"><ele>1001.194</ele><time>2026-10-02T15:15:00Z</time><speed>11.080</speed><sat>31</sat></trkpt>
  <trkpt lat="39.92500992" lon="33.00204293"><ele>1001.165</ele><time>2026-10-02T15:15:01Z</time><speed>10.120</speed><sat>33</sat></trkpt>
  <trkpt lat="39.92506453" lon="33.00214499"><ele>1000.558</ele><time>2026-10-02T15:15:02Z</time><speed>10.620</speed><sat>34</sat></trkpt>
  <trkpt lat="39.92511326" lon="33.00224628"><ele>999.964</ele><time>2026-10-02T15:15:03Z</time><speed>10.340</speed><sat>34</sat></trkpt>
  <trkpt lat="39.92517749" lon="33.00232953"><ele>1001.106</ele><time>2026-10-02T15:15:04Z</time><speed>9.800</speed><sat>34</sat></trkpt>
  <trkpt lat="39.92523378" lon="33.00242856"><ele>1000.747</ele><time>2026-10-02T15:15:05Z</time><speed>10.310</speed><sat>34</sat></trkpt>
  <trkpt lat="39.92529244" lon="33.00252288"><ele>1000.908</ele><time>2026-10-02T15:15:06Z</time><speed>10.250</speed><sat>34</sat></trkpt>
  <trkpt lat="39.92535166" lon="33.00261872"><ele>1001.149</ele><time>2026-10-02T15:15:07Z</time><speed>10.000</speed><sat>34</sat></trkpt>
  <trkpt lat="39.92540311" lon="33.00271121"><ele>1001.872</ele><time>2026-10-02T15:15:08Z</time><speed>9.860</speed><sat>34</sat></trkpt>
  <trkpt lat="39.92545446" lon="33.00280401"><ele>1002.072</ele><time>2026-10-02T15:15:09Z</time><speed>9.640</speed><sat>34</sat></trkpt>
  <trkpt lat="39.92550531" lon="33.00289831"><ele>1002.235</ele><time>2026-10-02T15:15:10Z</time><speed>9.810</speed><sat>34</sat></trkpt>
  <trkpt lat="39.92555932" lon="33.00299145"><ele>1002.228</ele><time>2026-10-02T15:15:11Z</time><speed>9.970</speed><sat>34</sat></trkpt>
  <trkpt lat="39.92561226" lon="33.00308512"><ele>1001.916</ele><time>2026-10-02T15:15:12Z</time><speed>9.980</speed><sat>34</sat></trkpt>
  <trkpt lat="39.92566857" lon="33.00318029"><ele>1001.622</ele><time>2026-10-02T15:15:13Z</time><speed>10.260</speed><sat>33</sat></trkpt>
  <trkpt lat="39.92572935" lon="33.00327830"><ele>1001.815</ele><time>2026-10-02T15:15:14Z</time><speed>10.980</speed><sat>33</sat></trkpt>
  <trkpt lat="39.92578860" lon="33.00338141"><ele>1001.465</ele><time>2026-10-02T15:15:15Z</time><speed>11.150</speed><sat>35</sat></trkpt>
  <trkpt lat="39.92584356" lon="33.00349291"><ele>1001.577</ele><time>2026-10-02T15:15:16Z</time><speed>11.340</speed><sat>35</sat></trkpt>
  <trkpt lat="39.92590320" lon="33.00357807"><ele>1002.267</ele><time>2026-10-02T15:15:17Z</time><speed>10.110</speed><sat>35</sat></trkpt>
  <trkpt lat="39.92596190" lon="33.00367348"><ele>1002.267</ele><time>2026-10-02T15:15:18Z</time><speed>10.380</speed><sat>35</sat></trkpt>
  <trkpt lat="39.92601028" lon="33.00377976"><ele>1001.991</ele><time>2026-10-02T15:15:19Z</time><speed>10.300</speed><sat>35</sat></trkpt>
  <trkpt lat="39.92606318" lon="33.00386985"><ele>999.947</ele><time>2026-10-02T15:15:20Z</time><speed>9.560</speed><sat>36</sat></trkpt>
  <trkpt lat="39.92610910" lon="33.00395227"><ele>1001.264</ele><time>2026-10-02T15:15:21Z</time><speed>8.460</speed><sat>36</sat></trkpt>
  <trkpt lat="39.92614633" lon="33.00402529"><ele>1001.197</ele><time>2026-10-02T15:15:22Z</time><speed>6.820</speed><sat>36</sat></trkpt>
  <trkpt lat="39.92617313" lon="33.00408623"><ele>1001.276</ele><time>2026-10-02T15:15:23Z</time><speed>5.440</speed><sat>36</sat></trkpt>
  <trkpt lat="39.92618473" lon="33.00414109"><ele>1001.476</ele><time>2026-10-02T15:15:24Z</time><speed>4.220</speed><sat>36</sat></trkpt>
  <trkpt lat="39.92620187" lon="33.00417852"><ele>1001.394</ele><time>2026-10-02T15:15:25Z</time><speed>3.180</speed><sat>36</sat></trkpt>
  <trkpt lat="39.92621619" lon="33.00421043"><ele>1001.350</ele><time>2026-10-02T15:15:26Z</time><speed>2.630</speed><sat>35</sat></trkpt>
  <trkpt lat="39.92622669" lon="33.00423019"><ele>1001.693</ele><time>2026-10-02T15:15:27Z</time><speed>1.760</speed><sat>35</sat></trkpt>
  <trkpt lat="39.92623966" lon="33.00424906"><ele>1002.033</ele><time>2026-10-02T15:15:28Z</time><speed>2.060</speed><sat>35</sat></trkpt>
  <trkpt lat="39.92624939" lon="33.00427161"><ele>1001.984</ele><time>2026-10-02T15:15:29Z</time><speed>1.920</speed><sat>35</sat></trkpt>
  <trkpt lat="39.92625755" lon="33.00428377"><ele>1002.028</ele><time>2026-10-02T15:15:30Z</time><speed>1.350</speed><sat>35</sat></trkpt>
  <trkpt lat="39.92627375" lon="33.00429783"><ele>1002.611</ele><time>2026-10-02T15:15:31Z</time><speed>1.910</speed><sat>35</sat></trkpt>
  <trkpt lat="39.92627947" lon="33.00430662"><ele>1002.854</ele><time>2026-10-02T15:15:32Z</time><speed>0.850</speed><sat>35</sat></trkpt>
  <trkpt lat="39.92628998" lon="33.00431579"><ele>1003.098</ele><time>2026-10-02T15:15:33Z</time><speed>1.160</speed><sat>35</sat></trkpt>
  <trkpt lat="39.92630063" lon="33.00433139"><ele>1003.295</ele><time>2026-10-02T15:15:34Z</time><speed>2.060</speed><sat>35</sat></trkpt>
  <trkpt lat="39.92630784" lon="33.00435610"><ele>1003.134</ele><time>2026-10-02T15:15:35Z</time><speed>2.450</speed><sat>35</sat></trkpt>
  <trkpt lat="39.92631120" lon="33.00438636"><ele>1002.962</ele><time>2026-10-02T15:15:36Z</time><speed>2.800</speed><sat>35</sat></trkpt>
  <trkpt lat="39.92631088" lon="33.00441890"><ele>1002.903</ele><time>2026-10-02T15:15:37Z</time><speed>2.790</speed><sat>35</sat></trkpt>
  <trkpt lat="39.92629973" lon="33.00445518"><ele>1002.358</ele><time>2026-10-02T15:15:38Z</time><speed>3.770</speed><sat>35</sat></trkpt>
  <trkpt lat="39.92627854" lon="33.00449076"><ele>1002.568</ele><time>2026-10-02T15:15:39Z</time><speed>3.770</speed><sat>35</sat></trkpt>
  <trkpt lat="39.92624734" lon="33.00451673"><ele>1002.440</ele><time>2026-10-02T15:15:40Z</time><speed>4.100</speed><sat>35</sat></trkpt>
  <trkpt lat="39.92620941" lon="33.00453409"><ele>1002.410</ele><time>2026-10-02T15:15:41Z</time><speed>4.260</speed><sat>35</sat></trkpt>
  <trkpt lat="39.92617742" lon="33.00454588"><ele>1002.458</ele><time>2026-10-02T15:15:42Z</time><speed>2.880</speed><sat>35</sat></trkpt>
  <trkpt lat="39.92616386" lon="33.00454970"><ele>1002.707</ele><time>2026-10-02T15:15:43Z</time><speed>0.580</speed><sat>33</sat></trkpt>
  <trkpt lat="39.92616266" lon="33.00454775"><ele>1002.676</ele><time>2026-10-02T15:15:44Z</time><speed>0.210</speed><sat>34</sat></trkpt>
  <trkpt lat="39.92616324" lon="33.00454617"><ele>1002.834</ele><time>2026-10-02T15:15:45Z</time><speed>0.000</speed><sat>34</sat></trkpt>
  <trkpt lat="39.92616537" lon="33.00454733"><ele>1003.158</ele><time>2026-10-02T15:15:46Z</time><speed>0.360</speed><sat>34</sat></trkpt>
  <trkpt lat="39.92616697" lon="33.00455372"><ele>1003.307</ele><time>2026-10-02T15:15:47Z</time><speed>0.710</speed><sat>34</sat></trkpt>
  <trkpt lat="39.92616886" lon="33.00456402"><ele>1002.943</ele><time>2026-10-02T15:15:48Z</time><speed>0.550</speed><sat>34</sat></trkpt>
  <trkpt lat="39.92616739" lon="33.00456812"><ele>1002.859</ele><time>2026-10-02T15:15:49Z</time><speed>0.750</speed><sat>34</sat></trkpt>
  <trkpt lat="39.92616421" lon="33.00456814"><ele>1002.886</ele><time>2026-10-02T15:15:50Z</time><speed>0.380</speed><sat>34</sat></trkpt>
  <trkpt lat="39.92616128" lon="33.00456098"><ele>1002.792</ele><time>2026-10-02T15:15:51Z</time><speed>0.240</speed><sat>32</sat></trkpt>
  <trkpt lat="39.92615415" lon="33.00455978"><ele>1003.970</ele><time>2026-10-02T15:15:52Z</time><speed>1.470</speed><sat>30</sat></trkpt>
  <trkpt lat="39.92615059" lon="33.00456165"><ele>1002.705</ele><time>2026-10-02T15:15:53Z</time><speed>0.270</speed><sat>30</sat></trkpt>
  <trkpt lat="39.92615005" lon="33.00455942"><ele>1001.881</ele><time>2026-10-02T15:15:54Z</time><speed>0.440</speed><sat>31</sat></trkpt>
  <trkpt lat="39.92615929" lon="33.00455958"><ele>1002.572</ele><time>2026-10-02T15:15:55Z</time><speed>1.890</speed><sat>31</sat></trkpt>
  <trkpt lat="39.92617186" lon="33.00455647"><ele>1003.066</ele><time>2026-10-02T15:15:56Z</time><speed>0.760</speed><sat>33</sat></trkpt>
  <trkpt lat="39.92617625" lon="33.00455314"><ele>1003.229</ele><time>2026-10-02T15:15:57Z</time><speed>0.300</speed><sat>33</sat></trkpt>
  <trkpt lat="39.92617930" lon="33.00454833"><ele>1003.551</ele><time>2026-10-02T15:15:58Z</time><speed>0.500</speed><sat>33</sat></trkpt>
  <trkpt lat="39.92618011" lon="33.00454315"><ele>1004.662</ele><time>2026-10-02T15:15:59Z</time><speed>0.390</speed><sat>33</sat></trkpt>
  <trkpt lat="39.92617887" lon="33.00453885"><ele>1005.340</ele><time>2026-10-02T15:16:00Z</time><speed>0.250</speed><sat>33</sat></trkpt>
  <trkpt lat="39.92618059" lon="33.00453994"><ele>1005.010</ele><time>2026-10-02T15:16:01Z</time><speed>0.700</speed><sat>32</sat></trkpt>
  <trkpt lat="39.92618219" lon="33.00454115"><ele>1004.120</ele><time>2026-10-02T15:16:02Z</time><speed>0.220</speed><sat>32</sat></trkpt>
  <trkpt lat="39.92618521" lon="33.00453766"><ele>1003.860</ele><time>2026-10-02T15:16:03Z</time><speed>0.870</speed><sat>32</sat></trkpt>
  <trkpt lat="39.92619150" lon="33.00453220"><ele>1003.689</ele><time>2026-10-02T15:16:04Z</time><speed>0.870</speed><sat>32</sat></trkpt>
  <trkpt lat="39.92619661" lon="33.00452711"><ele>1003.358</ele><time>2026-10-02T15:16:05Z</time><speed>0.580</speed><sat>33</sat></trkpt>
  <trkpt lat="39.92619402" lon="33.00452287"><ele>1003.589</ele><time>2026-10-02T15:16:06Z</time><speed>0.000</speed><sat>33</sat></trkpt>
  <trkpt lat="39.92619148" lon="33.00452158"><ele>1003.833</ele><time>2026-10-02T15:16:07Z</time><speed>0.000</speed><sat>33</sat></trkpt>
  <trkpt lat="39.92619092" lon="33.00452279"><ele>1003.435</ele><time>2026-10-02T15:16:08Z</time><speed>0.000</speed><sat>34</sat></trkpt>
  <trkpt lat="39.92619105" lon="33.00452334"><ele>1003.493</ele><time>2026-10-02T15:16:09Z</time><speed>0.000</speed><sat>34</sat></trkpt>
  <trkpt lat="39.92619102" lon="33.00452440"><ele>1003.813</ele><time>2026-10-02T15:16:10Z</time><speed>0.000</speed><sat>34</sat></trkpt>
  <trkpt lat="39.92619090" lon="33.00452503"><ele>1003.801</ele><time>2026-10-02T15:16:11Z</time><speed>0.000</speed><sat>34</sat></trkpt>
  <trkpt lat="39.92619139" lon="33.00452508"><ele>1003.825</ele><time>2026-10-02T15:16:12Z</time><speed>0.000</speed><sat>34</sat></trkpt>
  <trkpt lat="39.92619230" lon="33.00452492"><ele>1003.939</ele><time>2026-10-02T15:16:13Z</time><speed>0.000</speed><sat>34</sat></trkpt>
  <trkpt lat="39.92619279" lon="33.00452516"><ele>1003.865</ele><time>2026-10-02T15:16:14Z</time><speed>0.000</speed><sat>33</sat></trkpt>
  <trkpt lat="39.92619305" lon="33.00452571"><ele>1003.900</ele><time>2026-10-02T15:16:15Z</time><speed>0.000</speed><sat>33</sat></trkpt>
  <trkpt lat="39.92619314" lon="33.00452597"><ele>1003.896</ele><time>2026-10-02T15:16:16Z</time><speed>0.000</speed><sat>33</sat></trkpt>
  <trkpt lat="39.92619357" lon="33.00452628"><ele>1003.980</ele><time>2026-10-02T15:16:17Z</time><speed>0.000</speed><sat>33</sat></trkpt>
  <trkpt lat="39.92619402" lon="33.00452643"><ele>1004.011</ele><time>2026-10-02T15:16:18Z</time><speed>0.000</speed><sat>33</sat></trkpt>
  <trkpt lat="39.92619439" lon="33.00452652"><ele>1004.019</ele><time>2026-10-02T15:16:19Z</time><speed>0.000</speed><sat>34</sat></trkpt>
  <trkpt lat="39.92619465" lon="33.00452658"><ele>1004.021</ele><time>2026-10-02T15:16:20Z</time><speed>0.000</speed><sat>32</sat></trkpt>
  <trkpt lat="39.92619493" lon="33.00452671"><ele>1004.012</ele><time>2026-10-02T15:16:21Z</time><speed>0.000</speed><sat>32</sat></trkpt>
  <trkpt lat="39.92619765" lon="33.00452355"><ele>1004.060</ele><time>2026-10-02T15:16:22Z</time><speed>0.490</speed><sat>34</sat></trkpt>
  <trkpt lat="39.92620115" lon="33.00451856"><ele>1003.679</ele><time>2026-10-02T15:16:23Z</time><speed>0.540</speed><sat>34</sat></trkpt>
  <trkpt lat="39.92620700" lon="33.00450798"><ele>1004.242</ele><time>2026-10-02T15:16:24Z</time><speed>1.290</speed><sat>34</sat></trkpt>
  <trkpt lat="39.92621027" lon="33.00449802"><ele>1004.243</ele><time>2026-10-02T15:16:25Z</time><speed>0.460</speed><sat>35</sat></trkpt>
  <trkpt lat="39.92621259" lon="33.00448584"><ele>1003.829</ele><time>2026-10-02T15:16:26Z</time><speed>1.200</speed><sat>35</sat></trkpt>
  <trkpt lat="39.92621423" lon="33.00447266"><ele>1004.121</ele><time>2026-10-02T15:16:27Z</time><speed>0.890</speed><sat>35</sat></trkpt>
  <trkpt lat="39.92621467" lon="33.00445053"><ele>1004.311</ele><time>2026-10-02T15:16:28Z</time><speed>2.380</speed><sat>34</sat></trkpt>
  <trkpt lat="39.92621194" lon="33.00442393"><ele>1003.288</ele><time>2026-10-02T15:16:29Z</time><speed>2.100</speed><sat>34</sat></trkpt>
  <trkpt lat="39.92621432" lon="33.00440958"><ele>1002.556</ele><time>2026-10-02T15:16:30Z</time><speed>0.910</speed><sat>33</sat></trkpt>
  <trkpt lat="39.92621526" lon="33.00439698"><ele>1002.682</ele><time>2026-10-02T15:16:31Z</time><speed>1.580</speed><sat>33</sat></trkpt>
  <trkpt lat="39.92622013" lon="33.00438502"><ele>1004.640</ele><time>2026-10-02T15:16:32Z</time><speed>0.850</speed><sat>33</sat></trkpt>
  <trkpt lat="39.92622694" lon="33.00437803"><ele>1005.140</ele><time>2026-10-02T15:16:33Z</time><speed>0.660</speed><sat>32</sat></trkpt>
  <trkpt lat="39.92624721" lon="33.00437968"><ele>1005.519</ele><time>2026-10-02T15:16:34Z</time><speed>0.000</speed><sat>32</sat></trkpt>
  <trkpt lat="39.92625872" lon="33.00438110"><ele>1005.513</ele><time>2026-10-02T15:16:35Z</time><speed>0.000</speed><sat>33</sat></trkpt>
  <trkpt lat="39.92626397" lon="33.00438155"><ele>1005.447</ele><time>2026-10-02T15:16:36Z</time><speed>0.000</speed><sat>34</sat></trkpt>
  <trkpt lat="39.92626449" lon="33.00437958"><ele>1005.318</ele><time>2026-10-02T15:16:37Z</time><speed>0.290</speed><sat>34</sat></trkpt>
  <trkpt lat="39.92626654" lon="33.00437567"><ele>1005.481</ele><time>2026-10-02T15:16:38Z</time><speed>0.000</speed><sat>34</sat></trkpt>
  <trkpt lat="39.92626986" lon="33.00437226"><ele>1005.840</ele><time>2026-10-02T15:16:39Z</time><speed>0.360</speed><sat>34</sat></trkpt>
  <trkpt lat="39.92627264" lon="33.00437021"><ele>1005.854</ele><time>2026-10-02T15:16:40Z</time><speed>0.000</speed><sat>34</sat></trkpt>
  <trkpt lat="39.92627406" lon="33.00437020"><ele>1005.847</ele><time>2026-10-02T15:16:41Z</time><speed>0.000</speed><sat>34</sat></trkpt>
  <trkpt lat="39.92627402" lon="33.00436921"><ele>1006.110</ele><time>2026-10-02T15:16:42Z</time><speed>0.000</speed><sat>34</sat></trkpt>
  <trkpt lat="39.92627473" lon="33.00436638"><ele>1006.512</ele><time>2026-10-02T15:16:43Z</time><speed>0.000</speed><sat>34</sat></trkpt>
  <trkpt lat="39.92627358" lon="33.00436284"><ele>1006.653</ele><time>2026-10-02T15:16:44Z</time><speed>0.000</speed><sat>34</sat></trkpt>
  <trkpt lat="39.92627293" lon="33.00436115"><ele>1006.508</ele><time>2026-10-02T15:16:45Z</time><speed>0.000</speed><sat>35</sat></trkpt>
  <trkpt lat="39.92627260" lon="33.00436030"><ele>1006.485</ele><time>2026-10-02T15:16:46Z</time><speed>0.000</speed><sat>35</sat></trkpt>
  <trkpt lat="39.92627247" lon="33.00435980"><ele>1006.323</ele><time>2026-10-02T15:16:47Z</time><speed>0.000</speed><sat>35</sat></trkpt>
  <trkpt lat="39.92627234" lon="33.00435957"><ele>1006.364</ele><time>2026-10-02T15:16:48Z</time><speed>0.000</speed><sat>35</sat></trkpt>
  <trkpt lat="39.92627226" lon="33.00435937"><ele>1006.243</ele><time>2026-10-02T15:16:49Z</time><speed>0.000</speed><sat>35</sat></trkpt>
  <trkpt lat="39.92627215" lon="33.00435924"><ele>1006.172</ele><time>2026-10-02T15:16:50Z</time><speed>0.000</speed><sat>36</sat></trkpt>
  <trkpt lat="39.92627208" lon="33.00435916"><ele>1006.136</ele><time>2026-10-02T15:16:51Z</time><speed>0.000</speed><sat>33</sat></trkpt>
  <trkpt lat="39.92627203" lon="33.00435911"><ele>1006.134</ele><time>2026-10-02T15:16:52Z</time><speed>0.000</speed><sat>32</sat></trkpt>
  <trkpt lat="39.92627200" lon="33.00435908"><ele>1006.128</ele><time>2026-10-02T15:16:53Z</time><speed>0.000</speed><sat>33</sat></trkpt>
  <trkpt lat="39.92627199" lon="33.00435906"><ele>1006.127</ele><time>2026-10-02T15:16:54Z</time><speed>0.000</speed><sat>33</sat></trkpt>
  <trkpt lat="39.92627198" lon="33.00435904"><ele>1006.129</ele><time>2026-10-02T15:16:55Z</time><speed>0.000</speed><sat>33</sat></trkpt>
  <trkpt lat="39.92627196" lon="33.00435903"><ele>1006.129</ele><time>2026-10-02T15:16:56Z</time><speed>0.000</speed><sat>32</sat></trkpt>
  <trkpt lat="39.92627200" lon="33.00435885"><ele>1006.148</ele><time>2026-10-02T15:16:57Z</time><speed>0.000</speed><sat>33</sat></trkpt>
  <trkpt lat="39.92627216" lon="33.00435869"><ele>1006.199</ele><time>2026-10-02T15:16:58Z</time><speed>0.000</speed><sat>36</sat></trkpt>
  <trkpt lat="39.92627241" lon="33.00435849"><ele>1006.260</ele><time>2026-10-02T15:16:59Z</time><speed>0.000</speed><sat>35</sat></trkpt>
  <trkpt lat="39.92627255" lon="33.00435836"><ele>1006.264</ele><time>2026-10-02T15:17:00Z</time><speed>0.000</speed><sat>36</sat></trkpt>
  <trkpt lat="39.92627263" lon="33.00435829"><ele>1006.267</ele><time>2026-10-02T15:17:01Z</time><speed>0.000</speed><sat>36</sat></trkpt>
  <trkpt lat="39.92626951" lon="33.00434838"><ele>1006.019</ele><time>2026-10-02T15:17:02Z</time><speed>0.940</speed><sat>36</sat></trkpt>
  <trkpt lat="39.92626418" lon="33.00433669"><ele>1005.777</ele><time>2026-10-02T15:17:03Z</time><speed>0.950</speed><sat>36</sat></trkpt>
  <trkpt lat="39.92625815" lon="33.00433020"><ele>1004.795</ele><time>2026-10-02T15:17:04Z</time><speed>0.750</speed><sat>36</sat></trkpt>
  <trkpt lat="39.92625108" lon="33.00432585"><ele>1004.550</ele><time>2026-10-02T15:17:05Z</time><speed>0.560</speed><sat>37</sat></trkpt>
  <trkpt lat="39.92624551" lon="33.00432395"><ele>1004.302</ele><time>2026-10-02T15:17:06Z</time><speed>0.350</speed><sat>36</sat></trkpt>
  <trkpt lat="39.92624192" lon="33.00432431"><ele>1003.777</ele><time>2026-10-02T15:17:07Z</time><speed>0.000</speed><sat>36</sat></trkpt>
  <trkpt lat="39.92624151" lon="33.00432684"><ele>1003.617</ele><time>2026-10-02T15:17:08Z</time><speed>0.000</speed><sat>36</sat></trkpt>
  <trkpt lat="39.92624082" lon="33.00432829"><ele>1003.464</ele><time>2026-10-02T15:17:09Z</time><speed>0.000</speed><sat>35</sat></trkpt>
  <trkpt lat="39.92624109" lon="33.00432849"><ele>1003.499</ele><time>2026-10-02T15:17:10Z</time><speed>0.000</speed><sat>35</sat></trkpt>
  <trkpt lat="39.92624018" lon="33.00432586"><ele>1003.061</ele><time>2026-10-02T15:17:11Z</time><speed>0.330</speed><sat>35</sat></trkpt>
  <trkpt lat="39.92624270" lon="33.00432431"><ele>1002.758</ele><time>2026-10-02T15:17:12Z</time><speed>0.360</speed><sat>35</sat></trkpt>
  <trkpt lat="39.92624424" lon="33.00432171"><ele>1002.257</ele><time>2026-10-02T15:17:13Z</time><speed>0.470</speed><sat>37</sat></trkpt>
  <trkpt lat="39.92623693" lon="33.00432648"><ele>1002.323</ele><time>2026-10-02T15:17:14.669Z</time><speed>0.000</speed><sat>37</sat></trkpt>
  <trkpt lat="39.92623700" lon="33.00432629"><ele>1002.346</ele><time>2026-10-02T15:17:16Z</time><speed>0.000</speed><sat>37</sat></trkpt>
  <trkpt lat="39.92623373" lon="33.00432155"><ele>1002.708</ele><time>2026-10-02T15:17:17Z</time><speed>0.000</speed><sat>36</sat></trkpt>
  <trkpt lat="39.92623205" lon="33.00431638"><ele>1002.781</ele><time>2026-10-02T15:17:18Z</time><speed>0.000</speed><sat>36</sat></trkpt>
  <trkpt lat="39.92623159" lon="33.00431205"><ele>1002.733</ele><time>2026-10-02T15:17:19Z</time><speed>0.000</speed><sat>36</sat></trkpt>
  <trkpt lat="39.92623189" lon="33.00430713"><ele>1002.461</ele><time>2026-10-02T15:17:20Z</time><speed>0.000</speed><sat>35</sat></trkpt>
  <trkpt lat="39.92623226" lon="33.00430297"><ele>1002.319</ele><time>2026-10-02T15:17:21Z</time><speed>0.000</speed><sat>35</sat></trkpt>
  <trkpt lat="39.92623258" lon="33.00429995"><ele>1002.263</ele><time>2026-10-02T15:17:22Z</time><speed>0.000</speed><sat>35</sat></trkpt>
  <trkpt lat="39.92623378" lon="33.00429880"><ele>1002.080</ele><time>2026-10-02T15:17:23Z</time><speed>0.000</speed><sat>37</sat></trkpt>
  <trkpt lat="39.92623413" lon="33.00429760"><ele>1002.138</ele><time>2026-10-02T15:17:24Z</time><speed>0.000</speed><sat>37</sat></trkpt>
  <trkpt lat="39.92623429" lon="33.00429655"><ele>1002.222</ele><time>2026-10-02T15:17:25Z</time><speed>0.000</speed><sat>37</sat></trkpt>
  <trkpt lat="39.92623427" lon="33.00429577"><ele>1002.292</ele><time>2026-10-02T15:17:26Z</time><speed>0.000</speed><sat>37</sat></trkpt>
  <trkpt lat="39.92623423" lon="33.00429541"><ele>1002.322</ele><time>2026-10-02T15:17:27Z</time><speed>0.000</speed><sat>37</sat></trkpt>
  <trkpt lat="39.92623407" lon="33.00429508"><ele>1002.352</ele><time>2026-10-02T15:17:28Z</time><speed>0.000</speed><sat>37</sat></trkpt>
  <trkpt lat="39.92623392" lon="33.00429484"><ele>1002.371</ele><time>2026-10-02T15:17:29Z</time><speed>0.000</speed><sat>37</sat></trkpt>
  <trkpt lat="39.92623382" lon="33.00429471"><ele>1002.387</ele><time>2026-10-02T15:17:30Z</time><speed>0.000</speed><sat>37</sat></trkpt>
  <trkpt lat="39.92623377" lon="33.00429465"><ele>1002.388</ele><time>2026-10-02T15:17:31Z</time><speed>0.000</speed><sat>37</sat></trkpt>
  <trkpt lat="39.92623372" lon="33.00429460"><ele>1002.393</ele><time>2026-10-02T15:17:32Z</time><speed>0.000</speed><sat>37</sat></trkpt>
  <trkpt lat="39.92623366" lon="33.00429457"><ele>1002.398</ele><time>2026-10-02T15:17:33Z</time><speed>0.000</speed><sat>37</sat></trkpt>
  <trkpt lat="39.92623352" lon="33.00429448"><ele>1002.421</ele><time>2026-10-02T15:17:34Z</time><speed>0.000</speed><sat>37</sat></trkpt>
  <trkpt lat="39.92623327" lon="33.00429433"><ele>1002.403</ele><time>2026-10-02T15:17:35Z</time><speed>0.000</speed><sat>36</sat></trkpt>
  <trkpt lat="39.92623300" lon="33.00429416"><ele>1002.412</ele><time>2026-10-02T15:17:36Z</time><speed>0.000</speed><sat>37</sat></trkpt>
  <trkpt lat="39.92623264" lon="33.00429393"><ele>1002.400</ele><time>2026-10-02T15:17:37Z</time><speed>0.000</speed><sat>37</sat></trkpt>
  <trkpt lat="39.92623242" lon="33.00429381"><ele>1002.406</ele><time>2026-10-02T15:17:38Z</time><speed>0.000</speed><sat>37</sat></trkpt>
  <trkpt lat="39.92623223" lon="33.00429376"><ele>1002.391</ele><time>2026-10-02T15:17:39Z</time><speed>0.000</speed><sat>37</sat></trkpt>
  <trkpt lat="39.92623212" lon="33.00429374"><ele>1002.396</ele><time>2026-10-02T15:17:40Z</time><speed>0.000</speed><sat>37</sat></trkpt>
  <trkpt lat="39.92623199" lon="33.00429374"><ele>1002.386</ele><time>2026-10-02T15:17:41Z</time><speed>0.000</speed><sat>37</sat></trkpt>
  <trkpt lat="39.92623190" lon="33.00429374"><ele>1002.389</ele><time>2026-10-02T15:17:42Z</time><speed>0.000</speed><sat>37</sat></trkpt>
  <trkpt lat="39.92623180" lon="33.00429372"><ele>1002.391</ele><time>2026-10-02T15:17:43Z</time><speed>0.000</speed><sat>37</sat></trkpt>
  <trkpt lat="39.92622968" lon="33.00429449"><ele>1002.418</ele><time>2026-10-02T15:17:44Z</time><speed>0.290</speed><sat>37</sat></trkpt>
  <trkpt lat="39.92622300" lon="33.00429354"><ele>1002.566</ele><time>2026-10-02T15:17:45Z</time><speed>0.910</speed><sat>37</sat></trkpt>
  <trkpt lat="39.92621175" lon="33.00429094"><ele>1002.618</ele><time>2026-10-02T15:17:46Z</time><speed>1.400</speed><sat>37</sat></trkpt>
  <trkpt lat="39.92619720" lon="33.00428783"><ele>1002.869</ele><time>2026-10-02T15:17:47Z</time><speed>1.600</speed><sat>37</sat></trkpt>
  <trkpt lat="39.92618311" lon="33.00428436"><ele>1002.868</ele><time>2026-10-02T15:17:48Z</time><speed>1.400</speed><sat>36</sat></trkpt>
  <trkpt lat="39.92617007" lon="33.00427961"><ele>1003.143</ele><time>2026-10-02T15:17:49Z</time><speed>1.490</speed><sat>36</sat></trkpt>
  <trkpt lat="39.92615867" lon="33.00426896"><ele>1003.391</ele><time>2026-10-02T15:17:50Z</time><speed>1.710</speed><sat>35</sat></trkpt>
  <trkpt lat="39.92614934" lon="33.00425554"><ele>1003.637</ele><time>2026-10-02T15:17:51Z</time><speed>1.470</speed><sat>35</sat></trkpt>
  <trkpt lat="39.92614188" lon="33.00424173"><ele>1003.835</ele><time>2026-10-02T15:17:52Z</time><speed>1.520</speed><sat>35</sat></trkpt>
  <trkpt lat="39.92613384" lon="33.00422774"><ele>1003.887</ele><time>2026-10-02T15:17:53Z</time><speed>1.600</speed><sat>35</sat></trkpt>
  <trkpt lat="39.92612497" lon="33.00421349"><ele>1003.940</ele><time>2026-10-02T15:17:54Z</time><speed>1.580</speed><sat>35</sat></trkpt>
  <trkpt lat="39.92611649" lon="33.00420048"><ele>1003.885</ele><time>2026-10-02T15:17:55Z</time><speed>1.390</speed><sat>35</sat></trkpt>
  <trkpt lat="39.92610866" lon="33.00418799"><ele>1004.120</ele><time>2026-10-02T15:17:56Z</time><speed>1.430</speed><sat>35</sat></trkpt>
  <trkpt lat="39.92610160" lon="33.00417565"><ele>1004.143</ele><time>2026-10-02T15:17:57Z</time><speed>1.310</speed><sat>35</sat></trkpt>
  <trkpt lat="39.92609512" lon="33.00416264"><ele>1004.084</ele><time>2026-10-02T15:17:58Z</time><speed>1.400</speed><sat>35</sat></trkpt>
  <trkpt lat="39.92608828" lon="33.00414969"><ele>1004.136</ele><time>2026-10-02T15:17:59Z</time><speed>1.360</speed><sat>35</sat></trkpt>
  <trkpt lat="39.92608119" lon="33.00413653"><ele>1004.095</ele><time>2026-10-02T15:18:00Z</time><speed>1.350</speed><sat>35</sat></trkpt>
  <trkpt lat="39.92607476" lon="33.00412325"><ele>1004.208</ele><time>2026-10-02T15:18:01Z</time><speed>1.290</speed><sat>36</sat></trkpt>
  <trkpt lat="39.92606790" lon="33.00410934"><ele>1004.481</ele><time>2026-10-02T15:18:02Z</time><speed>1.420</speed><sat>36</sat></trkpt>
  <trkpt lat="39.92606022" lon="33.00409527"><ele>1004.427</ele><time>2026-10-02T15:18:03Z</time><speed>1.360</speed><sat>36</sat></trkpt>
  <trkpt lat="39.92605231" lon="33.00408242"><ele>1004.435</ele><time>2026-10-02T15:18:04Z</time><speed>1.360</speed><sat>36</sat></trkpt>
  <trkpt lat="39.92604442" lon="33.00406820"><ele>1004.538</ele><time>2026-10-02T15:18:05Z</time><speed>1.480</speed><sat>36</sat></trkpt>
  <trkpt lat="39.92603839" lon="33.00405420"><ele>1004.904</ele><time>2026-10-02T15:18:06Z</time><speed>1.330</speed><sat>36</sat></trkpt>
  <trkpt lat="39.92603487" lon="33.00403922"><ele>1004.785</ele><time>2026-10-02T15:18:07Z</time><speed>1.340</speed><sat>35</sat></trkpt>
  <trkpt lat="39.92603222" lon="33.00402550"><ele>1004.689</ele><time>2026-10-02T15:18:08Z</time><speed>1.240</speed><sat>35</sat></trkpt>
  <trkpt lat="39.92602817" lon="33.00401241"><ele>1004.666</ele><time>2026-10-02T15:18:09Z</time><speed>1.290</speed><sat>35</sat></trkpt>
  <trkpt lat="39.92602232" lon="33.00400016"><ele>1004.906</ele><time>2026-10-02T15:18:10Z</time><speed>1.240</speed><sat>35</sat></trkpt>
  <trkpt lat="39.92601593" lon="33.00399008"><ele>1004.840</ele><time>2026-10-02T15:18:11Z</time><speed>1.110</speed><sat>35</sat></trkpt>
  <trkpt lat="39.92600943" lon="33.00398067"><ele>1004.901</ele><time>2026-10-02T15:18:12Z</time><speed>1.120</speed><sat>35</sat></trkpt>
  <trkpt lat="39.92600236" lon="33.00397045"><ele>1004.953</ele><time>2026-10-02T15:18:13Z</time><speed>1.220</speed><sat>35</sat></trkpt>
  <trkpt lat="39.92599477" lon="33.00396033"><ele>1005.078</ele><time>2026-10-02T15:18:14Z</time><speed>1.210</speed><sat>35</sat></trkpt>
  <trkpt lat="39.92598692" lon="33.00395061"><ele>1005.518</ele><time>2026-10-02T15:18:15Z</time><speed>1.230</speed><sat>35</sat></trkpt>
  <trkpt lat="39.92597921" lon="33.00394109"><ele>1005.661</ele><time>2026-10-02T15:18:16Z</time><speed>1.200</speed><sat>35</sat></trkpt>
  <trkpt lat="39.92597145" lon="33.00393155"><ele>1005.815</ele><time>2026-10-02T15:18:17Z</time><speed>1.180</speed><sat>35</sat></trkpt>
  <trkpt lat="39.92596362" lon="33.00392164"><ele>1005.682</ele><time>2026-10-02T15:18:18Z</time><speed>1.210</speed><sat>35</sat></trkpt>
  <trkpt lat="39.92595561" lon="33.00391077"><ele>1005.550</ele><time>2026-10-02T15:18:19Z</time><speed>1.310</speed><sat>35</sat></trkpt>
  <trkpt lat="39.92594816" lon="33.00389942"><ele>1005.793</ele><time>2026-10-02T15:18:20Z</time><speed>1.190</speed><sat>35</sat></trkpt>
  <trkpt lat="39.92594045" lon="33.00388846"><ele>1005.976</ele><time>2026-10-02T15:18:21Z</time><speed>1.260</speed><sat>35</sat></trkpt>
  <trkpt lat="39.92593122" lon="33.00387724"><ele>1005.999</ele><time>2026-10-02T15:18:22Z</time><speed>1.410</speed><sat>35</sat></trkpt>
  <trkpt lat="39.92592158" lon="33.00386579"><ele>1006.693</ele><time>2026-10-02T15:18:23Z</time><speed>1.390</speed><sat>35</sat></trkpt>
  <trkpt lat="39.92591339" lon="33.00385438"><ele>1006.795</ele><time>2026-10-02T15:18:24Z</time><speed>1.230</speed><sat>35</sat></trkpt>
  <trkpt lat="39.92590609" lon="33.00384311"><ele>1006.509</ele><time>2026-10-02T15:18:25Z</time><speed>1.230</speed><sat>35</sat></trkpt>
  <trkpt lat="39.92589607" lon="33.00383170"><ele>1006.591</ele><time>2026-10-02T15:18:26Z</time><speed>1.630</speed><sat>35</sat></trkpt>
  <trkpt lat="39.92588185" lon="33.00382057"><ele>1007.289</ele><time>2026-10-02T15:18:27Z</time><speed>1.910</speed><sat>35</sat></trkpt>
  <trkpt lat="39.92586839" lon="33.00381367"><ele>1007.055</ele><time>2026-10-02T15:18:28Z</time><speed>1.370</speed><sat>36</sat></trkpt>
  <trkpt lat="39.92585756" lon="33.00380915"><ele>1007.094</ele><time>2026-10-02T15:18:29Z</time><speed>1.220</speed><sat>36</sat></trkpt>
  <trkpt lat="39.92584745" lon="33.00380366"><ele>1007.250</ele><time>2026-10-02T15:18:30Z</time><speed>1.220</speed><sat>36</sat></trkpt>
  <trkpt lat="39.92583791" lon="33.00379716"><ele>1007.274</ele><time>2026-10-02T15:18:31Z</time><speed>1.200</speed><sat>36</sat></trkpt>
  <trkpt lat="39.92582773" lon="33.00378928"><ele>1007.392</ele><time>2026-10-02T15:18:32Z</time><speed>1.290</speed><sat>35</sat></trkpt>
  <trkpt lat="39.92581732" lon="33.00378101"><ele>1007.522</ele><time>2026-10-02T15:18:33Z</time><speed>1.300</speed><sat>35</sat></trkpt>
  <trkpt lat="39.92580759" lon="33.00377419"><ele>1007.868</ele><time>2026-10-02T15:18:34Z</time><speed>1.190</speed><sat>35</sat></trkpt>
  <trkpt lat="39.92579762" lon="33.00376780"><ele>1007.849</ele><time>2026-10-02T15:18:35Z</time><speed>1.210</speed><sat>35</sat></trkpt>
  <trkpt lat="39.92578751" lon="33.00376096"><ele>1007.362</ele><time>2026-10-02T15:18:36Z</time><speed>1.200</speed><sat>35</sat></trkpt>
  <trkpt lat="39.92577736" lon="33.00375375"><ele>1007.396</ele><time>2026-10-02T15:18:37Z</time><speed>1.210</speed><sat>35</sat></trkpt>
  <trkpt lat="39.92576747" lon="33.00374610"><ele>1006.912</ele><time>2026-10-02T15:18:38Z</time><speed>1.240</speed><sat>36</sat></trkpt>
  <trkpt lat="39.92575785" lon="33.00373739"><ele>1006.807</ele><time>2026-10-02T15:18:39Z</time><speed>1.270</speed><sat>36</sat></trkpt>
  <trkpt lat="39.92574953" lon="33.00372728"><ele>1005.962</ele><time>2026-10-02T15:18:40Z</time><speed>1.280</speed><sat>36</sat></trkpt>
  <trkpt lat="39.92574271" lon="33.00371534"><ele>1005.585</ele><time>2026-10-02T15:18:41Z</time><speed>1.370</speed><sat>36</sat></trkpt>
  <trkpt lat="39.92573714" lon="33.00370150"><ele>1004.996</ele><time>2026-10-02T15:18:42Z</time><speed>1.370</speed><sat>37</sat></trkpt>
  <trkpt lat="39.92573363" lon="33.00368795"><ele>1004.772</ele><time>2026-10-02T15:18:43Z</time><speed>1.200</speed><sat>37</sat></trkpt>
  <trkpt lat="39.92573171" lon="33.00367378"><ele>1004.851</ele><time>2026-10-02T15:18:44Z</time><speed>1.290</speed><sat>37</sat></trkpt>
  <trkpt lat="39.92573022" lon="33.00365884"><ele>1004.424</ele><time>2026-10-02T15:18:45Z</time><speed>1.300</speed><sat>37</sat></trkpt>
  <trkpt lat="39.92572881" lon="33.00364316"><ele>1004.048</ele><time>2026-10-02T15:18:46Z</time><speed>1.440</speed><sat>37</sat></trkpt>
  <trkpt lat="39.92572769" lon="33.00362787"><ele>1003.821</ele><time>2026-10-02T15:18:47Z</time><speed>1.290</speed><sat>38</sat></trkpt>
  <trkpt lat="39.92572774" lon="33.00361359"><ele>1003.849</ele><time>2026-10-02T15:18:48Z</time><speed>1.140</speed><sat>38</sat></trkpt>
  <trkpt lat="39.92572973" lon="33.00359879"><ele>1003.865</ele><time>2026-10-02T15:18:49Z</time><speed>1.300</speed><sat>38</sat></trkpt>
  <trkpt lat="39.92573160" lon="33.00358267"><ele>1003.967</ele><time>2026-10-02T15:18:50Z</time><speed>1.360</speed><sat>38</sat></trkpt>
  <trkpt lat="39.92573154" lon="33.00356659"><ele>1003.982</ele><time>2026-10-02T15:18:51Z</time><speed>1.380</speed><sat>38</sat></trkpt>
  <trkpt lat="39.92573002" lon="33.00355154"><ele>1003.942</ele><time>2026-10-02T15:18:52Z</time><speed>1.260</speed><sat>37</sat></trkpt>
  <trkpt lat="39.92572827" lon="33.00353776"><ele>1003.717</ele><time>2026-10-02T15:18:53Z</time><speed>1.220</speed><sat>36</sat></trkpt>
  <trkpt lat="39.92572692" lon="33.00352392"><ele>1003.556</ele><time>2026-10-02T15:18:54Z</time><speed>1.170</speed><sat>36</sat></trkpt>
  <trkpt lat="39.92572511" lon="33.00351026"><ele>1003.664</ele><time>2026-10-02T15:18:55Z</time><speed>1.140</speed><sat>36</sat></trkpt>
  <trkpt lat="39.92572214" lon="33.00349771"><ele>1003.665</ele><time>2026-10-02T15:18:56Z</time><speed>1.120</speed><sat>36</sat></trkpt>
  <trkpt lat="39.92571814" lon="33.00348575"><ele>1003.683</ele><time>2026-10-02T15:18:57Z</time><speed>1.060</speed><sat>37</sat></trkpt>
  <trkpt lat="39.92571359" lon="33.00347434"><ele>1003.628</ele><time>2026-10-02T15:18:58Z</time><speed>1.100</speed><sat>37</sat></trkpt>
  <trkpt lat="39.92570839" lon="33.00346263"><ele>1003.490</ele><time>2026-10-02T15:18:59Z</time><speed>1.180</speed><sat>36</sat></trkpt>
  <trkpt lat="39.92570306" lon="33.00345134"><ele>1003.608</ele><time>2026-10-02T15:19:00Z</time><speed>1.110</speed><sat>36</sat></trkpt>
  <trkpt lat="39.92569608" lon="33.00343989"><ele>1003.291</ele><time>2026-10-02T15:19:01Z</time><speed>1.330</speed><sat>36</sat></trkpt>
  <trkpt lat="39.92568863" lon="33.00342865"><ele>1003.015</ele><time>2026-10-02T15:19:02Z</time><speed>1.210</speed><sat>36</sat></trkpt>
  <trkpt lat="39.92568079" lon="33.00341897"><ele>1002.791</ele><time>2026-10-02T15:19:03Z</time><speed>1.250</speed><sat>36</sat></trkpt>
  <trkpt lat="39.92567104" lon="33.00340802"><ele>1002.879</ele><time>2026-10-02T15:19:04Z</time><speed>1.510</speed><sat>36</sat></trkpt>
  <trkpt lat="39.92566017" lon="33.00339624"><ele>1003.152</ele><time>2026-10-02T15:19:05Z</time><speed>1.460</speed><sat>36</sat></trkpt>
  <trkpt lat="39.92564993" lon="33.00338453"><ele>1002.917</ele><time>2026-10-02T15:19:06Z</time><speed>1.450</speed><sat>36</sat></trkpt>
  <trkpt lat="39.92563999" lon="33.00337219"><ele>1003.060</ele><time>2026-10-02T15:19:07Z</time><speed>1.490</speed><sat>37</sat></trkpt>
  <trkpt lat="39.92563125" lon="33.00335919"><ele>1002.998</ele><time>2026-10-02T15:19:08Z</time><speed>1.440</speed><sat>37</sat></trkpt>
  <trkpt lat="39.92562321" lon="33.00334578"><ele>1002.968</ele><time>2026-10-02T15:19:09Z</time><speed>1.430</speed><sat>37</sat></trkpt>
  <trkpt lat="39.92561576" lon="33.00333200"><ele>1003.130</ele><time>2026-10-02T15:19:10Z</time><speed>1.400</speed><sat>37</sat></trkpt>
  <trkpt lat="39.92561081" lon="33.00331960"><ele>1003.190</ele><time>2026-10-02T15:19:11Z</time><speed>1.050</speed><sat>37</sat></trkpt>
  <trkpt lat="39.92560975" lon="33.00330633"><ele>1003.634</ele><time>2026-10-02T15:19:12Z</time><speed>1.250</speed><sat>36</sat></trkpt>
 </trkseg>
</trk>

</gpx>
 