<?xml version="1.0" encoding="UTF-8"?>
<!-- Created with BasicAirData GPS Logger for Android - ver. 3.3.0 -->
<!-- Track 40 = 528 TrackPoints + 0 Placemarks -->

<!-- Track Statistics (based on Total Time | Time in Movement): -->
<!--  Distance = 7.17 km -->
<!--  Duration = 08:47 | 08:13 -->
<!--  Altitude Gap = 115 m -->
<!--  Max Speed = 102 km/h -->
<!--  Avg Speed = 49.0 | 52.4 km/h -->
<!--  Direction = NE -->
<!--  Activity = car -->
<!--  Altitudes = Raw -->

<gpx version="1.0"
     creator="BasicAirData GPS Logger 3.3.0"
     xmlns="http://www.topografix.com/GPX/1/0"
     xmlns:xsi="http://www.w3.org/2001/XMLSchema-instance"
     xsi:schemaLocation="http://www.topografix.com/GPX/1/0 http://www.topografix.com/GPX/1/0/gpx.xsd">
<name>GPS Logger 20260923-135702</name>
<time>2026-09-25T19:33:48Z</time>
<keywords>car</keywords>
<bounds minlat="37.16813498" minlon="38.87933685" maxlat="37.20350459" maxlon="38.93875801" />

<trk>
 <name>Track 20260923-135702</name>
 <trkseg>
  <trkpt lat="37.16813498" lon="38.87933685"><ele>511.655</ele><time>2026-09-23T10:57:02Z</time><speed>22.980</speed><sat>35</sat></trkpt>
  <trkpt lat="37.16823887" lon="38.87955541"><ele>511.774</ele><time>2026-09-23T10:57:03Z</time><speed>22.720</speed><sat>33</sat></trkpt>
  <trkpt lat="37.16834416" lon="38.87977874"><ele>511.721</ele><time>2026-09-23T10:57:04Z</time><speed>23.310</speed><sat>36</sat></trkpt>
  <trkpt lat="37.16845433" lon="38.88000554"><ele>512.191</ele><time>2026-09-23T10:57:05Z</time><speed>23.990</speed><sat>37</sat></trkpt>
  <trkpt lat="37.16856698" lon="38.88024128"><ele>512.378</ele><time>2026-09-23T10:57:06Z</time><speed>24.520</speed><sat>37</sat></trkpt>
  <trkpt lat="37.16868454" lon="38.88047528"><ele>512.126</ele><time>2026-09-23T10:57:07Z</time><speed>24.750</speed><sat>37</sat></trkpt>
  <trkpt lat="37.16880040" lon="38.88072257"><ele>512.578</ele><time>2026-09-23T10:57:08Z</time><speed>25.240</speed><sat>37</sat></trkpt>
  <trkpt lat="37.16892361" lon="38.88097041"><ele>513.403</ele><time>2026-09-23T10:57:09Z</time><speed>26.260</speed><sat>37</sat></trkpt>
  <trkpt lat="37.16904940" lon="38.88122333"><ele>513.824</ele><time>2026-09-23T10:57:10Z</time><speed>26.560</speed><sat>36</sat></trkpt>
  <trkpt lat="37.16917504" lon="38.88148257"><ele>514.095</ele><time>2026-09-23T10:57:11Z</time><speed>27.330</speed><sat>35</sat></trkpt>
  <trkpt lat="37.16930718" lon="38.88174584"><ele>514.397</ele><time>2026-09-23T10:57:12Z</time><speed>27.700</speed><sat>36</sat></trkpt>
  <trkpt lat="37.16944215" lon="38.88201280"><ele>514.873</ele><time>2026-09-23T10:57:13Z</time><speed>28.110</speed><sat>34</sat></trkpt>
  <trkpt lat="37.16958314" lon="38.88227075"><ele>515.467</ele><time>2026-09-23T10:57:14Z</time><speed>27.920</speed><sat>34</sat></trkpt>
  <trkpt lat="37.16972714" lon="38.88252095"><ele>515.922</ele><time>2026-09-23T10:57:15Z</time><speed>27.250</speed><sat>35</sat></trkpt>
  <trkpt lat="37.16987652" lon="38.88277063"><ele>516.309</ele><time>2026-09-23T10:57:16Z</time><speed>27.630</speed><sat>36</sat></trkpt>
  <trkpt lat="37.17002405" lon="38.88301704"><ele>516.415</ele><time>2026-09-23T10:57:17Z</time><speed>26.990</speed><sat>36</sat></trkpt>
  <trkpt lat="37.17016989" lon="38.88325885"><ele>516.902</ele><time>2026-09-23T10:57:18Z</time><speed>26.550</speed><sat>35</sat></trkpt>
  <trkpt lat="37.17031278" lon="38.88349570"><ele>517.185</ele><time>2026-09-23T10:57:19Z</time><speed>26.050</speed><sat>34</sat></trkpt>
  <trkpt lat="37.17045327" lon="38.88372739"><ele>517.530</ele><time>2026-09-23T10:57:20Z</time><speed>25.600</speed><sat>35</sat></trkpt>
  <trkpt lat="37.17059397" lon="38.88395459"><ele>518.054</ele><time>2026-09-23T10:57:21Z</time><speed>25.150</speed><sat>36</sat></trkpt>
  <trkpt lat="37.17073042" lon="38.88417757"><ele>518.302</ele><time>2026-09-23T10:57:22Z</time><speed>24.600</speed><sat>37</sat></trkpt>
  <trkpt lat="37.17087623" lon="38.88439749"><ele>517.935</ele><time>2026-09-23T10:57:23Z</time><speed>25.440</speed><sat>37</sat></trkpt>
  <trkpt lat="37.17098968" lon="38.88460209"><ele>518.020</ele><time>2026-09-23T10:57:24Z</time><speed>23.570</speed><sat>37</sat></trkpt>
  <trkpt lat="37.17112140" lon="38.88481725"><ele>518.728</ele><time>2026-09-23T10:57:25Z</time><speed>23.630</speed><sat>37</sat></trkpt>
  <trkpt lat="37.17124749" lon="38.88502251"><ele>518.944</ele><time>2026-09-23T10:57:26Z</time><speed>22.850</speed><sat>36</sat></trkpt>
  <trkpt lat="37.17136892" lon="38.88522014"><ele>519.364</ele><time>2026-09-23T10:57:27Z</time><speed>22.030</speed><sat>36</sat></trkpt>
  <trkpt lat="37.17149148" lon="38.88542728"><ele>519.532</ele><time>2026-09-23T10:57:28Z</time><speed>22.700</speed><sat>36</sat></trkpt>
  <trkpt lat="37.17160800" lon="38.88560345"><ele>519.721</ele><time>2026-09-23T10:57:29Z</time><speed>21.250</speed><sat>36</sat></trkpt>
  <trkpt lat="37.17173711" lon="38.88578328"><ele>520.134</ele><time>2026-09-23T10:57:30Z</time><speed>21.530</speed><sat>35</sat></trkpt>
  <trkpt lat="37.17186129" lon="38.88597615"><ele>520.523</ele><time>2026-09-23T10:57:31Z</time><speed>21.950</speed><sat>37</sat></trkpt>
  <trkpt lat="37.17198622" lon="38.88617705"><ele>520.869</ele><time>2026-09-23T10:57:32Z</time><speed>22.570</speed><sat>37</sat></trkpt>
  <trkpt lat="37.17211079" lon="38.88638849"><ele>521.301</ele><time>2026-09-23T10:57:33Z</time><speed>23.220</speed><sat>36</sat></trkpt>
  <trkpt lat="37.17223145" lon="38.88660979"><ele>521.568</ele><time>2026-09-23T10:57:34Z</time><speed>23.770</speed><sat>36</sat></trkpt>
  <trkpt lat="37.17235191" lon="38.88683802"><ele>521.955</ele><time>2026-09-23T10:57:35Z</time><speed>24.250</speed><sat>35</sat></trkpt>
  <trkpt lat="37.17247691" lon="38.88706723"><ele>522.251</ele><time>2026-09-23T10:57:36Z</time><speed>24.870</speed><sat>35</sat></trkpt>
  <trkpt lat="37.17259782" lon="38.88731142"><ele>522.337</ele><time>2026-09-23T10:57:37Z</time><speed>25.540</speed><sat>35</sat></trkpt>
  <trkpt lat="37.17270977" lon="38.88756886"><ele>522.664</ele><time>2026-09-23T10:57:38Z</time><speed>26.000</speed><sat>35</sat></trkpt>
  <trkpt lat="37.17280838" lon="38.88783773"><ele>522.809</ele><time>2026-09-23T10:57:39Z</time><speed>26.570</speed><sat>35</sat></trkpt>
  <trkpt lat="37.17290470" lon="38.88812075"><ele>523.013</ele><time>2026-09-23T10:57:40Z</time><speed>27.110</speed><sat>37</sat></trkpt>
  <trkpt lat="37.17300186" lon="38.88841030"><ele>523.012</ele><time>2026-09-23T10:57:41Z</time><speed>27.680</speed><sat>38</sat></trkpt>
  <trkpt lat="37.17309858" lon="38.88870330"><ele>523.534</ele><time>2026-09-23T10:57:42Z</time><speed>28.190</speed><sat>38</sat></trkpt>
  <trkpt lat="37.17319528" lon="38.88900014"><ele>523.550</ele><time>2026-09-23T10:57:43Z</time><speed>28.390</speed><sat>37</sat></trkpt>
  <trkpt lat="37.17328681" lon="38.88928860"><ele>523.912</ele><time>2026-09-23T10:57:44Z</time><speed>27.940</speed><sat>35</sat></trkpt>
  <trkpt lat="37.17338289" lon="38.88957585"><ele>524.393</ele><time>2026-09-23T10:57:45Z</time><speed>27.440</speed><sat>35</sat></trkpt>
  <trkpt lat="37.17347911" lon="38.88985150"><ele>524.818</ele><time>2026-09-23T10:57:46Z</time><speed>26.870</speed><sat>35</sat></trkpt>
  <trkpt lat="37.17357512" lon="38.89011792"><ele>525.393</ele><time>2026-09-23T10:57:47Z</time><speed>26.190</speed><sat>34</sat></trkpt>
  <trkpt lat="37.17367738" lon="38.89037730"><ele>526.806</ele><time>2026-09-23T10:57:48Z</time><speed>25.440</speed><sat>33</sat></trkpt>
  <trkpt lat="37.17378297" lon="38.89062165"><ele>528.337</ele><time>2026-09-23T10:57:49Z</time><speed>24.610</speed><sat>35</sat></trkpt>
  <trkpt lat="37.17389980" lon="38.89084963"><ele>529.182</ele><time>2026-09-23T10:57:50Z</time><speed>23.890</speed><sat>38</sat></trkpt>
  <trkpt lat="37.17402190" lon="38.89106831"><ele>529.166</ele><time>2026-09-23T10:57:51Z</time><speed>23.440</speed><sat>38</sat></trkpt>
  <trkpt lat="37.17414564" lon="38.89127626"><ele>528.983</ele><time>2026-09-23T10:57:52Z</time><speed>23.150</speed><sat>39</sat></trkpt>
  <trkpt lat="37.17426736" lon="38.89148724"><ele>528.652</ele><time>2026-09-23T10:57:53Z</time><speed>22.970</speed><sat>39</sat></trkpt>
  <trkpt lat="37.17438346" lon="38.89169704"><ele>528.390</ele><time>2026-09-23T10:57:54Z</time><speed>22.730</speed><sat>39</sat></trkpt>
  <trkpt lat="37.17449608" lon="38.89190742"><ele>528.783</ele><time>2026-09-23T10:57:55Z</time><speed>22.380</speed><sat>39</sat></trkpt>
  <trkpt lat="37.17460504" lon="38.89211305"><ele>529.158</ele><time>2026-09-23T10:57:56Z</time><speed>21.950</speed><sat>38</sat></trkpt>
  <trkpt lat="37.17471638" lon="38.89231420"><ele>529.472</ele><time>2026-09-23T10:57:57Z</time><speed>21.820</speed><sat>38</sat></trkpt>
  <trkpt lat="37.17482520" lon="38.89251577"><ele>529.715</ele><time>2026-09-23T10:57:58Z</time><speed>21.670</speed><sat>37</sat></trkpt>
  <trkpt lat="37.17493990" lon="38.89271856"><ele>530.311</ele><time>2026-09-23T10:57:59Z</time><speed>21.800</speed><sat>38</sat></trkpt>
  <trkpt lat="37.17505137" lon="38.89292579"><ele>530.153</ele><time>2026-09-23T10:58:00Z</time><speed>22.100</speed><sat>39</sat></trkpt>
  <trkpt lat="37.17516609" lon="38.89313574"><ele>530.704</ele><time>2026-09-23T10:58:01Z</time><speed>22.740</speed><sat>38</sat></trkpt>
  <trkpt lat="37.17528229" lon="38.89335152"><ele>531.313</ele><time>2026-09-23T10:58:02Z</time><speed>23.410</speed><sat>38</sat></trkpt>
  <trkpt lat="37.17540220" lon="38.89356846"><ele>531.673</ele><time>2026-09-23T10:58:03Z</time><speed>23.710</speed><sat>38</sat></trkpt>
  <trkpt lat="37.17552525" lon="38.89378588"><ele>532.046</ele><time>2026-09-23T10:58:04Z</time><speed>24.010</speed><sat>37</sat></trkpt>
  <trkpt lat="37.17565031" lon="38.89400510"><ele>532.563</ele><time>2026-09-23T10:58:05Z</time><speed>24.140</speed><sat>37</sat></trkpt>
  <trkpt lat="37.17577138" lon="38.89422085"><ele>531.949</ele><time>2026-09-23T10:58:06Z</time><speed>23.230</speed><sat>38</sat></trkpt>
  <trkpt lat="37.17591336" lon="38.89443393"><ele>531.699</ele><time>2026-09-23T10:58:07Z</time><speed>23.890</speed><sat>37</sat></trkpt>
  <trkpt lat="37.17604436" lon="38.89463430"><ele>531.197</ele><time>2026-09-23T10:58:08Z</time><speed>22.870</speed><sat>37</sat></trkpt>
  <trkpt lat="37.17623855" lon="38.89483571"><ele>533.025</ele><time>2026-09-23T10:58:09Z</time><speed>27.000</speed><sat>37</sat></trkpt>
  <trkpt lat="37.17640689" lon="38.89503632"><ele>533.671</ele><time>2026-09-23T10:58:10Z</time><speed>26.050</speed><sat>36</sat></trkpt>
  <trkpt lat="37.17658136" lon="38.89524089"><ele>534.497</ele><time>2026-09-23T10:58:11Z</time><speed>26.060</speed><sat>36</sat></trkpt>
  <trkpt lat="37.17674742" lon="38.89543981"><ele>535.141</ele><time>2026-09-23T10:58:12Z</time><speed>25.110</speed><sat>37</sat></trkpt>
  <trkpt lat="37.17691199" lon="38.89563094"><ele>535.599</ele><time>2026-09-23T10:58:13Z</time><speed>24.540</speed><sat>36</sat></trkpt>
  <trkpt lat="37.17707019" lon="38.89581910"><ele>535.929</ele><time>2026-09-23T10:58:14Z</time><speed>23.850</speed><sat>36</sat></trkpt>
  <trkpt lat="37.17722484" lon="38.89600251"><ele>536.472</ele><time>2026-09-23T10:58:15Z</time><speed>23.360</speed><sat>35</sat></trkpt>
  <trkpt lat="37.17737045" lon="38.89618079"><ele>535.862</ele><time>2026-09-23T10:58:16Z</time><speed>22.670</speed><sat>35</sat></trkpt>
  <trkpt lat="37.17750494" lon="38.89635820"><ele>535.227</ele><time>2026-09-23T10:58:17Z</time><speed>21.710</speed><sat>36</sat></trkpt>
  <trkpt lat="37.17763894" lon="38.89657319"><ele>538.646</ele><time>2026-09-23T10:58:18Z</time><speed>22.880</speed><sat>36</sat></trkpt>
  <trkpt lat="37.17777589" lon="38.89674974"><ele>539.226</ele><time>2026-09-23T10:58:19Z</time><speed>22.060</speed><sat>37</sat></trkpt>
  <trkpt lat="37.17790514" lon="38.89692846"><ele>538.900</ele><time>2026-09-23T10:58:20Z</time><speed>21.160</speed><sat>37</sat></trkpt>
  <trkpt lat="37.17802441" lon="38.89710528"><ele>537.211</ele><time>2026-09-23T10:58:21Z</time><speed>19.910</speed><sat>36</sat></trkpt>
  <trkpt lat="37.17821241" lon="38.89728486"><ele>542.027</ele><time>2026-09-23T10:58:22Z</time><speed>23.820</speed><sat>36</sat></trkpt>
  <trkpt lat="37.17836562" lon="38.89746242"><ele>542.928</ele><time>2026-09-23T10:58:23Z</time><speed>22.860</speed><sat>36</sat></trkpt>
  <trkpt lat="37.17851480" lon="38.89763953"><ele>543.555</ele><time>2026-09-23T10:58:24Z</time><speed>23.110</speed><sat>36</sat></trkpt>
  <trkpt lat="37.17866476" lon="38.89781832"><ele>544.021</ele><time>2026-09-23T10:58:25Z</time><speed>23.000</speed><sat>33</sat></trkpt>
  <trkpt lat="37.17882007" lon="38.89799022"><ele>544.155</ele><time>2026-09-23T10:58:26Z</time><speed>22.640</speed><sat>34</sat></trkpt>
  <trkpt lat="37.17897808" lon="38.89817880"><ele>546.065</ele><time>2026-09-23T10:58:27Z</time><speed>23.820</speed><sat>33</sat></trkpt>
  <trkpt lat="37.17913148" lon="38.89836056"><ele>546.682</ele><time>2026-09-23T10:58:28Z</time><speed>23.650</speed><sat>33</sat></trkpt>
  <trkpt lat="37.17929639" lon="38.89854267"><ele>547.374</ele><time>2026-09-23T10:58:29Z</time><speed>23.950</speed><sat>33</sat></trkpt>
  <trkpt lat="37.17945813" lon="38.89872683"><ele>548.240</ele><time>2026-09-23T10:58:30Z</time><speed>24.120</speed><sat>33</sat></trkpt>
  <trkpt lat="37.17961856" lon="38.89890991"><ele>548.909</ele><time>2026-09-23T10:58:31Z</time><speed>24.370</speed><sat>33</sat></trkpt>
  <trkpt lat="37.17978181" lon="38.89909247"><ele>549.519</ele><time>2026-09-23T10:58:32Z</time><speed>24.510</speed><sat>34</sat></trkpt>
  <trkpt lat="37.17994970" lon="38.89927387"><ele>550.330</ele><time>2026-09-23T10:58:33Z</time><speed>24.700</speed><sat>33</sat></trkpt>
  <trkpt lat="37.18011704" lon="38.89946339"><ele>550.807</ele><time>2026-09-23T10:58:34Z</time><speed>24.880</speed><sat>32</sat></trkpt>
  <trkpt lat="37.18028266" lon="38.89965097"><ele>551.430</ele><time>2026-09-23T10:58:35Z</time><speed>24.940</speed><sat>32</sat></trkpt>
  <trkpt lat="37.18045026" lon="38.89984095"><ele>552.101</ele><time>2026-09-23T10:58:36Z</time><speed>24.990</speed><sat>32</sat></trkpt>
  <trkpt lat="37.18061756" lon="38.90002221"><ele>552.075</ele><time>2026-09-23T10:58:37Z</time><speed>24.770</speed><sat>33</sat></trkpt>
  <trkpt lat="37.18078994" lon="38.90020969"><ele>553.605</ele><time>2026-09-23T10:58:38Z</time><speed>25.880</speed><sat>34</sat></trkpt>
  <trkpt lat="37.18095264" lon="38.90039530"><ele>553.649</ele><time>2026-09-23T10:58:39Z</time><speed>24.350</speed><sat>34</sat></trkpt>
  <trkpt lat="37.18111283" lon="38.90057783"><ele>553.990</ele><time>2026-09-23T10:58:40Z</time><speed>23.890</speed><sat>34</sat></trkpt>
  <trkpt lat="37.18127559" lon="38.90076360"><ele>554.439</ele><time>2026-09-23T10:58:41Z</time><speed>24.170</speed><sat>34</sat></trkpt>
  <trkpt lat="37.18143792" lon="38.90094607"><ele>555.114</ele><time>2026-09-23T10:58:42Z</time><speed>24.210</speed><sat>34</sat></trkpt>
  <trkpt lat="37.18160600" lon="38.90112155"><ele>555.153</ele><time>2026-09-23T10:58:43Z</time><speed>24.150</speed><sat>35</sat></trkpt>
  <trkpt lat="37.18177373" lon="38.90129674"><ele>556.064</ele><time>2026-09-23T10:58:44Z</time><speed>24.860</speed><sat>32</sat></trkpt>
  <trkpt lat="37.18192511" lon="38.90147724"><ele>556.481</ele><time>2026-09-23T10:58:45Z</time><speed>24.000</speed><sat>32</sat></trkpt>
  <trkpt lat="37.18209229" lon="38.90166967"><ele>558.367</ele><time>2026-09-23T10:58:46Z</time><speed>24.890</speed><sat>31</sat></trkpt>
  <trkpt lat="37.18224537" lon="38.90182970"><ele>557.262</ele><time>2026-09-23T10:58:47Z</time><speed>23.400</speed><sat>31</sat></trkpt>
  <trkpt lat="37.18240502" lon="38.90200542"><ele>559.250</ele><time>2026-09-23T10:58:48Z</time><speed>23.790</speed><sat>31</sat></trkpt>
  <trkpt lat="37.18254621" lon="38.90216885"><ele>560.109</ele><time>2026-09-23T10:58:49Z</time><speed>22.070</speed><sat>26</sat></trkpt>
  <trkpt lat="37.18269500" lon="38.90233065"><ele>560.306</ele><time>2026-09-23T10:58:50Z</time><speed>22.140</speed><sat>25</sat></trkpt>
  <trkpt lat="37.18283451" lon="38.90250374"><ele>561.134</ele><time>2026-09-23T10:58:51Z</time><speed>21.360</speed><sat>24</sat></trkpt>
  <trkpt lat="37.18297877" lon="38.90267051"><ele>561.444</ele><time>2026-09-23T10:58:52Z</time><speed>21.480</speed><sat>24</sat></trkpt>
  <trkpt lat="37.18312557" lon="38.90280362"><ele>561.869</ele><time>2026-09-23T10:58:53Z</time><speed>20.630</speed><sat>24</sat></trkpt>
  <trkpt lat="37.18328083" lon="38.90293237"><ele>562.335</ele><time>2026-09-23T10:58:54Z</time><speed>20.440</speed><sat>25</sat></trkpt>
  <trkpt lat="37.18342103" lon="38.90307728"><ele>562.805</ele><time>2026-09-23T10:58:55Z</time><speed>20.390</speed><sat>27</sat></trkpt>
  <trkpt lat="37.18356867" lon="38.90321475"><ele>564.219</ele><time>2026-09-23T10:58:56Z</time><speed>20.260</speed><sat>27</sat></trkpt>
  <trkpt lat="37.18370922" lon="38.90337307"><ele>565.077</ele><time>2026-09-23T10:58:57Z</time><speed>20.460</speed><sat>27</sat></trkpt>
  <trkpt lat="37.18384847" lon="38.90352697"><ele>565.784</ele><time>2026-09-23T10:58:58Z</time><speed>20.870</speed><sat>28</sat></trkpt>
  <trkpt lat="37.18399107" lon="38.90367882"><ele>566.453</ele><time>2026-09-23T10:58:59Z</time><speed>21.040</speed><sat>27</sat></trkpt>
  <trkpt lat="37.18413227" lon="38.90384109"><ele>566.360</ele><time>2026-09-23T10:59:00Z</time><speed>21.460</speed><sat>27</sat></trkpt>
  <trkpt lat="37.18427820" lon="38.90399345"><ele>565.929</ele><time>2026-09-23T10:59:01Z</time><speed>21.760</speed><sat>27</sat></trkpt>
  <trkpt lat="37.18442202" lon="38.90415875"><ele>566.396</ele><time>2026-09-23T10:59:02Z</time><speed>21.820</speed><sat>25</sat></trkpt>
  <trkpt lat="37.18456748" lon="38.90432340"><ele>566.616</ele><time>2026-09-23T10:59:03Z</time><speed>21.980</speed><sat>22</sat></trkpt>
  <trkpt lat="37.18471042" lon="38.90448714"><ele>567.008</ele><time>2026-09-23T10:59:04Z</time><speed>21.850</speed><sat>21</sat></trkpt>
  <trkpt lat="37.18485245" lon="38.90465544"><ele>567.294</ele><time>2026-09-23T10:59:05Z</time><speed>21.710</speed><sat>22</sat></trkpt>
  <trkpt lat="37.18497720" lon="38.90482640"><ele>568.110</ele><time>2026-09-23T10:59:06Z</time><speed>20.690</speed><sat>23</sat></trkpt>
  <trkpt lat="37.18511761" lon="38.90499724"><ele>568.382</ele><time>2026-09-23T10:59:07Z</time><speed>21.120</speed><sat>21</sat></trkpt>
  <trkpt lat="37.18524102" lon="38.90515597"><ele>568.854</ele><time>2026-09-23T10:59:08Z</time><speed>20.940</speed><sat>21</sat></trkpt>
  <trkpt lat="37.18539039" lon="38.90530116"><ele>568.023</ele><time>2026-09-23T10:59:09Z</time><speed>19.740</speed><sat>17</sat></trkpt>
  <trkpt lat="37.18551086" lon="38.90543906"><ele>569.081</ele><time>2026-09-23T10:59:10Z</time><speed>18.970</speed><sat>18</sat></trkpt>
  <trkpt lat="37.18564037" lon="38.90559357"><ele>569.619</ele><time>2026-09-23T10:59:11Z</time><speed>19.750</speed><sat>16</sat></trkpt>
  <trkpt lat="37.18578924" lon="38.90571055"><ele>570.177</ele><time>2026-09-23T10:59:12Z</time><speed>19.080</speed><sat>16</sat></trkpt>
  <trkpt lat="37.18592272" lon="38.90585184"><ele>574.295</ele><time>2026-09-23T10:59:13Z</time><speed>18.370</speed><sat>28</sat></trkpt>
  <trkpt lat="37.18604344" lon="38.90597783"><ele>575.081</ele><time>2026-09-23T10:59:14Z</time><speed>17.850</speed><sat>36</sat></trkpt>
  <trkpt lat="37.18616774" lon="38.90610366"><ele>575.985</ele><time>2026-09-23T10:59:15Z</time><speed>17.300</speed><sat>37</sat></trkpt>
  <trkpt lat="37.18628058" lon="38.90622592"><ele>576.566</ele><time>2026-09-23T10:59:16Z</time><speed>15.940</speed><sat>37</sat></trkpt>
  <trkpt lat="37.18636191" lon="38.90633315"><ele>575.562</ele><time>2026-09-23T10:59:17Z</time><speed>13.350</speed><sat>37</sat></trkpt>
  <trkpt lat="37.18646343" lon="38.90644891"><ele>575.883</ele><time>2026-09-23T10:59:18Z</time><speed>14.790</speed><sat>38</sat></trkpt>
  <trkpt lat="37.18655507" lon="38.90653352"><ele>574.895</ele><time>2026-09-23T10:59:19Z</time><speed>13.170</speed><sat>38</sat></trkpt>
  <trkpt lat="37.18654956" lon="38.90653698"><ele>575.926</ele><time>2026-09-23T10:59:20Z</time><speed>2.600</speed><sat>37</sat></trkpt>
  <trkpt lat="37.18660480" lon="38.90659474"><ele>575.495</ele><time>2026-09-23T10:59:21Z</time><speed>6.500</speed><sat>37</sat></trkpt>
  <trkpt lat="37.18664815" lon="38.90664249"><ele>575.243</ele><time>2026-09-23T10:59:22Z</time><speed>6.310</speed><sat>37</sat></trkpt>
  <trkpt lat="37.18668828" lon="38.90669218"><ele>574.839</ele><time>2026-09-23T10:59:23Z</time><speed>6.920</speed><sat>38</sat></trkpt>
  <trkpt lat="37.18673506" lon="38.90674543"><ele>574.977</ele><time>2026-09-23T10:59:24Z</time><speed>7.450</speed><sat>38</sat></trkpt>
  <trkpt lat="37.18678822" lon="38.90680220"><ele>575.246</ele><time>2026-09-23T10:59:25Z</time><speed>7.880</speed><sat>38</sat></trkpt>
  <trkpt lat="37.18683795" lon="38.90685678"><ele>575.204</ele><time>2026-09-23T10:59:26Z</time><speed>7.670</speed><sat>38</sat></trkpt>
  <trkpt lat="37.18689155" lon="38.90691116"><ele>575.390</ele><time>2026-09-23T10:59:27Z</time><speed>7.630</speed><sat>38</sat></trkpt>
  <trkpt lat="37.18694039" lon="38.90696297"><ele>575.403</ele><time>2026-09-23T10:59:28Z</time><speed>7.130</speed><sat>38</sat></trkpt>
  <trkpt lat="37.18699083" lon="38.90701419"><ele>575.379</ele><time>2026-09-23T10:59:29Z</time><speed>6.940</speed><sat>38</sat></trkpt>
  <trkpt lat="37.18703772" lon="38.90706058"><ele>575.288</ele><time>2026-09-23T10:59:30Z</time><speed>6.540</speed><sat>38</sat></trkpt>
  <trkpt lat="37.18708537" lon="38.90710939"><ele>574.806</ele><time>2026-09-23T10:59:31Z</time><speed>6.700</speed><sat>37</sat></trkpt>
  <trkpt lat="37.18713007" lon="38.90715722"><ele>574.096</ele><time>2026-09-23T10:59:32Z</time><speed>6.330</speed><sat>37</sat></trkpt>
  <trkpt lat="37.18717185" lon="38.90719954"><ele>573.978</ele><time>2026-09-23T10:59:33Z</time><speed>6.040</speed><sat>37</sat></trkpt>
  <trkpt lat="37.18720528" lon="38.90724789"><ele>573.898</ele><time>2026-09-23T10:59:34Z</time><speed>5.800</speed><sat>37</sat></trkpt>
  <trkpt lat="37.18725402" lon="38.90726738"><ele>574.767</ele><time>2026-09-23T10:59:35Z</time><speed>6.850</speed><sat>36</sat></trkpt>
  <trkpt lat="37.18731653" lon="38.90730653"><ele>575.344</ele><time>2026-09-23T10:59:36Z</time><speed>7.320</speed><sat>36</sat></trkpt>
  <trkpt lat="37.18736684" lon="38.90734004"><ele>575.014</ele><time>2026-09-23T10:59:37Z</time><speed>6.010</speed><sat>36</sat></trkpt>
  <trkpt lat="37.18740482" lon="38.90736702"><ele>574.839</ele><time>2026-09-23T10:59:38Z</time><speed>5.120</speed><sat>31</sat></trkpt>
  <trkpt lat="37.18743391" lon="38.90740266"><ele>574.049</ele><time>2026-09-23T10:59:39Z</time><speed>4.250</speed><sat>27</sat></trkpt>
  <trkpt lat="37.18751804" lon="38.90741673"><ele>575.240</ele><time>2026-09-23T10:59:40Z</time><speed>5.880</speed><sat>27</sat></trkpt>
  <trkpt lat="37.18757478" lon="38.90748835"><ele>574.299</ele><time>2026-09-23T10:59:41Z</time><speed>6.610</speed><sat>27</sat></trkpt>
  <trkpt lat="37.18768200" lon="38.90750718"><ele>575.549</ele><time>2026-09-23T10:59:42Z</time><speed>9.660</speed><sat>27</sat></trkpt>
  <trkpt lat="37.18776081" lon="38.90753986"><ele>574.953</ele><time>2026-09-23T10:59:43Z</time><speed>8.720</speed><sat>27</sat></trkpt>
  <trkpt lat="37.18785489" lon="38.90759827"><ele>575.120</ele><time>2026-09-23T10:59:44Z</time><speed>10.560</speed><sat>27</sat></trkpt>
  <trkpt lat="37.18796130" lon="38.90760071"><ele>574.860</ele><time>2026-09-23T10:59:45Z</time><speed>11.730</speed><sat>27</sat></trkpt>
  <trkpt lat="37.18803391" lon="38.90763963"><ele>575.905</ele><time>2026-09-23T10:59:46Z</time><speed>8.410</speed><sat>27</sat></trkpt>
  <trkpt lat="37.18813081" lon="38.90767457"><ele>575.387</ele><time>2026-09-23T10:59:47Z</time><speed>9.950</speed><sat>28</sat></trkpt>
  <trkpt lat="37.18827208" lon="38.90769633"><ele>575.274</ele><time>2026-09-23T10:59:48Z</time><speed>14.680</speed><sat>29</sat></trkpt>
  <trkpt lat="37.18839019" lon="38.90773711"><ele>575.646</ele><time>2026-09-23T10:59:49Z</time><speed>13.450</speed><sat>29</sat></trkpt>
  <trkpt lat="37.18852025" lon="38.90776379"><ele>575.937</ele><time>2026-09-23T10:59:50Z</time><speed>13.660</speed><sat>29</sat></trkpt>
  <trkpt lat="37.18864363" lon="38.90779906"><ele>576.791</ele><time>2026-09-23T10:59:51Z</time><speed>14.420</speed><sat>29</sat></trkpt>
  <trkpt lat="37.18876227" lon="38.90780318"><ele>575.579</ele><time>2026-09-23T10:59:52Z</time><speed>12.780</speed><sat>29</sat></trkpt>
  <trkpt lat="37.18889007" lon="38.90782678"><ele>575.772</ele><time>2026-09-23T10:59:53Z</time><speed>13.640</speed><sat>29</sat></trkpt>
  <trkpt lat="37.18901674" lon="38.90784255"><ele>575.551</ele><time>2026-09-23T10:59:54Z</time><speed>13.720</speed><sat>30</sat></trkpt>
  <trkpt lat="37.18914140" lon="38.90785429"><ele>575.689</ele><time>2026-09-23T10:59:55Z</time><speed>13.790</speed><sat>31</sat></trkpt>
  <trkpt lat="37.18926194" lon="38.90786404"><ele>575.460</ele><time>2026-09-23T10:59:56Z</time><speed>13.230</speed><sat>31</sat></trkpt>
  <trkpt lat="37.18937886" lon="38.90788047"><ele>575.384</ele><time>2026-09-23T10:59:57Z</time><speed>12.950</speed><sat>32</sat></trkpt>
  <trkpt lat="37.18950447" lon="38.90788989"><ele>576.545</ele><time>2026-09-23T10:59:58Z</time><speed>13.800</speed><sat>34</sat></trkpt>
  <trkpt lat="37.18961819" lon="38.90790434"><ele>577.012</ele><time>2026-09-23T10:59:59Z</time><speed>13.260</speed><sat>36</sat></trkpt>
  <trkpt lat="37.18972506" lon="38.90790216"><ele>575.581</ele><time>2026-09-23T11:00:00Z</time><speed>11.760</speed><sat>36</sat></trkpt>
  <trkpt lat="37.18983809" lon="38.90790800"><ele>574.964</ele><time>2026-09-23T11:00:01Z</time><speed>13.280</speed><sat>37</sat></trkpt>
  <trkpt lat="37.18996138" lon="38.90789729"><ele>574.296</ele><time>2026-09-23T11:00:02Z</time><speed>14.430</speed><sat>37</sat></trkpt>
  <trkpt lat="37.19009455" lon="38.90789451"><ele>574.179</ele><time>2026-09-23T11:00:03Z</time><speed>15.100</speed><sat>37</sat></trkpt>
  <trkpt lat="37.19023439" lon="38.90789673"><ele>573.837</ele><time>2026-09-23T11:00:04Z</time><speed>15.510</speed><sat>38</sat></trkpt>
  <trkpt lat="37.19036442" lon="38.90789794"><ele>573.534</ele><time>2026-09-23T11:00:05Z</time><speed>14.510</speed><sat>38</sat></trkpt>
  <trkpt lat="37.19049512" lon="38.90791291"><ele>572.839</ele><time>2026-09-23T11:00:06Z</time><speed>14.420</speed><sat>38</sat></trkpt>
  <trkpt lat="37.19062470" lon="38.90792786"><ele>572.553</ele><time>2026-09-23T11:00:07Z</time><speed>14.250</speed><sat>38</sat></trkpt>
  <trkpt lat="37.19075071" lon="38.90794979"><ele>572.270</ele><time>2026-09-23T11:00:08Z</time><speed>14.040</speed><sat>38</sat></trkpt>
  <trkpt lat="37.19087700" lon="38.90798390"><ele>572.114</ele><time>2026-09-23T11:00:09Z</time><speed>13.990</speed><sat>38</sat></trkpt>
  <trkpt lat="37.19099420" lon="38.90803247"><ele>571.998</ele><time>2026-09-23T11:00:10Z</time><speed>13.550</speed><sat>38</sat></trkpt>
  <trkpt lat="37.19110518" lon="38.90809791"><ele>571.980</ele><time>2026-09-23T11:00:11Z</time><speed>13.820</speed><sat>38</sat></trkpt>
  <trkpt lat="37.19120353" lon="38.90818421"><ele>572.406</ele><time>2026-09-23T11:00:12Z</time><speed>13.620</speed><sat>38</sat></trkpt>
  <trkpt lat="37.19129743" lon="38.90827299"><ele>572.358</ele><time>2026-09-23T11:00:13Z</time><speed>12.900</speed><sat>38</sat></trkpt>
  <trkpt lat="37.19139184" lon="38.90836236"><ele>572.823</ele><time>2026-09-23T11:00:14Z</time><speed>13.130</speed><sat>38</sat></trkpt>
  <trkpt lat="37.19148079" lon="38.90844906"><ele>573.182</ele><time>2026-09-23T11:00:15Z</time><speed>12.740</speed><sat>38</sat></trkpt>
  <trkpt lat="37.19157419" lon="38.90853432"><ele>573.717</ele><time>2026-09-23T11:00:16Z</time><speed>12.730</speed><sat>38</sat></trkpt>
  <trkpt lat="37.19166959" lon="38.90862522"><ele>573.957</ele><time>2026-09-23T11:00:17Z</time><speed>12.680</speed><sat>38</sat></trkpt>
  <trkpt lat="37.19176940" lon="38.90870146"><ele>575.827</ele><time>2026-09-23T11:00:18Z</time><speed>12.520</speed><sat>38</sat></trkpt>
  <trkpt lat="37.19185934" lon="38.90877569"><ele>576.956</ele><time>2026-09-23T11:00:19Z</time><speed>11.890</speed><sat>38</sat></trkpt>
  <trkpt lat="37.19194248" lon="38.90885677"><ele>577.594</ele><time>2026-09-23T11:00:20Z</time><speed>11.460</speed><sat>38</sat></trkpt>
  <trkpt lat="37.19203143" lon="38.90893835"><ele>578.703</ele><time>2026-09-23T11:00:21Z</time><speed>12.510</speed><sat>38</sat></trkpt>
  <trkpt lat="37.19211784" lon="38.90904224"><ele>579.173</ele><time>2026-09-23T11:00:22Z</time><speed>13.380</speed><sat>38</sat></trkpt>
  <trkpt lat="37.19216832" lon="38.90911053"><ele>578.637</ele><time>2026-09-23T11:00:23Z</time><speed>10.780</speed><sat>38</sat></trkpt>
  <trkpt lat="37.19225006" lon="38.90919904"><ele>578.974</ele><time>2026-09-23T11:00:24Z</time><speed>11.600</speed><sat>38</sat></trkpt>
  <trkpt lat="37.19232835" lon="38.90928371"><ele>579.178</ele><time>2026-09-23T11:00:25Z</time><speed>11.860</speed><sat>37</sat></trkpt>
  <trkpt lat="37.19239891" lon="38.90937838"><ele>578.943</ele><time>2026-09-23T11:00:26Z</time><speed>11.790</speed><sat>37</sat></trkpt>
  <trkpt lat="37.19248045" lon="38.90946313"><ele>579.159</ele><time>2026-09-23T11:00:27Z</time><speed>11.710</speed><sat>37</sat></trkpt>
  <trkpt lat="37.19255849" lon="38.90955175"><ele>579.587</ele><time>2026-09-23T11:00:28Z</time><speed>11.960</speed><sat>37</sat></trkpt>
  <trkpt lat="37.19264415" lon="38.90964574"><ele>579.627</ele><time>2026-09-23T11:00:29Z</time><speed>12.460</speed><sat>37</sat></trkpt>
  <trkpt lat="37.19272828" lon="38.90974463"><ele>579.715</ele><time>2026-09-23T11:00:30Z</time><speed>12.660</speed><sat>37</sat></trkpt>
  <trkpt lat="37.19281092" lon="38.90984209"><ele>579.968</ele><time>2026-09-23T11:00:31Z</time><speed>12.780</speed><sat>37</sat></trkpt>
  <trkpt lat="37.19289207" lon="38.90994023"><ele>580.665</ele><time>2026-09-23T11:00:32Z</time><speed>12.680</speed><sat>37</sat></trkpt>
  <trkpt lat="37.19297204" lon="38.91004271"><ele>581.496</ele><time>2026-09-23T11:00:33Z</time><speed>12.920</speed><sat>36</sat></trkpt>
  <trkpt lat="37.19305474" lon="38.91014616"><ele>582.097</ele><time>2026-09-23T11:00:34Z</time><speed>13.290</speed><sat>36</sat></trkpt>
  <trkpt lat="37.19313613" lon="38.91024872"><ele>583.020</ele><time>2026-09-23T11:00:35Z</time><speed>13.030</speed><sat>35</sat></trkpt>
  <trkpt lat="37.19322351" lon="38.91035264"><ele>583.449</ele><time>2026-09-23T11:00:36Z</time><speed>13.290</speed><sat>35</sat></trkpt>
  <trkpt lat="37.19330738" lon="38.91045272"><ele>583.435</ele><time>2026-09-23T11:00:37Z</time><speed>13.250</speed><sat>35</sat></trkpt>
  <trkpt lat="37.19339887" lon="38.91055834"><ele>583.947</ele><time>2026-09-23T11:00:38Z</time><speed>13.740</speed><sat>35</sat></trkpt>
  <trkpt lat="37.19348539" lon="38.91066300"><ele>584.814</ele><time>2026-09-23T11:00:39Z</time><speed>13.470</speed><sat>35</sat></trkpt>
  <trkpt lat="37.19357375" lon="38.91076670"><ele>585.103</ele><time>2026-09-23T11:00:40Z</time><speed>13.470</speed><sat>34</sat></trkpt>
  <trkpt lat="37.19366408" lon="38.91087715"><ele>585.565</ele><time>2026-09-23T11:00:41Z</time><speed>14.040</speed><sat>34</sat></trkpt>
  <trkpt lat="37.19376258" lon="38.91098257"><ele>585.692</ele><time>2026-09-23T11:00:42Z</time><speed>14.220</speed><sat>35</sat></trkpt>
  <trkpt lat="37.19386887" lon="38.91106951"><ele>586.291</ele><time>2026-09-23T11:00:43Z</time><speed>14.330</speed><sat>36</sat></trkpt>
  <trkpt lat="37.19391467" lon="38.91120601"><ele>585.702</ele><time>2026-09-23T11:00:44Z</time><speed>13.600</speed><sat>37</sat></trkpt>
  <trkpt lat="37.19399289" lon="38.91133515"><ele>586.149</ele><time>2026-09-23T11:00:45Z</time><speed>13.830</speed><sat>37</sat></trkpt>
  <trkpt lat="37.19406614" lon="38.91146610"><ele>586.793</ele><time>2026-09-23T11:00:46Z</time><speed>14.010</speed><sat>37</sat></trkpt>
  <trkpt lat="37.19412962" lon="38.91159169"><ele>586.944</ele><time>2026-09-23T11:00:47Z</time><speed>14.210</speed><sat>37</sat></trkpt>
  <trkpt lat="37.19419647" lon="38.91172820"><ele>587.058</ele><time>2026-09-23T11:00:48Z</time><speed>14.380</speed><sat>37</sat></trkpt>
  <trkpt lat="37.19426627" lon="38.91187306"><ele>587.436</ele><time>2026-09-23T11:00:49Z</time><speed>14.580</speed><sat>37</sat></trkpt>
  <trkpt lat="37.19432794" lon="38.91201494"><ele>588.087</ele><time>2026-09-23T11:00:50Z</time><speed>14.340</speed><sat>36</sat></trkpt>
  <trkpt lat="37.19437879" lon="38.91216158"><ele>588.749</ele><time>2026-09-23T11:00:51Z</time><speed>14.290</speed><sat>37</sat></trkpt>
  <trkpt lat="37.19442560" lon="38.91231626"><ele>589.591</ele><time>2026-09-23T11:00:52Z</time><speed>14.420</speed><sat>37</sat></trkpt>
  <trkpt lat="37.19446817" lon="38.91247736"><ele>590.819</ele><time>2026-09-23T11:00:53Z</time><speed>14.600</speed><sat>36</sat></trkpt>
  <trkpt lat="37.19450749" lon="38.91264089"><ele>591.630</ele><time>2026-09-23T11:00:54Z</time><speed>15.040</speed><sat>36</sat></trkpt>
  <trkpt lat="37.19454360" lon="38.91280982"><ele>591.996</ele><time>2026-09-23T11:00:55Z</time><speed>15.430</speed><sat>36</sat></trkpt>
  <trkpt lat="37.19458031" lon="38.91298184"><ele>592.472</ele><time>2026-09-23T11:00:56Z</time><speed>15.720</speed><sat>37</sat></trkpt>
  <trkpt lat="37.19461302" lon="38.91315467"><ele>593.158</ele><time>2026-09-23T11:00:57Z</time><speed>15.640</speed><sat>38</sat></trkpt>
  <trkpt lat="37.19464373" lon="38.91332707"><ele>594.031</ele><time>2026-09-23T11:00:58Z</time><speed>15.610</speed><sat>38</sat></trkpt>
  <trkpt lat="37.19467323" lon="38.91349910"><ele>594.603</ele><time>2026-09-23T11:00:59Z</time><speed>15.590</speed><sat>38</sat></trkpt>
  <trkpt lat="37.19470255" lon="38.91366441"><ele>594.731</ele><time>2026-09-23T11:01:00Z</time><speed>15.110</speed><sat>38</sat></trkpt>
  <trkpt lat="37.19472777" lon="38.91383910"><ele>595.603</ele><time>2026-09-23T11:01:01Z</time><speed>15.450</speed><sat>37</sat></trkpt>
  <trkpt lat="37.19474938" lon="38.91400940"><ele>596.351</ele><time>2026-09-23T11:01:02Z</time><speed>15.450</speed><sat>36</sat></trkpt>
  <trkpt lat="37.19476785" lon="38.91417943"><ele>597.530</ele><time>2026-09-23T11:01:03Z</time><speed>15.490</speed><sat>36</sat></trkpt>
  <trkpt lat="37.19478393" lon="38.91435104"><ele>598.152</ele><time>2026-09-23T11:01:04Z</time><speed>15.580</speed><sat>37</sat></trkpt>
  <trkpt lat="37.19479838" lon="38.91452388"><ele>598.497</ele><time>2026-09-23T11:01:05Z</time><speed>15.720</speed><sat>35</sat></trkpt>
  <trkpt lat="37.19480904" lon="38.91469951"><ele>599.063</ele><time>2026-09-23T11:01:06Z</time><speed>15.520</speed><sat>35</sat></trkpt>
  <trkpt lat="37.19482224" lon="38.91486498"><ele>598.729</ele><time>2026-09-23T11:01:07Z</time><speed>14.940</speed><sat>38</sat></trkpt>
  <trkpt lat="37.19484567" lon="38.91504554"><ele>599.426</ele><time>2026-09-23T11:01:08Z</time><speed>15.670</speed><sat>38</sat></trkpt>
  <trkpt lat="37.19487160" lon="38.91521844"><ele>599.480</ele><time>2026-09-23T11:01:09Z</time><speed>15.640</speed><sat>38</sat></trkpt>
  <trkpt lat="37.19490096" lon="38.91539068"><ele>599.687</ele><time>2026-09-23T11:01:10Z</time><speed>15.480</speed><sat>38</sat></trkpt>
  <trkpt lat="37.19493045" lon="38.91556655"><ele>599.858</ele><time>2026-09-23T11:01:11Z</time><speed>15.720</speed><sat>38</sat></trkpt>
  <trkpt lat="37.19496463" lon="38.91574056"><ele>599.966</ele><time>2026-09-23T11:01:12Z</time><speed>15.700</speed><sat>38</sat></trkpt>
  <trkpt lat="37.19500075" lon="38.91591753"><ele>600.376</ele><time>2026-09-23T11:01:13Z</time><speed>15.940</speed><sat>38</sat></trkpt>
  <trkpt lat="37.19503542" lon="38.91609874"><ele>600.464</ele><time>2026-09-23T11:01:14Z</time><speed>16.240</speed><sat>37</sat></trkpt>
  <trkpt lat="37.19506795" lon="38.91628169"><ele>600.547</ele><time>2026-09-23T11:01:15Z</time><speed>16.550</speed><sat>37</sat></trkpt>
  <trkpt lat="37.19510091" lon="38.91646582"><ele>601.000</ele><time>2026-09-23T11:01:16Z</time><speed>16.890</speed><sat>36</sat></trkpt>
  <trkpt lat="37.19512926" lon="38.91665385"><ele>600.923</ele><time>2026-09-23T11:01:17Z</time><speed>16.910</speed><sat>35</sat></trkpt>
  <trkpt lat="37.19515735" lon="38.91684555"><ele>600.779</ele><time>2026-09-23T11:01:18Z</time><speed>17.150</speed><sat>37</sat></trkpt>
  <trkpt lat="37.19518439" lon="38.91704002"><ele>600.383</ele><time>2026-09-23T11:01:19Z</time><speed>17.510</speed><sat>37</sat></trkpt>
  <trkpt lat="37.19520884" lon="38.91723718"><ele>600.467</ele><time>2026-09-23T11:01:20Z</time><speed>17.780</speed><sat>37</sat></trkpt>
  <trkpt lat="37.19522907" lon="38.91742879"><ele>599.818</ele><time>2026-09-23T11:01:21Z</time><speed>17.200</speed><sat>38</sat></trkpt>
  <trkpt lat="37.19524752" lon="38.91761828"><ele>599.370</ele><time>2026-09-23T11:01:22Z</time><speed>16.970</speed><sat>38</sat></trkpt>
  <trkpt lat="37.19526629" lon="38.91781424"><ele>598.856</ele><time>2026-09-23T11:01:23Z</time><speed>17.750</speed><sat>38</sat></trkpt>
  <trkpt lat="37.19528337" lon="38.91801905"><ele>598.769</ele><time>2026-09-23T11:01:24Z</time><speed>17.800</speed><sat>36</sat></trkpt>
  <trkpt lat="37.19530135" lon="38.91822009"><ele>598.998</ele><time>2026-09-23T11:01:25Z</time><speed>17.920</speed><sat>36</sat></trkpt>
  <trkpt lat="37.19531399" lon="38.91842325"><ele>599.208</ele><time>2026-09-23T11:01:26Z</time><speed>17.970</speed><sat>36</sat></trkpt>
  <trkpt lat="37.19532896" lon="38.91862727"><ele>598.988</ele><time>2026-09-23T11:01:27Z</time><speed>17.930</speed><sat>37</sat></trkpt>
  <trkpt lat="37.19534324" lon="38.91882967"><ele>598.991</ele><time>2026-09-23T11:01:28Z</time><speed>18.140</speed><sat>38</sat></trkpt>
  <trkpt lat="37.19535513" lon="38.91903826"><ele>599.039</ele><time>2026-09-23T11:01:29Z</time><speed>18.310</speed><sat>38</sat></trkpt>
  <trkpt lat="37.19536713" lon="38.91924652"><ele>599.613</ele><time>2026-09-23T11:01:30Z</time><speed>18.340</speed><sat>38</sat></trkpt>
  <trkpt lat="37.19537570" lon="38.91945334"><ele>599.570</ele><time>2026-09-23T11:01:31Z</time><speed>18.230</speed><sat>38</sat></trkpt>
  <trkpt lat="37.19538897" lon="38.91965805"><ele>599.652</ele><time>2026-09-23T11:01:32Z</time><speed>18.240</speed><sat>38</sat></trkpt>
  <trkpt lat="37.19540361" lon="38.91986625"><ele>599.754</ele><time>2026-09-23T11:01:33Z</time><speed>18.340</speed><sat>38</sat></trkpt>
  <trkpt lat="37.19541797" lon="38.92007456"><ele>599.836</ele><time>2026-09-23T11:01:34Z</time><speed>18.430</speed><sat>37</sat></trkpt>
  <trkpt lat="37.19543732" lon="38.92028185"><ele>599.920</ele><time>2026-09-23T11:01:35Z</time><speed>18.490</speed><sat>38</sat></trkpt>
  <trkpt lat="37.19545189" lon="38.92048840"><ele>599.861</ele><time>2026-09-23T11:01:36Z</time><speed>18.470</speed><sat>38</sat></trkpt>
  <trkpt lat="37.19546910" lon="38.92069773"><ele>599.820</ele><time>2026-09-23T11:01:37Z</time><speed>18.480</speed><sat>38</sat></trkpt>
  <trkpt lat="37.19548608" lon="38.92089890"><ele>599.443</ele><time>2026-09-23T11:01:38Z</time><speed>18.160</speed><sat>38</sat></trkpt>
  <trkpt lat="37.19550240" lon="38.92110057"><ele>599.316</ele><time>2026-09-23T11:01:39Z</time><speed>18.080</speed><sat>37</sat></trkpt>
  <trkpt lat="37.19551891" lon="38.92130990"><ele>599.148</ele><time>2026-09-23T11:01:40Z</time><speed>18.370</speed><sat>37</sat></trkpt>
  <trkpt lat="37.19553490" lon="38.92151828"><ele>598.777</ele><time>2026-09-23T11:01:41Z</time><speed>18.550</speed><sat>37</sat></trkpt>
  <trkpt lat="37.19555173" lon="38.92173099"><ele>598.891</ele><time>2026-09-23T11:01:42Z</time><speed>18.900</speed><sat>37</sat></trkpt>
  <trkpt lat="37.19556971" lon="38.92194071"><ele>598.950</ele><time>2026-09-23T11:01:43Z</time><speed>18.810</speed><sat>37</sat></trkpt>
  <trkpt lat="37.19558039" lon="38.92215501"><ele>598.592</ele><time>2026-09-23T11:01:44Z</time><speed>18.850</speed><sat>38</sat></trkpt>
  <trkpt lat="37.19559051" lon="38.92236369"><ele>597.731</ele><time>2026-09-23T11:01:45Z</time><speed>18.080</speed><sat>38</sat></trkpt>
  <trkpt lat="37.19561105" lon="38.92257881"><ele>598.459</ele><time>2026-09-23T11:01:46Z</time><speed>18.920</speed><sat>38</sat></trkpt>
  <trkpt lat="37.19562318" lon="38.92278717"><ele>598.681</ele><time>2026-09-23T11:01:47Z</time><speed>18.710</speed><sat>38</sat></trkpt>
  <trkpt lat="37.19564101" lon="38.92299370"><ele>598.864</ele><time>2026-09-23T11:01:48Z</time><speed>18.390</speed><sat>38</sat></trkpt>
  <trkpt lat="37.19566572" lon="38.92319714"><ele>598.109</ele><time>2026-09-23T11:01:49Z</time><speed>18.000</speed><sat>38</sat></trkpt>
  <trkpt lat="37.19567367" lon="38.92340399"><ele>597.848</ele><time>2026-09-23T11:01:50Z</time><speed>17.980</speed><sat>38</sat></trkpt>
  <trkpt lat="37.19565515" lon="38.92359680"><ele>597.446</ele><time>2026-09-23T11:01:51Z</time><speed>17.010</speed><sat>38</sat></trkpt>
  <trkpt lat="37.19562514" lon="38.92378757"><ele>596.883</ele><time>2026-09-23T11:01:52Z</time><speed>16.670</speed><sat>38</sat></trkpt>
  <trkpt lat="37.19571481" lon="38.92393765"><ele>594.540</ele><time>2026-09-23T11:01:53Z</time><speed>14.270</speed><sat>38</sat></trkpt>
  <trkpt lat="37.19572917" lon="38.92409569"><ele>593.686</ele><time>2026-09-23T11:01:54Z</time><speed>14.100</speed><sat>38</sat></trkpt>
  <trkpt lat="37.19573794" lon="38.92434482"><ele>592.229</ele><time>2026-09-23T11:01:55Z</time><speed>15.540</speed><sat>32</sat></trkpt>
  <trkpt lat="37.19577798" lon="38.92462561"><ele>594.525</ele><time>2026-09-23T11:01:56Z</time><speed>21.490</speed><sat>30</sat></trkpt>
  <trkpt lat="37.19578944" lon="38.92487138"><ele>595.981</ele><time>2026-09-23T11:01:57Z</time><speed>20.420</speed><sat>28</sat></trkpt>
  <trkpt lat="37.19580696" lon="38.92507840"><ele>596.699</ele><time>2026-09-23T11:01:58Z</time><speed>18.210</speed><sat>28</sat></trkpt>
  <trkpt lat="37.19581609" lon="38.92528292"><ele>597.692</ele><time>2026-09-23T11:01:59Z</time><speed>17.510</speed><sat>28</sat></trkpt>
  <trkpt lat="37.19582839" lon="38.92549077"><ele>597.567</ele><time>2026-09-23T11:02:00Z</time><speed>16.930</speed><sat>29</sat></trkpt>
  <trkpt lat="37.19585830" lon="38.92570134"><ele>598.278</ele><time>2026-09-23T11:02:01Z</time><speed>18.780</speed><sat>29</sat></trkpt>
  <trkpt lat="37.19588886" lon="38.92592815"><ele>599.681</ele><time>2026-09-23T11:02:02Z</time><speed>18.630</speed><sat>29</sat></trkpt>
  <trkpt lat="37.19590810" lon="38.92613106"><ele>598.691</ele><time>2026-09-23T11:02:03Z</time><speed>17.390</speed><sat>28</sat></trkpt>
  <trkpt lat="37.19594452" lon="38.92631894"><ele>598.050</ele><time>2026-09-23T11:02:04Z</time><speed>16.420</speed><sat>29</sat></trkpt>
  <trkpt lat="37.19599354" lon="38.92649833"><ele>600.195</ele><time>2026-09-23T11:02:05Z</time><speed>16.750</speed><sat>30</sat></trkpt>
  <trkpt lat="37.19603304" lon="38.92666222"><ele>600.365</ele><time>2026-09-23T11:02:06Z</time><speed>15.690</speed><sat>30</sat></trkpt>
  <trkpt lat="37.19607268" lon="38.92682804"><ele>600.522</ele><time>2026-09-23T11:02:07Z</time><speed>15.260</speed><sat>30</sat></trkpt>
  <trkpt lat="37.19612921" lon="38.92697808"><ele>601.230</ele><time>2026-09-23T11:02:08Z</time><speed>14.840</speed><sat>30</sat></trkpt>
  <trkpt lat="37.19619028" lon="38.92712856"><ele>602.081</ele><time>2026-09-23T11:02:09Z</time><speed>15.140</speed><sat>30</sat></trkpt>
  <trkpt lat="37.19626310" lon="38.92730194"><ele>603.302</ele><time>2026-09-23T11:02:10Z</time><speed>16.520</speed><sat>30</sat></trkpt>
  <trkpt lat="37.19632426" lon="38.92746017"><ele>604.213</ele><time>2026-09-23T11:02:11Z</time><speed>16.830</speed><sat>30</sat></trkpt>
  <trkpt lat="37.19639995" lon="38.92759808"><ele>604.603</ele><time>2026-09-23T11:02:12Z</time><speed>16.670</speed><sat>30</sat></trkpt>
  <trkpt lat="37.19643403" lon="38.92771538"><ele>604.539</ele><time>2026-09-23T11:02:13Z</time><speed>13.500</speed><sat>30</sat></trkpt>
  <trkpt lat="37.19648489" lon="38.92779774"><ele>602.932</ele><time>2026-09-23T11:02:14Z</time><speed>12.460</speed><sat>31</sat></trkpt>
  <trkpt lat="37.19653190" lon="38.92790536"><ele>602.229</ele><time>2026-09-23T11:02:15Z</time><speed>11.220</speed><sat>36</sat></trkpt>
  <trkpt lat="37.19658171" lon="38.92806453"><ele>602.310</ele><time>2026-09-23T11:02:16Z</time><speed>12.890</speed><sat>37</sat></trkpt>
  <trkpt lat="37.19663867" lon="38.92822371"><ele>603.668</ele><time>2026-09-23T11:02:17Z</time><speed>14.180</speed><sat>38</sat></trkpt>
  <trkpt lat="37.19669218" lon="38.92837498"><ele>603.777</ele><time>2026-09-23T11:02:18Z</time><speed>14.470</speed><sat>38</sat></trkpt>
  <trkpt lat="37.19674760" lon="38.92852011"><ele>603.146</ele><time>2026-09-23T11:02:19Z</time><speed>14.120</speed><sat>38</sat></trkpt>
  <trkpt lat="37.19679615" lon="38.92868326"><ele>602.389</ele><time>2026-09-23T11:02:20Z</time><speed>15.630</speed><sat>39</sat></trkpt>
  <trkpt lat="37.19685229" lon="38.92884322"><ele>602.272</ele><time>2026-09-23T11:02:21Z</time><speed>15.850</speed><sat>39</sat></trkpt>
  <trkpt lat="37.19692030" lon="38.92900938"><ele>602.971</ele><time>2026-09-23T11:02:22Z</time><speed>16.510</speed><sat>39</sat></trkpt>
  <trkpt lat="37.19697876" lon="38.92917691"><ele>603.538</ele><time>2026-09-23T11:02:23Z</time><speed>16.570</speed><sat>39</sat></trkpt>
  <trkpt lat="37.19704602" lon="38.92936209"><ele>604.276</ele><time>2026-09-23T11:02:24Z</time><speed>17.510</speed><sat>39</sat></trkpt>
  <trkpt lat="37.19711066" lon="38.92951954"><ele>604.481</ele><time>2026-09-23T11:02:25Z</time><speed>16.320</speed><sat>39</sat></trkpt>
  <trkpt lat="37.19717675" lon="38.92967008"><ele>603.747</ele><time>2026-09-23T11:02:26Z</time><speed>15.700</speed><sat>39</sat></trkpt>
  <trkpt lat="37.19723782" lon="38.92984067"><ele>604.017</ele><time>2026-09-23T11:02:27Z</time><speed>15.850</speed><sat>39</sat></trkpt>
  <trkpt lat="37.19729866" lon="38.92997917"><ele>603.967</ele><time>2026-09-23T11:02:28Z</time><speed>13.940</speed><sat>38</sat></trkpt>
  <trkpt lat="37.19737151" lon="38.93017198"><ele>606.890</ele><time>2026-09-23T11:02:29Z</time><speed>16.190</speed><sat>37</sat></trkpt>
  <trkpt lat="37.19743370" lon="38.93031566"><ele>606.024</ele><time>2026-09-23T11:02:30Z</time><speed>14.350</speed><sat>38</sat></trkpt>
  <trkpt lat="37.19748955" lon="38.93049453"><ele>606.897</ele><time>2026-09-23T11:02:31Z</time><speed>15.580</speed><sat>38</sat></trkpt>
  <trkpt lat="37.19754001" lon="38.93066881"><ele>609.448</ele><time>2026-09-23T11:02:32Z</time><speed>15.980</speed><sat>38</sat></trkpt>
  <trkpt lat="37.19758334" lon="38.93083215"><ele>609.391</ele><time>2026-09-23T11:02:33Z</time><speed>16.270</speed><sat>38</sat></trkpt>
  <trkpt lat="37.19763076" lon="38.93099277"><ele>609.724</ele><time>2026-09-23T11:02:34Z</time><speed>15.940</speed><sat>37</sat></trkpt>
  <trkpt lat="37.19767973" lon="38.93114760"><ele>609.938</ele><time>2026-09-23T11:02:35Z</time><speed>14.840</speed><sat>37</sat></trkpt>
  <trkpt lat="37.19765692" lon="38.93129850"><ele>610.946</ele><time>2026-09-23T11:02:36Z</time><speed>13.480</speed><sat>36</sat></trkpt>
  <trkpt lat="37.19763937" lon="38.93145146"><ele>611.641</ele><time>2026-09-23T11:02:37Z</time><speed>15.290</speed><sat>37</sat></trkpt>
  <trkpt lat="37.19763841" lon="38.93163667"><ele>613.726</ele><time>2026-09-23T11:02:38Z</time><speed>16.140</speed><sat>37</sat></trkpt>
  <trkpt lat="37.19762426" lon="38.93180923"><ele>614.522</ele><time>2026-09-23T11:02:39Z</time><speed>15.690</speed><sat>37</sat></trkpt>
  <trkpt lat="37.19759711" lon="38.93198514"><ele>616.748</ele><time>2026-09-23T11:02:40Z</time><speed>16.560</speed><sat>38</sat></trkpt>
  <trkpt lat="37.19756583" lon="38.93210760"><ele>617.184</ele><time>2026-09-23T11:02:41Z</time><speed>13.440</speed><sat>38</sat></trkpt>
  <trkpt lat="37.19753390" lon="38.93225345"><ele>618.409</ele><time>2026-09-23T11:02:42Z</time><speed>13.440</speed><sat>38</sat></trkpt>
  <trkpt lat="37.19749268" lon="38.93240863"><ele>619.608</ele><time>2026-09-23T11:02:43Z</time><speed>14.670</speed><sat>38</sat></trkpt>
  <trkpt lat="37.19744878" lon="38.93256424"><ele>621.323</ele><time>2026-09-23T11:02:44Z</time><speed>14.190</speed><sat>38</sat></trkpt>
  <trkpt lat="37.19740834" lon="38.93271208"><ele>622.159</ele><time>2026-09-23T11:02:45Z</time><speed>14.010</speed><sat>37</sat></trkpt>
  <trkpt lat="37.19736544" lon="38.93285856"><ele>623.047</ele><time>2026-09-23T11:02:46Z</time><speed>13.940</speed><sat>37</sat></trkpt>
  <trkpt lat="37.19732921" lon="38.93300687"><ele>624.003</ele><time>2026-09-23T11:02:47Z</time><speed>13.630</speed><sat>37</sat></trkpt>
  <trkpt lat="37.19729237" lon="38.93315809"><ele>625.295</ele><time>2026-09-23T11:02:48Z</time><speed>13.470</speed><sat>38</sat></trkpt>
  <trkpt lat="37.19726199" lon="38.93329502"><ele>625.931</ele><time>2026-09-23T11:02:49Z</time><speed>12.730</speed><sat>39</sat></trkpt>
  <trkpt lat="37.19723977" lon="38.93343510"><ele>625.744</ele><time>2026-09-23T11:02:50Z</time><speed>12.830</speed><sat>39</sat></trkpt>
  <trkpt lat="37.19722265" lon="38.93356696"><ele>626.659</ele><time>2026-09-23T11:02:51Z</time><speed>12.190</speed><sat>39</sat></trkpt>
  <trkpt lat="37.19722151" lon="38.93370507"><ele>626.480</ele><time>2026-09-23T11:02:52Z</time><speed>12.460</speed><sat>37</sat></trkpt>
  <trkpt lat="37.19723432" lon="38.93384842"><ele>626.993</ele><time>2026-09-23T11:02:53Z</time><speed>12.580</speed><sat>38</sat></trkpt>
  <trkpt lat="37.19726207" lon="38.93399375"><ele>628.511</ele><time>2026-09-23T11:02:54Z</time><speed>13.490</speed><sat>39</sat></trkpt>
  <trkpt lat="37.19731976" lon="38.93411951"><ele>628.491</ele><time>2026-09-23T11:02:55Z</time><speed>13.290</speed><sat>39</sat></trkpt>
  <trkpt lat="37.19738283" lon="38.93424760"><ele>629.228</ele><time>2026-09-23T11:02:56Z</time><speed>13.620</speed><sat>39</sat></trkpt>
  <trkpt lat="37.19745253" lon="38.93436207"><ele>628.910</ele><time>2026-09-23T11:02:57Z</time><speed>13.020</speed><sat>39</sat></trkpt>
  <trkpt lat="37.19755288" lon="38.93446300"><ele>629.598</ele><time>2026-09-23T11:02:58Z</time><speed>14.610</speed><sat>39</sat></trkpt>
  <trkpt lat="37.19765228" lon="38.93455306"><ele>630.707</ele><time>2026-09-23T11:02:59Z</time><speed>13.480</speed><sat>39</sat></trkpt>
  <trkpt lat="37.19775209" lon="38.93462485"><ele>630.723</ele><time>2026-09-23T11:03:00Z</time><speed>12.590</speed><sat>39</sat></trkpt>
  <trkpt lat="37.19785684" lon="38.93468618"><ele>631.547</ele><time>2026-09-23T11:03:01Z</time><speed>12.570</speed><sat>39</sat></trkpt>
  <trkpt lat="37.19797396" lon="38.93472579"><ele>631.511</ele><time>2026-09-23T11:03:02Z</time><speed>13.370</speed><sat>39</sat></trkpt>
  <trkpt lat="37.19808917" lon="38.93474639"><ele>631.132</ele><time>2026-09-23T11:03:03Z</time><speed>12.770</speed><sat>39</sat></trkpt>
  <trkpt lat="37.19820905" lon="38.93476281"><ele>631.272</ele><time>2026-09-23T11:03:04Z</time><speed>13.530</speed><sat>39</sat></trkpt>
  <trkpt lat="37.19832388" lon="38.93477865"><ele>631.953</ele><time>2026-09-23T11:03:05Z</time><speed>13.350</speed><sat>39</sat></trkpt>
  <trkpt lat="37.19843157" lon="38.93472692"><ele>632.711</ele><time>2026-09-23T11:03:06Z</time><speed>12.780</speed><sat>39</sat></trkpt>
  <trkpt lat="37.19855374" lon="38.93469863"><ele>633.186</ele><time>2026-09-23T11:03:07Z</time><speed>13.520</speed><sat>39</sat></trkpt>
  <trkpt lat="37.19866537" lon="38.93466290"><ele>633.212</ele><time>2026-09-23T11:03:08Z</time><speed>13.110</speed><sat>39</sat></trkpt>
  <trkpt lat="37.19878219" lon="38.93463743"><ele>633.078</ele><time>2026-09-23T11:03:09Z</time><speed>13.380</speed><sat>39</sat></trkpt>
  <trkpt lat="37.19892785" lon="38.93460299"><ele>633.666</ele><time>2026-09-23T11:03:10Z</time><speed>15.640</speed><sat>40</sat></trkpt>
  <trkpt lat="37.19905548" lon="38.93457374"><ele>633.960</ele><time>2026-09-23T11:03:11Z</time><speed>15.370</speed><sat>40</sat></trkpt>
  <trkpt lat="37.19913942" lon="38.93454245"><ele>632.969</ele><time>2026-09-23T11:03:12Z</time><speed>12.620</speed><sat>40</sat></trkpt>
  <trkpt lat="37.19923610" lon="38.93461162"><ele>629.787</ele><time>2026-09-23T11:03:13Z</time><speed>10.950</speed><sat>40</sat></trkpt>
  <trkpt lat="37.19934180" lon="38.93457936"><ele>629.691</ele><time>2026-09-23T11:03:14Z</time><speed>10.080</speed><sat>40</sat></trkpt>
  <trkpt lat="37.19945373" lon="38.93458504"><ele>629.602</ele><time>2026-09-23T11:03:15Z</time><speed>12.350</speed><sat>40</sat></trkpt>
  <trkpt lat="37.19955509" lon="38.93461300"><ele>630.181</ele><time>2026-09-23T11:03:16Z</time><speed>12.170</speed><sat>40</sat></trkpt>
  <trkpt lat="37.19964617" lon="38.93469074"><ele>629.927</ele><time>2026-09-23T11:03:17Z</time><speed>13.020</speed><sat>39</sat></trkpt>
  <trkpt lat="37.19973426" lon="38.93478431"><ele>629.891</ele><time>2026-09-23T11:03:18Z</time><speed>12.120</speed><sat>39</sat></trkpt>
  <trkpt lat="37.19980826" lon="38.93484150"><ele>629.406</ele><time>2026-09-23T11:03:19Z</time><speed>10.580</speed><sat>38</sat></trkpt>
  <trkpt lat="37.19987860" lon="38.93494994"><ele>629.255</ele><time>2026-09-23T11:03:20Z</time><speed>10.820</speed><sat>38</sat></trkpt>
  <trkpt lat="37.19994455" lon="38.93501269"><ele>629.142</ele><time>2026-09-23T11:03:21Z</time><speed>8.670</speed><sat>38</sat></trkpt>
  <trkpt lat="37.20006104" lon="38.93514109"><ele>630.198</ele><time>2026-09-23T11:03:22Z</time><speed>15.070</speed><sat>38</sat></trkpt>
  <trkpt lat="37.20016472" lon="38.93524491"><ele>630.035</ele><time>2026-09-23T11:03:23Z</time><speed>15.010</speed><sat>38</sat></trkpt>
  <trkpt lat="37.20025674" lon="38.93535507"><ele>630.123</ele><time>2026-09-23T11:03:24Z</time><speed>14.780</speed><sat>38</sat></trkpt>
  <trkpt lat="37.20036106" lon="38.93547452"><ele>630.674</ele><time>2026-09-23T11:03:25Z</time><speed>15.660</speed><sat>39</sat></trkpt>
  <trkpt lat="37.20047055" lon="38.93556962"><ele>630.685</ele><time>2026-09-23T11:03:26Z</time><speed>14.820</speed><sat>39</sat></trkpt>
  <trkpt lat="37.20057602" lon="38.93567550"><ele>629.855</ele><time>2026-09-23T11:03:27Z</time><speed>15.510</speed><sat>39</sat></trkpt>
  <trkpt lat="37.20068035" lon="38.93579268"><ele>628.879</ele><time>2026-09-23T11:03:28Z</time><speed>15.770</speed><sat>39</sat></trkpt>
  <trkpt lat="37.20078553" lon="38.93590812"><ele>628.407</ele><time>2026-09-23T11:03:29Z</time><speed>15.470</speed><sat>40</sat></trkpt>
  <trkpt lat="37.20090113" lon="38.93601960"><ele>629.273</ele><time>2026-09-23T11:03:30Z</time><speed>16.570</speed><sat>40</sat></trkpt>
  <trkpt lat="37.20101068" lon="38.93613259"><ele>629.950</ele><time>2026-09-23T11:03:31Z</time><speed>15.840</speed><sat>40</sat></trkpt>
  <trkpt lat="37.20112314" lon="38.93624318"><ele>630.442</ele><time>2026-09-23T11:03:32Z</time><speed>16.040</speed><sat>40</sat></trkpt>
  <trkpt lat="37.20123834" lon="38.93635947"><ele>631.196</ele><time>2026-09-23T11:03:33Z</time><speed>16.170</speed><sat>40</sat></trkpt>
  <trkpt lat="37.20135174" lon="38.93646524"><ele>631.443</ele><time>2026-09-23T11:03:34Z</time><speed>15.800</speed><sat>40</sat></trkpt>
  <trkpt lat="37.20146442" lon="38.93657231"><ele>632.081</ele><time>2026-09-23T11:03:35Z</time><speed>15.900</speed><sat>40</sat></trkpt>
  <trkpt lat="37.20158221" lon="38.93668943"><ele>632.198</ele><time>2026-09-23T11:03:36Z</time><speed>16.670</speed><sat>40</sat></trkpt>
  <trkpt lat="37.20169514" lon="38.93681361"><ele>632.893</ele><time>2026-09-23T11:03:37Z</time><speed>17.060</speed><sat>40</sat></trkpt>
  <trkpt lat="37.20180768" lon="38.93694638"><ele>633.029</ele><time>2026-09-23T11:03:38Z</time><speed>17.950</speed><sat>40</sat></trkpt>
  <trkpt lat="37.20187995" lon="38.93706905"><ele>630.993</ele><time>2026-09-23T11:03:39Z</time><speed>16.310</speed><sat>40</sat></trkpt>
  <trkpt lat="37.20199641" lon="38.93722959"><ele>631.071</ele><time>2026-09-23T11:03:40Z</time><speed>18.810</speed><sat>40</sat></trkpt>
  <trkpt lat="37.20208904" lon="38.93738144"><ele>630.614</ele><time>2026-09-23T11:03:41Z</time><speed>18.380</speed><sat>39</sat></trkpt>
  <trkpt lat="37.20218070" lon="38.93751965"><ele>630.570</ele><time>2026-09-23T11:03:42Z</time><speed>17.340</speed><sat>38</sat></trkpt>
  <trkpt lat="37.20227591" lon="38.93766603"><ele>628.017</ele><time>2026-09-23T11:03:43Z</time><speed>16.430</speed><sat>38</sat></trkpt>
  <trkpt lat="37.20236084" lon="38.93780610"><ele>626.720</ele><time>2026-09-23T11:03:44Z</time><speed>15.860</speed><sat>38</sat></trkpt>
  <trkpt lat="37.20244323" lon="38.93794069"><ele>625.740</ele><time>2026-09-23T11:03:45Z</time><speed>15.350</speed><sat>38</sat></trkpt>
  <trkpt lat="37.20252429" lon="38.93807183"><ele>625.567</ele><time>2026-09-23T11:03:46Z</time><speed>14.210</speed><sat>39</sat></trkpt>
  <trkpt lat="37.20260503" lon="38.93818488"><ele>624.825</ele><time>2026-09-23T11:03:47Z</time><speed>12.930</speed><sat>38</sat></trkpt>
  <trkpt lat="37.20267804" lon="38.93828237"><ele>624.899</ele><time>2026-09-23T11:03:48Z</time><speed>11.490</speed><sat>39</sat></trkpt>
  <trkpt lat="37.20274447" lon="38.93836771"><ele>624.814</ele><time>2026-09-23T11:03:49Z</time><speed>9.990</speed><sat>40</sat></trkpt>
  <trkpt lat="37.20280720" lon="38.93844271"><ele>624.831</ele><time>2026-09-23T11:03:50Z</time><speed>8.860</speed><sat>40</sat></trkpt>
  <trkpt lat="37.20285636" lon="38.93850250"><ele>624.800</ele><time>2026-09-23T11:03:51Z</time><speed>6.880</speed><sat>40</sat></trkpt>
  <trkpt lat="37.20289262" lon="38.93855348"><ele>624.502</ele><time>2026-09-23T11:03:52Z</time><speed>5.450</speed><sat>40</sat></trkpt>
  <trkpt lat="37.20292614" lon="38.93859503"><ele>624.281</ele><time>2026-09-23T11:03:53Z</time><speed>4.740</speed><sat>40</sat></trkpt>
  <trkpt lat="37.20295209" lon="38.93862661"><ele>624.329</ele><time>2026-09-23T11:03:54Z</time><speed>3.670</speed><sat>40</sat></trkpt>
  <trkpt lat="37.20296737" lon="38.93865190"><ele>624.167</ele><time>2026-09-23T11:03:55Z</time><speed>2.390</speed><sat>38</sat></trkpt>
  <trkpt lat="37.20297684" lon="38.93867704"><ele>624.241</ele><time>2026-09-23T11:03:56Z</time><speed>2.190</speed><sat>38</sat></trkpt>
  <trkpt lat="37.20298233" lon="38.93868265"><ele>623.445</ele><time>2026-09-23T11:03:57Z</time><speed>0.820</speed><sat>39</sat></trkpt>
  <trkpt lat="37.20298626" lon="38.93869188"><ele>623.331</ele><time>2026-09-23T11:03:58Z</time><speed>0.750</speed><sat>40</sat></trkpt>
  <trkpt lat="37.20298570" lon="38.93869681"><ele>623.221</ele><time>2026-09-23T11:03:59Z</time><speed>0.450</speed><sat>40</sat></trkpt>
  <trkpt lat="37.20298897" lon="38.93869805"><ele>622.988</ele><time>2026-09-23T11:04:00Z</time><speed>0.440</speed><sat>40</sat></trkpt>
  <trkpt lat="37.20298980" lon="38.93869970"><ele>623.207</ele><time>2026-09-23T11:04:01Z</time><speed>0.000</speed><sat>40</sat></trkpt>
  <trkpt lat="37.20299013" lon="38.93870101"><ele>623.282</ele><time>2026-09-23T11:04:02Z</time><speed>0.000</speed><sat>40</sat></trkpt>
  <trkpt lat="37.20299122" lon="38.93870128"><ele>623.384</ele><time>2026-09-23T11:04:03Z</time><speed>0.000</speed><sat>40</sat></trkpt>
  <trkpt lat="37.20299136" lon="38.93870175"><ele>623.452</ele><time>2026-09-23T11:04:04Z</time><speed>0.000</speed><sat>40</sat></trkpt>
  <trkpt lat="37.20299164" lon="38.93870288"><ele>623.454</ele><time>2026-09-23T11:04:05Z</time><speed>0.000</speed><sat>40</sat></trkpt>
  <trkpt lat="37.20299198" lon="38.93870277"><ele>623.339</ele><time>2026-09-23T11:04:06Z</time><speed>0.000</speed><sat>40</sat></trkpt>
  <trkpt lat="37.20299219" lon="38.93870363"><ele>623.335</ele><time>2026-09-23T11:04:07Z</time><speed>0.000</speed><sat>40</sat></trkpt>
  <trkpt lat="37.20299040" lon="38.93869923"><ele>623.346</ele><time>2026-09-23T11:04:08Z</time><speed>0.520</speed><sat>40</sat></trkpt>
  <trkpt lat="37.20299047" lon="38.93868960"><ele>622.453</ele><time>2026-09-23T11:04:09Z</time><speed>1.230</speed><sat>39</sat></trkpt>
  <trkpt lat="37.20298678" lon="38.93867279"><ele>622.202</ele><time>2026-09-23T11:04:10Z</time><speed>2.140</speed><sat>39</sat></trkpt>
  <trkpt lat="37.20298957" lon="38.93867898"><ele>624.954</ele><time>2026-09-23T11:04:11Z</time><speed>0.000</speed><sat>38</sat></trkpt>
  <trkpt lat="37.20299913" lon="38.93869909"><ele>625.000</ele><time>2026-09-23T11:04:12Z</time><speed>0.000</speed><sat>38</sat></trkpt>
  <trkpt lat="37.20300156" lon="38.93870552"><ele>624.998</ele><time>2026-09-23T11:04:13Z</time><speed>0.000</speed><sat>38</sat></trkpt>
  <trkpt lat="37.20300220" lon="38.93870998"><ele>625.200</ele><time>2026-09-23T11:04:14Z</time><speed>0.000</speed><sat>38</sat></trkpt>
  <trkpt lat="37.20299254" lon="38.93871060"><ele>624.852</ele><time>2026-09-23T11:04:15Z</time><speed>1.790</speed><sat>38</sat></trkpt>
  <trkpt lat="37.20299153" lon="38.93870996"><ele>624.837</ele><time>2026-09-23T11:04:16Z</time><speed>0.000</speed><sat>34</sat></trkpt>
  <trkpt lat="37.20299692" lon="38.93871519"><ele>625.057</ele><time>2026-09-23T11:04:17Z</time><speed>1.440</speed><sat>37</sat></trkpt>
  <trkpt lat="37.20298527" lon="38.93872431"><ele>625.248</ele><time>2026-09-23T11:04:18Z</time><speed>1.930</speed><sat>39</sat></trkpt>
  <trkpt lat="37.20297234" lon="38.93872758"><ele>625.354</ele><time>2026-09-23T11:04:19Z</time><speed>0.980</speed><sat>40</sat></trkpt>
  <trkpt lat="37.20296458" lon="38.93872194"><ele>624.951</ele><time>2026-09-23T11:04:20Z</time><speed>0.790</speed><sat>40</sat></trkpt>
  <trkpt lat="37.20296158" lon="38.93871474"><ele>625.246</ele><time>2026-09-23T11:04:21Z</time><speed>0.240</speed><sat>40</sat></trkpt>
  <trkpt lat="37.20296547" lon="38.93870761"><ele>624.743</ele><time>2026-09-23T11:04:22Z</time><speed>0.700</speed><sat>40</sat></trkpt>
  <trkpt lat="37.20299419" lon="38.93875801"><ele>621.942</ele><time>2026-09-23T11:04:23Z</time><speed>6.560</speed><sat>40</sat></trkpt>
  <trkpt lat="37.20297626" lon="38.93869728"><ele>623.670</ele><time>2026-09-23T11:04:24Z</time><speed>0.410</speed><sat>40</sat></trkpt>
  <trkpt lat="37.20297410" lon="38.93870107"><ele>623.545</ele><time>2026-09-23T11:04:25Z</time><speed>0.580</speed><sat>40</sat></trkpt>
  <trkpt lat="37.20296272" lon="38.93869983"><ele>623.313</ele><time>2026-09-23T11:04:26Z</time><speed>0.630</speed><sat>40</sat></trkpt>
  <trkpt lat="37.20298108" lon="38.93872023"><ele>623.849</ele><time>2026-09-23T11:04:27Z</time><speed>2.060</speed><sat>40</sat></trkpt>
  <trkpt lat="37.20298336" lon="38.93871357"><ele>623.626</ele><time>2026-09-23T11:04:28Z</time><speed>0.360</speed><sat>40</sat></trkpt>
  <trkpt lat="37.20297221" lon="38.93870777"><ele>623.037</ele><time>2026-09-23T11:04:29Z</time><speed>0.500</speed><sat>40</sat></trkpt>
  <trkpt lat="37.20296289" lon="38.93870365"><ele>622.622</ele><time>2026-09-23T11:04:30Z</time><speed>0.850</speed><sat>40</sat></trkpt>
  <trkpt lat="37.20296310" lon="38.93869940"><ele>622.351</ele><time>2026-09-23T11:04:31Z</time><speed>0.530</speed><sat>40</sat></trkpt>
  <trkpt lat="37.20296539" lon="38.93869465"><ele>622.343</ele><time>2026-09-23T11:04:32Z</time><speed>0.360</speed><sat>40</sat></trkpt>
  <trkpt lat="37.20296632" lon="38.93869674"><ele>622.410</ele><time>2026-09-23T11:04:33Z</time><speed>0.210</speed><sat>40</sat></trkpt>
  <trkpt lat="37.20296683" lon="38.93869747"><ele>622.459</ele><time>2026-09-23T11:04:34Z</time><speed>0.000</speed><sat>40</sat></trkpt>
  <trkpt lat="37.20296978" lon="38.93869334"><ele>622.251</ele><time>2026-09-23T11:04:35Z</time><speed>0.520</speed><sat>40</sat></trkpt>
  <trkpt lat="37.20298063" lon="38.93867243"><ele>620.640</ele><time>2026-09-23T11:04:36Z</time><speed>2.970</speed><sat>40</sat></trkpt>
  <trkpt lat="37.20298314" lon="38.93866100"><ele>622.078</ele><time>2026-09-23T11:04:37Z</time><speed>0.370</speed><sat>40</sat></trkpt>
  <trkpt lat="37.20298165" lon="38.93866177"><ele>622.035</ele><time>2026-09-23T11:04:38Z</time><speed>0.450</speed><sat>40</sat></trkpt>
  <trkpt lat="37.20298009" lon="38.93866103"><ele>622.264</ele><time>2026-09-23T11:04:39Z</time><speed>0.380</speed><sat>40</sat></trkpt>
  <trkpt lat="37.20298558" lon="38.93866195"><ele>622.319</ele><time>2026-09-23T11:04:40Z</time><speed>1.330</speed><sat>40</sat></trkpt>
  <trkpt lat="37.20299077" lon="38.93866582"><ele>621.902</ele><time>2026-09-23T11:04:41Z</time><speed>0.490</speed><sat>40</sat></trkpt>
  <trkpt lat="37.20299014" lon="38.93866905"><ele>622.229</ele><time>2026-09-23T11:04:42Z</time><speed>0.000</speed><sat>40</sat></trkpt>
  <trkpt lat="37.20298422" lon="38.93867614"><ele>622.176</ele><time>2026-09-23T11:04:43Z</time><speed>0.000</speed><sat>40</sat></trkpt>
  <trkpt lat="37.20298091" lon="38.93867929"><ele>622.731</ele><time>2026-09-23T11:04:44Z</time><speed>0.000</speed><sat>39</sat></trkpt>
  <trkpt lat="37.20298183" lon="38.93867968"><ele>623.003</ele><time>2026-09-23T11:04:45Z</time><speed>0.410</speed><sat>40</sat></trkpt>
  <trkpt lat="37.20298669" lon="38.93868443"><ele>622.495</ele><time>2026-09-23T11:04:46Z</time><speed>0.920</speed><sat>39</sat></trkpt>
  <trkpt lat="37.20298714" lon="38.93868661"><ele>622.528</ele><time>2026-09-23T11:04:47Z</time><speed>0.000</speed><sat>40</sat></trkpt>
  <trkpt lat="37.20298589" lon="38.93868594"><ele>622.613</ele><time>2026-09-23T11:04:48Z</time><speed>0.000</speed><sat>40</sat></trkpt>
  <trkpt lat="37.20298525" lon="38.93868556"><ele>622.419</ele><time>2026-09-23T11:04:49Z</time><speed>0.000</speed><sat>40</sat></trkpt>
  <trkpt lat="37.20298531" lon="38.93868543"><ele>622.228</ele><time>2026-09-23T11:04:50Z</time><speed>0.000</speed><sat>40</sat></trkpt>
  <trkpt lat="37.20298512" lon="38.93868410"><ele>622.211</ele><time>2026-09-23T11:04:51Z</time><speed>0.000</speed><sat>39</sat></trkpt>
  <trkpt lat="37.20298539" lon="38.93868333"><ele>622.269</ele><time>2026-09-23T11:04:52Z</time><speed>0.000</speed><sat>39</sat></trkpt>
  <trkpt lat="37.20299673" lon="38.93866771"><ele>623.432</ele><time>2026-09-23T11:04:53Z</time><speed>2.800</speed><sat>39</sat></trkpt>
  <trkpt lat="37.20301270" lon="38.93864971"><ele>622.168</ele><time>2026-09-23T11:04:54Z</time><speed>1.610</speed><sat>39</sat></trkpt>
  <trkpt lat="37.20302135" lon="38.93863476"><ele>623.323</ele><time>2026-09-23T11:04:55Z</time><speed>1.150</speed><sat>39</sat></trkpt>
  <trkpt lat="37.20302820" lon="38.93861915"><ele>623.342</ele><time>2026-09-23T11:04:56Z</time><speed>1.230</speed><sat>39</sat></trkpt>
  <trkpt lat="37.20303371" lon="38.93860421"><ele>624.035</ele><time>2026-09-23T11:04:57Z</time><speed>0.940</speed><sat>39</sat></trkpt>
  <trkpt lat="37.20303675" lon="38.93858774"><ele>623.513</ele><time>2026-09-23T11:04:58Z</time><speed>1.330</speed><sat>36</sat></trkpt>
  <trkpt lat="37.20304139" lon="38.93857172"><ele>624.110</ele><time>2026-09-23T11:04:59Z</time><speed>1.170</speed><sat>36</sat></trkpt>
  <trkpt lat="37.20304830" lon="38.93855777"><ele>624.736</ele><time>2026-09-23T11:05:00Z</time><speed>1.160</speed><sat>37</sat></trkpt>
  <trkpt lat="37.20305930" lon="38.93854501"><ele>624.598</ele><time>2026-09-23T11:05:01Z</time><speed>1.270</speed><sat>38</sat></trkpt>
  <trkpt lat="37.20307157" lon="38.93853225"><ele>625.196</ele><time>2026-09-23T11:05:02Z</time><speed>1.300</speed><sat>37</sat></trkpt>
  <trkpt lat="37.20308455" lon="38.93852133"><ele>623.649</ele><time>2026-09-23T11:05:03Z</time><speed>1.200</speed><sat>37</sat></trkpt>
  <trkpt lat="37.20309876" lon="38.93851181"><ele>623.461</ele><time>2026-09-23T11:05:04Z</time><speed>1.200</speed><sat>37</sat></trkpt>
  <trkpt lat="37.20311362" lon="38.93850280"><ele>623.491</ele><time>2026-09-23T11:05:05Z</time><speed>1.220</speed><sat>37</sat></trkpt>
  <trkpt lat="37.20312615" lon="38.93849318"><ele>622.763</ele><time>2026-09-23T11:05:06Z</time><speed>1.090</speed><sat>37</sat></trkpt>
  <trkpt lat="37.20313582" lon="38.93848259"><ele>623.158</ele><time>2026-09-23T11:05:07Z</time><speed>1.030</speed><sat>36</sat></trkpt>
  <trkpt lat="37.20314292" lon="38.93847214"><ele>622.875</ele><time>2026-09-23T11:05:08Z</time><speed>0.890</speed><sat>36</sat></trkpt>
  <trkpt lat="37.20315222" lon="38.93846131"><ele>622.939</ele><time>2026-09-23T11:05:09Z</time><speed>1.230</speed><sat>37</sat></trkpt>
  <trkpt lat="37.20316404" lon="38.93844940"><ele>622.927</ele><time>2026-09-23T11:05:10Z</time><speed>1.360</speed><sat>37</sat></trkpt>
  <trkpt lat="37.20317575" lon="38.93843783"><ele>622.274</ele><time>2026-09-23T11:05:11Z</time><speed>1.330</speed><sat>37</sat></trkpt>
  <trkpt lat="37.20318867" lon="38.93842438"><ele>622.590</ele><time>2026-09-23T11:05:12Z</time><speed>1.640</speed><sat>37</sat></trkpt>
  <trkpt lat="37.20320157" lon="38.93840941"><ele>622.423</ele><time>2026-09-23T11:05:13Z</time><speed>1.580</speed><sat>37</sat></trkpt>
  <trkpt lat="37.20321330" lon="38.93839496"><ele>622.984</ele><time>2026-09-23T11:05:14Z</time><speed>1.540</speed><sat>37</sat></trkpt>
  <trkpt lat="37.20322313" lon="38.93838029"><ele>624.065</ele><time>2026-09-23T11:05:15Z</time><speed>1.520</speed><sat>36</sat></trkpt>
  <trkpt lat="37.20323021" lon="38.93836748"><ele>623.814</ele><time>2026-09-23T11:05:16Z</time><speed>1.300</speed><sat>36</sat></trkpt>
  <trkpt lat="37.20323915" lon="38.93835539"><ele>624.565</ele><time>2026-09-23T11:05:17Z</time><speed>1.540</speed><sat>36</sat></trkpt>
  <trkpt lat="37.20324892" lon="38.93834374"><ele>624.436</ele><time>2026-09-23T11:05:18Z</time><speed>1.460</speed><sat>35</sat></trkpt>
  <trkpt lat="37.20325950" lon="38.93833411"><ele>624.865</ele><time>2026-09-23T11:05:19Z</time><speed>1.270</speed><sat>35</sat></trkpt>
  <trkpt lat="37.20326819" lon="38.93832304"><ele>624.631</ele><time>2026-09-23T11:05:20Z</time><speed>1.400</speed><sat>38</sat></trkpt>
  <trkpt lat="37.20327725" lon="38.93830999"><ele>624.831</ele><time>2026-09-23T11:05:21Z</time><speed>1.480</speed><sat>39</sat></trkpt>
  <trkpt lat="37.20328837" lon="38.93829616"><ele>625.080</ele><time>2026-09-23T11:05:22Z</time><speed>1.640</speed><sat>39</sat></trkpt>
  <trkpt lat="37.20329906" lon="38.93828281"><ele>625.049</ele><time>2026-09-23T11:05:23Z</time><speed>1.390</speed><sat>39</sat></trkpt>
  <trkpt lat="37.20330534" lon="38.93827135"><ele>624.862</ele><time>2026-09-23T11:05:24Z</time><speed>1.090</speed><sat>39</sat></trkpt>
  <trkpt lat="37.20330632" lon="38.93825654"><ele>623.903</ele><time>2026-09-23T11:05:25Z</time><speed>1.680</speed><sat>39</sat></trkpt>
  <trkpt lat="37.20330314" lon="38.93823827"><ele>623.291</ele><time>2026-09-23T11:05:26Z</time><speed>1.770</speed><sat>39</sat></trkpt>
  <trkpt lat="37.20330173" lon="38.93822378"><ele>624.210</ele><time>2026-09-23T11:05:27Z</time><speed>1.160</speed><sat>38</sat></trkpt>
  <trkpt lat="37.20330320" lon="38.93821176"><ele>624.089</ele><time>2026-09-23T11:05:28Z</time><speed>1.270</speed><sat>38</sat></trkpt>
  <trkpt lat="37.20330698" lon="38.93819943"><ele>623.347</ele><time>2026-09-23T11:05:29Z</time><speed>1.290</speed><sat>39</sat></trkpt>
  <trkpt lat="37.20331229" lon="38.93818648"><ele>622.488</ele><time>2026-09-23T11:05:30Z</time><speed>1.330</speed><sat>39</sat></trkpt>
  <trkpt lat="37.20331461" lon="38.93817248"><ele>620.746</ele><time>2026-09-23T11:05:31Z</time><speed>1.480</speed><sat>39</sat></trkpt>
  <trkpt lat="37.20331175" lon="38.93815752"><ele>619.683</ele><time>2026-09-23T11:05:32Z</time><speed>1.720</speed><sat>39</sat></trkpt>
  <trkpt lat="37.20330134" lon="38.93814370"><ele>618.459</ele><time>2026-09-23T11:05:33Z</time><speed>2.050</speed><sat>39</sat></trkpt>
  <trkpt lat="37.20328525" lon="38.93813136"><ele>617.581</ele><time>2026-09-23T11:05:34Z</time><speed>2.340</speed><sat>39</sat></trkpt>
  <trkpt lat="37.20326323" lon="38.93811888"><ele>617.151</ele><time>2026-09-23T11:05:35Z</time><speed>2.790</speed><sat>37</sat></trkpt>
  <trkpt lat="37.20325825" lon="38.93810299"><ele>619.205</ele><time>2026-09-23T11:05:36Z</time><speed>1.620</speed><sat>37</sat></trkpt>
  <trkpt lat="37.20325348" lon="38.93809112"><ele>619.415</ele><time>2026-09-23T11:05:37Z</time><speed>1.980</speed><sat>38</sat></trkpt>
  <trkpt lat="37.20325353" lon="38.93807792"><ele>618.511</ele><time>2026-09-23T11:05:38Z</time><speed>1.570</speed><sat>38</sat></trkpt>
  <trkpt lat="37.20326038" lon="38.93806553"><ele>617.322</ele><time>2026-09-23T11:05:39Z</time><speed>1.350</speed><sat>38</sat></trkpt>
  <trkpt lat="37.20327292" lon="38.93805028"><ele>616.032</ele><time>2026-09-23T11:05:40Z</time><speed>1.670</speed><sat>38</sat></trkpt>
  <trkpt lat="37.20328787" lon="38.93802958"><ele>615.470</ele><time>2026-09-23T11:05:41Z</time><speed>2.120</speed><sat>38</sat></trkpt>
  <trkpt lat="37.20330503" lon="38.93801048"><ele>616.080</ele><time>2026-09-23T11:05:42Z</time><speed>1.860</speed><sat>38</sat></trkpt>
  <trkpt lat="37.20332516" lon="38.93799902"><ele>615.938</ele><time>2026-09-23T11:05:43Z</time><speed>1.470</speed><sat>37</sat></trkpt>
  <trkpt lat="37.20334784" lon="38.93799297"><ele>617.934</ele><time>2026-09-23T11:05:44Z</time><speed>1.400</speed><sat>37</sat></trkpt>
  <trkpt lat="37.20338100" lon="38.93798692"><ele>621.625</ele><time>2026-09-23T11:05:45Z</time><speed>1.690</speed><sat>38</sat></trkpt>
  <trkpt lat="37.20341879" lon="38.93798155"><ele>625.323</ele><time>2026-09-23T11:05:46Z</time><speed>1.410</speed><sat>38</sat></trkpt>
  <trkpt lat="37.20345107" lon="38.93797652"><ele>626.022</ele><time>2026-09-23T11:05:47Z</time><speed>1.320</speed><sat>39</sat></trkpt>
  <trkpt lat="37.20347949" lon="38.93797185"><ele>626.632</ele><time>2026-09-23T11:05:48Z</time><speed>1.240</speed><sat>39</sat></trkpt>
  <trkpt lat="37.20350459" lon="38.93796780"><ele>626.734</ele><time>2026-09-23T11:05:49Z</time><speed>1.320</speed><sat>39</sat></trkpt>
 </trkseg>
</trk>

</gpx>
 