<?xml version="1.0" encoding="UTF-8"?>
<!-- Created with BasicAirData GPS Logger for Android - ver. 3.3.0 -->
<!-- Track 23 = 481 TrackPoints + 0 Placemarks -->

<!-- Track Statistics (based on Total Time | Time in Movement): -->
<!--  Distance = 565 m -->
<!--  Duration = 08:00 | 06:05 -->
<!--  Altitude Gap = -10 m -->
<!--  Max Speed = 11 km/h -->
<!--  Avg Speed = 4.2 | 5.6 km/h -->
<!--  Direction = NE -->
<!--  Activity = walking -->
<!--  Altitudes = Raw -->

<gpx version="1.0"
     creator="BasicAirData GPS Logger 3.3.0"
     xmlns="http://www.topografix.com/GPX/1/0"
     xmlns:xsi="http://www.w3.org/2001/XMLSchema-instance"
     xsi:schemaLocation="http://www.topografix.com/GPX/1/0 http://www.topografix.com/GPX/1/0/gpx.xsd">
<name>GPS Logger 20260914-101121</name>
<time>2026-09-15T20:03:28Z</time>
<keywords>walking</keywords>
<bounds minlat="38.48885577" minlon="42.29002819" maxlat="38.49189853" maxlon="42.29395650" />

<trk>
 <name>Track 20260914-101121</name>
 <trkseg>
  <trkpt lat="38.48885577" lon="42.29094112"><ele>1693.240</ele><time>2026-09-14T07:11:21Z</time><speed>1.540</speed><sat>32</sat></trkpt>
  <trkpt lat="38.48886587" lon="42.29093350"><ele>1693.540</ele><time>2026-09-14T07:11:22Z</time><speed>1.490</speed><sat>32</sat></trkpt>
  <trkpt lat="38.48887510" lon="42.29092499"><ele>1693.916</ele><time>2026-09-14T07:11:23Z</time><speed>1.420</speed><sat>33</sat></trkpt>
  <trkpt lat="38.48888458" lon="42.29091677"><ele>1693.712</ele><time>2026-09-14T07:11:24Z</time><speed>1.440</speed><sat>32</sat></trkpt>
  <trkpt lat="38.48889496" lon="42.29090951"><ele>1693.817</ele><time>2026-09-14T07:11:25Z</time><speed>1.490</speed><sat>32</sat></trkpt>
  <trkpt lat="38.48890581" lon="42.29090211"><ele>1694.045</ele><time>2026-09-14T07:11:26Z</time><speed>1.510</speed><sat>33</sat></trkpt>
  <trkpt lat="38.48891681" lon="42.29089541"><ele>1693.666</ele><time>2026-09-14T07:11:27Z</time><speed>1.530</speed><sat>33</sat></trkpt>
  <trkpt lat="38.48892832" lon="42.29088847"><ele>1693.897</ele><time>2026-09-14T07:11:28Z</time><speed>1.540</speed><sat>32</sat></trkpt>
  <trkpt lat="38.48893964" lon="42.29088315"><ele>1694.148</ele><time>2026-09-14T07:11:29Z</time><speed>1.390</speed><sat>33</sat></trkpt>
  <trkpt lat="38.48895235" lon="42.29087761"><ele>1694.120</ele><time>2026-09-14T07:11:30Z</time><speed>1.750</speed><sat>32</sat></trkpt>
  <trkpt lat="38.48896513" lon="42.29087209"><ele>1693.633</ele><time>2026-09-14T07:11:31Z</time><speed>1.490</speed><sat>31</sat></trkpt>
  <trkpt lat="38.48897678" lon="42.29086658"><ele>1694.006</ele><time>2026-09-14T07:11:32Z</time><speed>1.540</speed><sat>33</sat></trkpt>
  <trkpt lat="38.48898831" lon="42.29085826"><ele>1694.448</ele><time>2026-09-14T07:11:33Z</time><speed>1.570</speed><sat>33</sat></trkpt>
  <trkpt lat="38.48900012" lon="42.29085010"><ele>1694.220</ele><time>2026-09-14T07:11:34Z</time><speed>1.540</speed><sat>33</sat></trkpt>
  <trkpt lat="38.48901125" lon="42.29084277"><ele>1695.493</ele><time>2026-09-14T07:11:35Z</time><speed>1.430</speed><sat>33</sat></trkpt>
  <trkpt lat="38.48902380" lon="42.29083801"><ele>1695.941</ele><time>2026-09-14T07:11:36Z</time><speed>1.410</speed><sat>31</sat></trkpt>
  <trkpt lat="38.48903632" lon="42.29083288"><ele>1697.004</ele><time>2026-09-14T07:11:37Z</time><speed>1.270</speed><sat>30</sat></trkpt>
  <trkpt lat="38.48904636" lon="42.29082617"><ele>1697.759</ele><time>2026-09-14T07:11:38Z</time><speed>1.370</speed><sat>28</sat></trkpt>
  <trkpt lat="38.48905332" lon="42.29082684"><ele>1696.886</ele><time>2026-09-14T07:11:39Z</time><speed>0.610</speed><sat>27</sat></trkpt>
  <trkpt lat="38.48906859" lon="42.29083063"><ele>1698.135</ele><time>2026-09-14T07:11:40Z</time><speed>1.730</speed><sat>25</sat></trkpt>
  <trkpt lat="38.48908817" lon="42.29084287"><ele>1698.676</ele><time>2026-09-14T07:11:41Z</time><speed>1.990</speed><sat>24</sat></trkpt>
  <trkpt lat="38.48911772" lon="42.29085681"><ele>1699.925</ele><time>2026-09-14T07:11:42Z</time><speed>2.980</speed><sat>23</sat></trkpt>
  <trkpt lat="38.48914549" lon="42.29087192"><ele>1701.225</ele><time>2026-09-14T07:11:43Z</time><speed>2.380</speed><sat>22</sat></trkpt>
  <trkpt lat="38.48916639" lon="42.29088161"><ele>1701.396</ele><time>2026-09-14T07:11:44Z</time><speed>1.990</speed><sat>21</sat></trkpt>
  <trkpt lat="38.48918383" lon="42.29088268"><ele>1701.776</ele><time>2026-09-14T07:11:45Z</time><speed>1.870</speed><sat>21</sat></trkpt>
  <trkpt lat="38.48919889" lon="42.29087325"><ele>1701.174</ele><time>2026-09-14T07:11:46Z</time><speed>1.920</speed><sat>20</sat></trkpt>
  <trkpt lat="38.48920805" lon="42.29084704"><ele>1701.883</ele><time>2026-09-14T07:11:47Z</time><speed>2.360</speed><sat>20</sat></trkpt>
  <trkpt lat="38.48921681" lon="42.29081235"><ele>1701.920</ele><time>2026-09-14T07:11:48Z</time><speed>2.210</speed><sat>20</sat></trkpt>
  <trkpt lat="38.48922204" lon="42.29079030"><ele>1702.354</ele><time>2026-09-14T07:11:49Z</time><speed>1.370</speed><sat>20</sat></trkpt>
  <trkpt lat="38.48922510" lon="42.29077693"><ele>1703.019</ele><time>2026-09-14T07:11:50Z</time><speed>1.370</speed><sat>17</sat></trkpt>
  <trkpt lat="38.48923430" lon="42.29077076"><ele>1702.745</ele><time>2026-09-14T07:11:51Z</time><speed>1.440</speed><sat>16</sat></trkpt>
  <trkpt lat="38.48924200" lon="42.29076502"><ele>1703.248</ele><time>2026-09-14T07:11:52Z</time><speed>0.510</speed><sat>17</sat></trkpt>
  <trkpt lat="38.48924640" lon="42.29075739"><ele>1704.329</ele><time>2026-09-14T07:11:53Z</time><speed>0.760</speed><sat>18</sat></trkpt>
  <trkpt lat="38.48924657" lon="42.29074314"><ele>1704.793</ele><time>2026-09-14T07:11:54Z</time><speed>1.490</speed><sat>18</sat></trkpt>
  <trkpt lat="38.48924148" lon="42.29072882"><ele>1705.837</ele><time>2026-09-14T07:11:55Z</time><speed>1.440</speed><sat>18</sat></trkpt>
  <trkpt lat="38.48923787" lon="42.29071811"><ele>1706.222</ele><time>2026-09-14T07:11:56Z</time><speed>1.230</speed><sat>18</sat></trkpt>
  <trkpt lat="38.48924044" lon="42.29071236"><ele>1705.731</ele><time>2026-09-14T07:11:57Z</time><speed>0.320</speed><sat>18</sat></trkpt>
  <trkpt lat="38.48925561" lon="42.29070189"><ele>1704.221</ele><time>2026-09-14T07:11:58Z</time><speed>2.230</speed><sat>18</sat></trkpt>
  <trkpt lat="38.48927545" lon="42.29069035"><ele>1702.885</ele><time>2026-09-14T07:11:59Z</time><speed>1.510</speed><sat>20</sat></trkpt>
  <trkpt lat="38.48929372" lon="42.29068895"><ele>1704.072</ele><time>2026-09-14T07:12:00Z</time><speed>1.390</speed><sat>20</sat></trkpt>
  <trkpt lat="38.48931130" lon="42.29068748"><ele>1705.853</ele><time>2026-09-14T07:12:01Z</time><speed>1.410</speed><sat>22</sat></trkpt>
  <trkpt lat="38.48932926" lon="42.29068941"><ele>1706.130</ele><time>2026-09-14T07:12:02Z</time><speed>1.320</speed><sat>22</sat></trkpt>
  <trkpt lat="38.48934683" lon="42.29068875"><ele>1706.201</ele><time>2026-09-14T07:12:03Z</time><speed>1.420</speed><sat>25</sat></trkpt>
  <trkpt lat="38.48936233" lon="42.29068565"><ele>1706.795</ele><time>2026-09-14T07:12:04Z</time><speed>1.380</speed><sat>25</sat></trkpt>
  <trkpt lat="38.48937887" lon="42.29068627"><ele>1706.125</ele><time>2026-09-14T07:12:05Z</time><speed>1.440</speed><sat>24</sat></trkpt>
  <trkpt lat="38.48939435" lon="42.29068679"><ele>1706.879</ele><time>2026-09-14T07:12:06Z</time><speed>1.120</speed><sat>24</sat></trkpt>
  <trkpt lat="38.48940634" lon="42.29068648"><ele>1707.319</ele><time>2026-09-14T07:12:07Z</time><speed>1.420</speed><sat>26</sat></trkpt>
  <trkpt lat="38.48942061" lon="42.29068332"><ele>1705.646</ele><time>2026-09-14T07:12:08Z</time><speed>1.670</speed><sat>29</sat></trkpt>
  <trkpt lat="38.48943095" lon="42.29067792"><ele>1707.710</ele><time>2026-09-14T07:12:09Z</time><speed>1.390</speed><sat>30</sat></trkpt>
  <trkpt lat="38.48944153" lon="42.29067063"><ele>1707.527</ele><time>2026-09-14T07:12:10Z</time><speed>1.550</speed><sat>32</sat></trkpt>
  <trkpt lat="38.48945096" lon="42.29066582"><ele>1707.257</ele><time>2026-09-14T07:12:11Z</time><speed>1.060</speed><sat>31</sat></trkpt>
  <trkpt lat="38.48946150" lon="42.29066311"><ele>1707.662</ele><time>2026-09-14T07:12:12Z</time><speed>1.490</speed><sat>32</sat></trkpt>
  <trkpt lat="38.48947452" lon="42.29066122"><ele>1708.767</ele><time>2026-09-14T07:12:13Z</time><speed>1.550</speed><sat>31</sat></trkpt>
  <trkpt lat="38.48948355" lon="42.29065980"><ele>1709.634</ele><time>2026-09-14T07:12:14Z</time><speed>0.950</speed><sat>33</sat></trkpt>
  <trkpt lat="38.48949412" lon="42.29066147"><ele>1709.687</ele><time>2026-09-14T07:12:15Z</time><speed>1.700</speed><sat>32</sat></trkpt>
  <trkpt lat="38.48950367" lon="42.29066273"><ele>1711.103</ele><time>2026-09-14T07:12:16Z</time><speed>1.150</speed><sat>33</sat></trkpt>
  <trkpt lat="38.48951105" lon="42.29066050"><ele>1711.692</ele><time>2026-09-14T07:12:17Z</time><speed>1.060</speed><sat>34</sat></trkpt>
  <trkpt lat="38.48951550" lon="42.29065600"><ele>1712.445</ele><time>2026-09-14T07:12:18Z</time><speed>0.370</speed><sat>35</sat></trkpt>
  <trkpt lat="38.48951946" lon="42.29064649"><ele>1712.772</ele><time>2026-09-14T07:12:19Z</time><speed>0.830</speed><sat>35</sat></trkpt>
  <trkpt lat="38.48952552" lon="42.29063265"><ele>1713.887</ele><time>2026-09-14T07:12:20Z</time><speed>1.220</speed><sat>36</sat></trkpt>
  <trkpt lat="38.48953038" lon="42.29061717"><ele>1712.883</ele><time>2026-09-14T07:12:21Z</time><speed>0.460</speed><sat>36</sat></trkpt>
  <trkpt lat="38.48953723" lon="42.29060256"><ele>1710.078</ele><time>2026-09-14T07:12:22Z</time><speed>0.690</speed><sat>36</sat></trkpt>
  <trkpt lat="38.48955074" lon="42.29058384"><ele>1708.500</ele><time>2026-09-14T07:12:23Z</time><speed>1.510</speed><sat>33</sat></trkpt>
  <trkpt lat="38.48956560" lon="42.29055994"><ele>1707.307</ele><time>2026-09-14T07:12:24Z</time><speed>1.570</speed><sat>32</sat></trkpt>
  <trkpt lat="38.48958001" lon="42.29053672"><ele>1708.490</ele><time>2026-09-14T07:12:25Z</time><speed>1.560</speed><sat>32</sat></trkpt>
  <trkpt lat="38.48959565" lon="42.29051655"><ele>1709.773</ele><time>2026-09-14T07:12:26Z</time><speed>1.630</speed><sat>31</sat></trkpt>
  <trkpt lat="38.48960738" lon="42.29049907"><ele>1709.627</ele><time>2026-09-14T07:12:27Z</time><speed>1.120</speed><sat>31</sat></trkpt>
  <trkpt lat="38.48961732" lon="42.29048303"><ele>1708.460</ele><time>2026-09-14T07:12:28Z</time><speed>1.300</speed><sat>31</sat></trkpt>
  <trkpt lat="38.48962890" lon="42.29046729"><ele>1706.208</ele><time>2026-09-14T07:12:29Z</time><speed>1.190</speed><sat>32</sat></trkpt>
  <trkpt lat="38.48963960" lon="42.29045453"><ele>1705.484</ele><time>2026-09-14T07:12:30Z</time><speed>1.210</speed><sat>30</sat></trkpt>
  <trkpt lat="38.48965022" lon="42.29044388"><ele>1707.028</ele><time>2026-09-14T07:12:31Z</time><speed>1.190</speed><sat>29</sat></trkpt>
  <trkpt lat="38.48966097" lon="42.29043273"><ele>1708.682</ele><time>2026-09-14T07:12:32Z</time><speed>1.270</speed><sat>30</sat></trkpt>
  <trkpt lat="38.48966919" lon="42.29041960"><ele>1708.633</ele><time>2026-09-14T07:12:33Z</time><speed>1.030</speed><sat>32</sat></trkpt>
  <trkpt lat="38.48967697" lon="42.29040441"><ele>1709.634</ele><time>2026-09-14T07:12:34Z</time><speed>1.510</speed><sat>32</sat></trkpt>
  <trkpt lat="38.48968493" lon="42.29038894"><ele>1709.800</ele><time>2026-09-14T07:12:35Z</time><speed>1.280</speed><sat>31</sat></trkpt>
  <trkpt lat="38.48969261" lon="42.29037662"><ele>1709.804</ele><time>2026-09-14T07:12:36Z</time><speed>1.320</speed><sat>31</sat></trkpt>
  <trkpt lat="38.48970173" lon="42.29036407"><ele>1709.611</ele><time>2026-09-14T07:12:37Z</time><speed>1.410</speed><sat>31</sat></trkpt>
  <trkpt lat="38.48970878" lon="42.29035228"><ele>1710.869</ele><time>2026-09-14T07:12:38Z</time><speed>0.990</speed><sat>31</sat></trkpt>
  <trkpt lat="38.48971923" lon="42.29033850"><ele>1711.235</ele><time>2026-09-14T07:12:39Z</time><speed>1.680</speed><sat>30</sat></trkpt>
  <trkpt lat="38.48973151" lon="42.29032470"><ele>1710.562</ele><time>2026-09-14T07:12:40Z</time><speed>1.520</speed><sat>30</sat></trkpt>
  <trkpt lat="38.48974233" lon="42.29031091"><ele>1709.280</ele><time>2026-09-14T07:12:41Z</time><speed>1.380</speed><sat>30</sat></trkpt>
  <trkpt lat="38.48974963" lon="42.29029675"><ele>1709.019</ele><time>2026-09-14T07:12:42Z</time><speed>0.690</speed><sat>32</sat></trkpt>
  <trkpt lat="38.48975278" lon="42.29028742"><ele>1707.981</ele><time>2026-09-14T07:12:43Z</time><speed>0.000</speed><sat>32</sat></trkpt>
  <trkpt lat="38.48975581" lon="42.29027838"><ele>1707.051</ele><time>2026-09-14T07:12:44Z</time><speed>0.450</speed><sat>32</sat></trkpt>
  <trkpt lat="38.48976201" lon="42.29027060"><ele>1706.609</ele><time>2026-09-14T07:12:45Z</time><speed>0.520</speed><sat>32</sat></trkpt>
  <trkpt lat="38.48977166" lon="42.29025861"><ele>1706.135</ele><time>2026-09-14T07:12:46Z</time><speed>1.270</speed><sat>33</sat></trkpt>
  <trkpt lat="38.48978321" lon="42.29024634"><ele>1706.121</ele><time>2026-09-14T07:12:47Z</time><speed>1.320</speed><sat>33</sat></trkpt>
  <trkpt lat="38.48979757" lon="42.29023865"><ele>1705.489</ele><time>2026-09-14T07:12:48Z</time><speed>1.520</speed><sat>31</sat></trkpt>
  <trkpt lat="38.48981396" lon="42.29023171"><ele>1706.897</ele><time>2026-09-14T07:12:49Z</time><speed>1.580</speed><sat>31</sat></trkpt>
  <trkpt lat="38.48982527" lon="42.29022841"><ele>1708.381</ele><time>2026-09-14T07:12:50Z</time><speed>0.670</speed><sat>32</sat></trkpt>
  <trkpt lat="38.48983395" lon="42.29022460"><ele>1708.545</ele><time>2026-09-14T07:12:51Z</time><speed>0.730</speed><sat>32</sat></trkpt>
  <trkpt lat="38.48984422" lon="42.29021742"><ele>1709.297</ele><time>2026-09-14T07:12:52Z</time><speed>0.700</speed><sat>32</sat></trkpt>
  <trkpt lat="38.48985599" lon="42.29021093"><ele>1710.031</ele><time>2026-09-14T07:12:53Z</time><speed>1.180</speed><sat>32</sat></trkpt>
  <trkpt lat="38.48986685" lon="42.29020669"><ele>1710.871</ele><time>2026-09-14T07:12:54Z</time><speed>1.060</speed><sat>32</sat></trkpt>
  <trkpt lat="38.48987784" lon="42.29020255"><ele>1710.779</ele><time>2026-09-14T07:12:55Z</time><speed>1.120</speed><sat>34</sat></trkpt>
  <trkpt lat="38.48989401" lon="42.29019807"><ele>1710.491</ele><time>2026-09-14T07:12:56Z</time><speed>1.820</speed><sat>34</sat></trkpt>
  <trkpt lat="38.48991315" lon="42.29019421"><ele>1708.837</ele><time>2026-09-14T07:12:57Z</time><speed>1.710</speed><sat>33</sat></trkpt>
  <trkpt lat="38.48993272" lon="42.29018920"><ele>1708.179</ele><time>2026-09-14T07:12:58Z</time><speed>1.790</speed><sat>34</sat></trkpt>
  <trkpt lat="38.48994980" lon="42.29017769"><ele>1707.023</ele><time>2026-09-14T07:12:59Z</time><speed>1.370</speed><sat>30</sat></trkpt>
  <trkpt lat="38.48996298" lon="42.29016643"><ele>1705.258</ele><time>2026-09-14T07:13:00Z</time><speed>1.010</speed><sat>29</sat></trkpt>
  <trkpt lat="38.48997300" lon="42.29015723"><ele>1705.143</ele><time>2026-09-14T07:13:01Z</time><speed>0.340</speed><sat>28</sat></trkpt>
  <trkpt lat="38.48998117" lon="42.29014626"><ele>1704.828</ele><time>2026-09-14T07:13:02Z</time><speed>0.590</speed><sat>27</sat></trkpt>
  <trkpt lat="38.48998838" lon="42.29013246"><ele>1703.687</ele><time>2026-09-14T07:13:03Z</time><speed>0.800</speed><sat>27</sat></trkpt>
  <trkpt lat="38.48999694" lon="42.29011875"><ele>1703.813</ele><time>2026-09-14T07:13:04Z</time><speed>1.100</speed><sat>26</sat></trkpt>
  <trkpt lat="38.49000803" lon="42.29010659"><ele>1703.423</ele><time>2026-09-14T07:13:05Z</time><speed>1.100</speed><sat>28</sat></trkpt>
  <trkpt lat="38.49001854" lon="42.29009520"><ele>1703.424</ele><time>2026-09-14T07:13:06Z</time><speed>0.990</speed><sat>28</sat></trkpt>
  <trkpt lat="38.49002877" lon="42.29008638"><ele>1703.033</ele><time>2026-09-14T07:13:07Z</time><speed>0.660</speed><sat>28</sat></trkpt>
  <trkpt lat="38.49003902" lon="42.29007315"><ele>1702.107</ele><time>2026-09-14T07:13:08Z</time><speed>1.470</speed><sat>30</sat></trkpt>
  <trkpt lat="38.49005275" lon="42.29005712"><ele>1702.570</ele><time>2026-09-14T07:13:09Z</time><speed>1.660</speed><sat>27</sat></trkpt>
  <trkpt lat="38.49006241" lon="42.29004113"><ele>1703.584</ele><time>2026-09-14T07:13:10Z</time><speed>1.560</speed><sat>25</sat></trkpt>
  <trkpt lat="38.49006676" lon="42.29003457"><ele>1702.690</ele><time>2026-09-14T07:13:11Z</time><speed>0.500</speed><sat>25</sat></trkpt>
  <trkpt lat="38.49006953" lon="42.29003130"><ele>1699.880</ele><time>2026-09-14T07:13:12Z</time><speed>0.270</speed><sat>25</sat></trkpt>
  <trkpt lat="38.49006859" lon="42.29002819"><ele>1699.804</ele><time>2026-09-14T07:13:13Z</time><speed>0.730</speed><sat>26</sat></trkpt>
  <trkpt lat="38.49006840" lon="42.29003042"><ele>1699.968</ele><time>2026-09-14T07:13:14Z</time><speed>0.260</speed><sat>27</sat></trkpt>
  <trkpt lat="38.49006912" lon="42.29003474"><ele>1700.011</ele><time>2026-09-14T07:13:15Z</time><speed>0.410</speed><sat>29</sat></trkpt>
  <trkpt lat="38.49007121" lon="42.29004839"><ele>1701.682</ele><time>2026-09-14T07:13:16Z</time><speed>0.580</speed><sat>30</sat></trkpt>
  <trkpt lat="38.49007175" lon="42.29006411"><ele>1701.081</ele><time>2026-09-14T07:13:17Z</time><speed>0.590</speed><sat>29</sat></trkpt>
  <trkpt lat="38.49007051" lon="42.29008193"><ele>1700.095</ele><time>2026-09-14T07:13:18Z</time><speed>1.130</speed><sat>31</sat></trkpt>
  <trkpt lat="38.49007389" lon="42.29010936"><ele>1700.723</ele><time>2026-09-14T07:13:19Z</time><speed>0.000</speed><sat>32</sat></trkpt>
  <trkpt lat="38.49008477" lon="42.29012058"><ele>1699.912</ele><time>2026-09-14T07:13:20Z</time><speed>1.250</speed><sat>32</sat></trkpt>
  <trkpt lat="38.49009097" lon="42.29013927"><ele>1701.128</ele><time>2026-09-14T07:13:21Z</time><speed>0.000</speed><sat>31</sat></trkpt>
  <trkpt lat="38.49009308" lon="42.29014898"><ele>1701.289</ele><time>2026-09-14T07:13:22Z</time><speed>0.000</speed><sat>31</sat></trkpt>
  <trkpt lat="38.49009403" lon="42.29015397"><ele>1701.285</ele><time>2026-09-14T07:13:23Z</time><speed>0.000</speed><sat>31</sat></trkpt>
  <trkpt lat="38.49009433" lon="42.29015569"><ele>1701.288</ele><time>2026-09-14T07:13:24Z</time><speed>0.000</speed><sat>29</sat></trkpt>
  <trkpt lat="38.49009388" lon="42.29015552"><ele>1701.198</ele><time>2026-09-14T07:13:25Z</time><speed>0.610</speed><sat>27</sat></trkpt>
  <trkpt lat="38.49008888" lon="42.29015726"><ele>1702.124</ele><time>2026-09-14T07:13:26Z</time><speed>0.950</speed><sat>27</sat></trkpt>
  <trkpt lat="38.49008077" lon="42.29016598"><ele>1701.936</ele><time>2026-09-14T07:13:27Z</time><speed>1.150</speed><sat>28</sat></trkpt>
  <trkpt lat="38.49007805" lon="42.29017811"><ele>1700.912</ele><time>2026-09-14T07:13:28Z</time><speed>1.230</speed><sat>29</sat></trkpt>
  <trkpt lat="38.49008268" lon="42.29019384"><ele>1700.522</ele><time>2026-09-14T07:13:29Z</time><speed>1.360</speed><sat>28</sat></trkpt>
  <trkpt lat="38.49009203" lon="42.29020892"><ele>1699.763</ele><time>2026-09-14T07:13:30Z</time><speed>1.380</speed><sat>29</sat></trkpt>
  <trkpt lat="38.49010337" lon="42.29022170"><ele>1699.223</ele><time>2026-09-14T07:13:31Z</time><speed>1.400</speed><sat>27</sat></trkpt>
  <trkpt lat="38.49011470" lon="42.29023094"><ele>1698.363</ele><time>2026-09-14T07:13:32Z</time><speed>1.170</speed><sat>27</sat></trkpt>
  <trkpt lat="38.49012669" lon="42.29023694"><ele>1697.743</ele><time>2026-09-14T07:13:33Z</time><speed>1.270</speed><sat>26</sat></trkpt>
  <trkpt lat="38.49013679" lon="42.29025909"><ele>1697.789</ele><time>2026-09-14T07:13:34Z</time><speed>1.900</speed><sat>26</sat></trkpt>
  <trkpt lat="38.49014110" lon="42.29028019"><ele>1697.793</ele><time>2026-09-14T07:13:35Z</time><speed>1.030</speed><sat>26</sat></trkpt>
  <trkpt lat="38.49014313" lon="42.29029842"><ele>1697.928</ele><time>2026-09-14T07:13:36Z</time><speed>1.100</speed><sat>25</sat></trkpt>
  <trkpt lat="38.49014566" lon="42.29031128"><ele>1696.470</ele><time>2026-09-14T07:13:37Z</time><speed>0.590</speed><sat>25</sat></trkpt>
  <trkpt lat="38.49014877" lon="42.29032050"><ele>1696.789</ele><time>2026-09-14T07:13:38Z</time><speed>0.540</speed><sat>27</sat></trkpt>
  <trkpt lat="38.49015629" lon="42.29033161"><ele>1697.495</ele><time>2026-09-14T07:13:39Z</time><speed>1.420</speed><sat>26</sat></trkpt>
  <trkpt lat="38.49016474" lon="42.29034711"><ele>1696.091</ele><time>2026-09-14T07:13:40Z</time><speed>1.580</speed><sat>26</sat></trkpt>
  <trkpt lat="38.49016934" lon="42.29037110"><ele>1695.232</ele><time>2026-09-14T07:13:41Z</time><speed>1.790</speed><sat>27</sat></trkpt>
  <trkpt lat="38.49017471" lon="42.29039650"><ele>1695.791</ele><time>2026-09-14T07:13:42Z</time><speed>1.720</speed><sat>26</sat></trkpt>
  <trkpt lat="38.49018142" lon="42.29042069"><ele>1696.752</ele><time>2026-09-14T07:13:43Z</time><speed>1.930</speed><sat>24</sat></trkpt>
  <trkpt lat="38.49018930" lon="42.29044606"><ele>1696.799</ele><time>2026-09-14T07:13:44Z</time><speed>2.040</speed><sat>23</sat></trkpt>
  <trkpt lat="38.49019848" lon="42.29046897"><ele>1695.878</ele><time>2026-09-14T07:13:45Z</time><speed>1.960</speed><sat>24</sat></trkpt>
  <trkpt lat="38.49020603" lon="42.29049290"><ele>1695.845</ele><time>2026-09-14T07:13:46Z</time><speed>2.000</speed><sat>24</sat></trkpt>
  <trkpt lat="38.49021174" lon="42.29051379"><ele>1696.206</ele><time>2026-09-14T07:13:47Z</time><speed>1.530</speed><sat>23</sat></trkpt>
  <trkpt lat="38.49021633" lon="42.29052598"><ele>1696.626</ele><time>2026-09-14T07:13:48Z</time><speed>0.720</speed><sat>23</sat></trkpt>
  <trkpt lat="38.49021709" lon="42.29053286"><ele>1696.458</ele><time>2026-09-14T07:13:49Z</time><speed>0.400</speed><sat>23</sat></trkpt>
  <trkpt lat="38.49021300" lon="42.29054183"><ele>1695.094</ele><time>2026-09-14T07:13:50Z</time><speed>1.030</speed><sat>23</sat></trkpt>
  <trkpt lat="38.49020471" lon="42.29055237"><ele>1694.209</ele><time>2026-09-14T07:13:51Z</time><speed>1.490</speed><sat>22</sat></trkpt>
  <trkpt lat="38.49020073" lon="42.29056316"><ele>1693.494</ele><time>2026-09-14T07:13:52Z</time><speed>1.520</speed><sat>22</sat></trkpt>
  <trkpt lat="38.49020000" lon="42.29057287"><ele>1693.281</ele><time>2026-09-14T07:13:53Z</time><speed>1.240</speed><sat>22</sat></trkpt>
  <trkpt lat="38.49020481" lon="42.29058036"><ele>1693.141</ele><time>2026-09-14T07:13:54Z</time><speed>0.640</speed><sat>20</sat></trkpt>
  <trkpt lat="38.49021507" lon="42.29058886"><ele>1693.421</ele><time>2026-09-14T07:13:55Z</time><speed>0.640</speed><sat>21</sat></trkpt>
  <trkpt lat="38.49023650" lon="42.29059689"><ele>1691.814</ele><time>2026-09-14T07:13:56Z</time><speed>1.890</speed><sat>21</sat></trkpt>
  <trkpt lat="38.49026703" lon="42.29060496"><ele>1689.977</ele><time>2026-09-14T07:13:57Z</time><speed>2.140</speed><sat>22</sat></trkpt>
  <trkpt lat="38.49029059" lon="42.29061007"><ele>1689.455</ele><time>2026-09-14T07:13:58Z</time><speed>1.730</speed><sat>21</sat></trkpt>
  <trkpt lat="38.49031075" lon="42.29061705"><ele>1689.249</ele><time>2026-09-14T07:13:59Z</time><speed>1.700</speed><sat>21</sat></trkpt>
  <trkpt lat="38.49032934" lon="42.29062588"><ele>1688.791</ele><time>2026-09-14T07:14:00Z</time><speed>1.730</speed><sat>21</sat></trkpt>
  <trkpt lat="38.49034208" lon="42.29063833"><ele>1688.562</ele><time>2026-09-14T07:14:01Z</time><speed>1.230</speed><sat>21</sat></trkpt>
  <trkpt lat="38.49034787" lon="42.29064727"><ele>1688.654</ele><time>2026-09-14T07:14:02Z</time><speed>0.440</speed><sat>19</sat></trkpt>
  <trkpt lat="38.49034958" lon="42.29065535"><ele>1688.968</ele><time>2026-09-14T07:14:03Z</time><speed>0.560</speed><sat>19</sat></trkpt>
  <trkpt lat="38.49034755" lon="42.29066576"><ele>1689.019</ele><time>2026-09-14T07:14:04Z</time><speed>0.490</speed><sat>20</sat></trkpt>
  <trkpt lat="38.49034830" lon="42.29067747"><ele>1688.947</ele><time>2026-09-14T07:14:05Z</time><speed>0.640</speed><sat>25</sat></trkpt>
  <trkpt lat="38.49035251" lon="42.29070141"><ele>1688.487</ele><time>2026-09-14T07:14:06Z</time><speed>1.740</speed><sat>24</sat></trkpt>
  <trkpt lat="38.49036644" lon="42.29073061"><ele>1688.600</ele><time>2026-09-14T07:14:07Z</time><speed>1.810</speed><sat>25</sat></trkpt>
  <trkpt lat="38.49038445" lon="42.29076228"><ele>1689.249</ele><time>2026-09-14T07:14:08Z</time><speed>2.030</speed><sat>28</sat></trkpt>
  <trkpt lat="38.49040316" lon="42.29079057"><ele>1688.942</ele><time>2026-09-14T07:14:09Z</time><speed>1.280</speed><sat>28</sat></trkpt>
  <trkpt lat="38.49041896" lon="42.29081658"><ele>1690.491</ele><time>2026-09-14T07:14:10Z</time><speed>1.640</speed><sat>28</sat></trkpt>
  <trkpt lat="38.49043180" lon="42.29084225"><ele>1690.493</ele><time>2026-09-14T07:14:11Z</time><speed>1.680</speed><sat>28</sat></trkpt>
  <trkpt lat="38.49044247" lon="42.29087102"><ele>1692.621</ele><time>2026-09-14T07:14:12Z</time><speed>1.840</speed><sat>28</sat></trkpt>
  <trkpt lat="38.49045468" lon="42.29090361"><ele>1693.365</ele><time>2026-09-14T07:14:13Z</time><speed>2.190</speed><sat>27</sat></trkpt>
  <trkpt lat="38.49046515" lon="42.29092725"><ele>1694.385</ele><time>2026-09-14T07:14:14Z</time><speed>1.360</speed><sat>28</sat></trkpt>
  <trkpt lat="38.49047538" lon="42.29094674"><ele>1694.707</ele><time>2026-09-14T07:14:15Z</time><speed>1.620</speed><sat>26</sat></trkpt>
  <trkpt lat="38.49048651" lon="42.29096554"><ele>1695.155</ele><time>2026-09-14T07:14:16Z</time><speed>1.820</speed><sat>28</sat></trkpt>
  <trkpt lat="38.49049879" lon="42.29098314"><ele>1695.079</ele><time>2026-09-14T07:14:17Z</time><speed>1.670</speed><sat>29</sat></trkpt>
  <trkpt lat="38.49051154" lon="42.29099841"><ele>1695.253</ele><time>2026-09-14T07:14:18Z</time><speed>1.640</speed><sat>29</sat></trkpt>
  <trkpt lat="38.49052649" lon="42.29101081"><ele>1695.301</ele><time>2026-09-14T07:14:19Z</time><speed>1.710</speed><sat>29</sat></trkpt>
  <trkpt lat="38.49054159" lon="42.29101826"><ele>1695.853</ele><time>2026-09-14T07:14:20Z</time><speed>1.550</speed><sat>28</sat></trkpt>
  <trkpt lat="38.49055694" lon="42.29102387"><ele>1695.955</ele><time>2026-09-14T07:14:21Z</time><speed>1.570</speed><sat>29</sat></trkpt>
  <trkpt lat="38.49056696" lon="42.29103313"><ele>1694.469</ele><time>2026-09-14T07:14:22Z</time><speed>1.130</speed><sat>28</sat></trkpt>
  <trkpt lat="38.49057618" lon="42.29104189"><ele>1693.291</ele><time>2026-09-14T07:14:23Z</time><speed>1.410</speed><sat>27</sat></trkpt>
  <trkpt lat="38.49058418" lon="42.29105184"><ele>1691.077</ele><time>2026-09-14T07:14:24Z</time><speed>1.330</speed><sat>28</sat></trkpt>
  <trkpt lat="38.49058886" lon="42.29106543"><ele>1690.037</ele><time>2026-09-14T07:14:25Z</time><speed>1.310</speed><sat>29</sat></trkpt>
  <trkpt lat="38.49058924" lon="42.29108369"><ele>1688.450</ele><time>2026-09-14T07:14:26Z</time><speed>1.610</speed><sat>28</sat></trkpt>
  <trkpt lat="38.49059039" lon="42.29110068"><ele>1687.280</ele><time>2026-09-14T07:14:27Z</time><speed>1.370</speed><sat>28</sat></trkpt>
  <trkpt lat="38.49059569" lon="42.29111987"><ele>1686.076</ele><time>2026-09-14T07:14:28Z</time><speed>1.780</speed><sat>27</sat></trkpt>
  <trkpt lat="38.49060778" lon="42.29113701"><ele>1686.200</ele><time>2026-09-14T07:14:29Z</time><speed>1.760</speed><sat>28</sat></trkpt>
  <trkpt lat="38.49062188" lon="42.29115179"><ele>1685.469</ele><time>2026-09-14T07:14:30Z</time><speed>1.640</speed><sat>28</sat></trkpt>
  <trkpt lat="38.49063365" lon="42.29116373"><ele>1684.718</ele><time>2026-09-14T07:14:31Z</time><speed>1.550</speed><sat>27</sat></trkpt>
  <trkpt lat="38.49064156" lon="42.29117602"><ele>1685.821</ele><time>2026-09-14T07:14:32Z</time><speed>1.410</speed><sat>28</sat></trkpt>
  <trkpt lat="38.49064725" lon="42.29118924"><ele>1687.783</ele><time>2026-09-14T07:14:33Z</time><speed>1.430</speed><sat>27</sat></trkpt>
  <trkpt lat="38.49065250" lon="42.29120211"><ele>1687.694</ele><time>2026-09-14T07:14:34Z</time><speed>1.410</speed><sat>25</sat></trkpt>
  <trkpt lat="38.49065688" lon="42.29121591"><ele>1688.212</ele><time>2026-09-14T07:14:35Z</time><speed>1.480</speed><sat>25</sat></trkpt>
  <trkpt lat="38.49066078" lon="42.29122921"><ele>1688.600</ele><time>2026-09-14T07:14:36Z</time><speed>1.410</speed><sat>23</sat></trkpt>
  <trkpt lat="38.49066331" lon="42.29124552"><ele>1688.940</ele><time>2026-09-14T07:14:37Z</time><speed>1.760</speed><sat>25</sat></trkpt>
  <trkpt lat="38.49066505" lon="42.29126294"><ele>1689.072</ele><time>2026-09-14T07:14:38Z</time><speed>1.540</speed><sat>23</sat></trkpt>
  <trkpt lat="38.49066768" lon="42.29127877"><ele>1690.026</ele><time>2026-09-14T07:14:39Z</time><speed>1.530</speed><sat>23</sat></trkpt>
  <trkpt lat="38.49067069" lon="42.29128915"><ele>1689.716</ele><time>2026-09-14T07:14:40Z</time><speed>1.030</speed><sat>22</sat></trkpt>
  <trkpt lat="38.49067981" lon="42.29129585"><ele>1689.110</ele><time>2026-09-14T07:14:41Z</time><speed>1.350</speed><sat>21</sat></trkpt>
  <trkpt lat="38.49069725" lon="42.29129826"><ele>1687.770</ele><time>2026-09-14T07:14:42Z</time><speed>1.650</speed><sat>20</sat></trkpt>
  <trkpt lat="38.49071736" lon="42.29130014"><ele>1686.477</ele><time>2026-09-14T07:14:43Z</time><speed>1.750</speed><sat>21</sat></trkpt>
  <trkpt lat="38.49073911" lon="42.29129279"><ele>1687.497</ele><time>2026-09-14T07:14:44Z</time><speed>2.010</speed><sat>22</sat></trkpt>
  <trkpt lat="38.49076099" lon="42.29128576"><ele>1687.231</ele><time>2026-09-14T07:14:45Z</time><speed>2.130</speed><sat>21</sat></trkpt>
  <trkpt lat="38.49077789" lon="42.29128574"><ele>1687.885</ele><time>2026-09-14T07:14:46Z</time><speed>1.890</speed><sat>22</sat></trkpt>
  <trkpt lat="38.49079160" lon="42.29128888"><ele>1688.747</ele><time>2026-09-14T07:14:47Z</time><speed>1.750</speed><sat>24</sat></trkpt>
  <trkpt lat="38.49080216" lon="42.29129534"><ele>1688.705</ele><time>2026-09-14T07:14:48Z</time><speed>1.550</speed><sat>22</sat></trkpt>
  <trkpt lat="38.49080951" lon="42.29130627"><ele>1687.313</ele><time>2026-09-14T07:14:49Z</time><speed>1.460</speed><sat>21</sat></trkpt>
  <trkpt lat="38.49081262" lon="42.29132189"><ele>1687.238</ele><time>2026-09-14T07:14:50Z</time><speed>1.040</speed><sat>21</sat></trkpt>
  <trkpt lat="38.49081147" lon="42.29134032"><ele>1687.742</ele><time>2026-09-14T07:14:51Z</time><speed>1.120</speed><sat>22</sat></trkpt>
  <trkpt lat="38.49080952" lon="42.29135796"><ele>1687.633</ele><time>2026-09-14T07:14:52Z</time><speed>1.040</speed><sat>22</sat></trkpt>
  <trkpt lat="38.49081650" lon="42.29137147"><ele>1685.934</ele><time>2026-09-14T07:14:53Z</time><speed>1.880</speed><sat>23</sat></trkpt>
  <trkpt lat="38.49082899" lon="42.29138375"><ele>1685.430</ele><time>2026-09-14T07:14:54Z</time><speed>1.730</speed><sat>23</sat></trkpt>
  <trkpt lat="38.49083971" lon="42.29139364"><ele>1684.847</ele><time>2026-09-14T07:14:55Z</time><speed>1.580</speed><sat>24</sat></trkpt>
  <trkpt lat="38.49084585" lon="42.29140715"><ele>1684.889</ele><time>2026-09-14T07:14:56Z</time><speed>1.540</speed><sat>24</sat></trkpt>
  <trkpt lat="38.49084783" lon="42.29142339"><ele>1683.336</ele><time>2026-09-14T07:14:57Z</time><speed>1.080</speed><sat>25</sat></trkpt>
  <trkpt lat="38.49084455" lon="42.29144062"><ele>1683.264</ele><time>2026-09-14T07:14:58Z</time><speed>1.060</speed><sat>28</sat></trkpt>
  <trkpt lat="38.49083680" lon="42.29146558"><ele>1684.585</ele><time>2026-09-14T07:14:59Z</time><speed>1.270</speed><sat>27</sat></trkpt>
  <trkpt lat="38.49083289" lon="42.29149191"><ele>1684.614</ele><time>2026-09-14T07:15:00Z</time><speed>1.750</speed><sat>28</sat></trkpt>
  <trkpt lat="38.49082958" lon="42.29152009"><ele>1685.630</ele><time>2026-09-14T07:15:01Z</time><speed>1.530</speed><sat>29</sat></trkpt>
  <trkpt lat="38.49082476" lon="42.29154132"><ele>1684.696</ele><time>2026-09-14T07:15:02Z</time><speed>0.990</speed><sat>31</sat></trkpt>
  <trkpt lat="38.49081646" lon="42.29156039"><ele>1683.984</ele><time>2026-09-14T07:15:03Z</time><speed>1.260</speed><sat>31</sat></trkpt>
  <trkpt lat="38.49080830" lon="42.29158080"><ele>1683.729</ele><time>2026-09-14T07:15:04Z</time><speed>1.400</speed><sat>28</sat></trkpt>
  <trkpt lat="38.49080148" lon="42.29159916"><ele>1683.373</ele><time>2026-09-14T07:15:05Z</time><speed>1.040</speed><sat>28</sat></trkpt>
  <trkpt lat="38.49079930" lon="42.29162011"><ele>1683.768</ele><time>2026-09-14T07:15:06Z</time><speed>1.730</speed><sat>29</sat></trkpt>
  <trkpt lat="38.49079851" lon="42.29163987"><ele>1683.853</ele><time>2026-09-14T07:15:07Z</time><speed>0.970</speed><sat>28</sat></trkpt>
  <trkpt lat="38.49079983" lon="42.29165567"><ele>1683.604</ele><time>2026-09-14T07:15:08Z</time><speed>1.270</speed><sat>27</sat></trkpt>
  <trkpt lat="38.49080148" lon="42.29167459"><ele>1683.711</ele><time>2026-09-14T07:15:09Z</time><speed>1.660</speed><sat>27</sat></trkpt>
  <trkpt lat="38.49080692" lon="42.29169572"><ele>1683.447</ele><time>2026-09-14T07:15:10Z</time><speed>2.050</speed><sat>31</sat></trkpt>
  <trkpt lat="38.49081570" lon="42.29171210"><ele>1683.208</ele><time>2026-09-14T07:15:11Z</time><speed>1.320</speed><sat>32</sat></trkpt>
  <trkpt lat="38.49082622" lon="42.29172515"><ele>1684.599</ele><time>2026-09-14T07:15:12Z</time><speed>1.490</speed><sat>32</sat></trkpt>
  <trkpt lat="38.49083972" lon="42.29173829"><ele>1685.212</ele><time>2026-09-14T07:15:13Z</time><speed>1.630</speed><sat>32</sat></trkpt>
  <trkpt lat="38.49085545" lon="42.29175098"><ele>1683.666</ele><time>2026-09-14T07:15:14Z</time><speed>1.810</speed><sat>33</sat></trkpt>
  <trkpt lat="38.49087041" lon="42.29176154"><ele>1683.011</ele><time>2026-09-14T07:15:15Z</time><speed>1.640</speed><sat>32</sat></trkpt>
  <trkpt lat="38.49088048" lon="42.29177143"><ele>1683.452</ele><time>2026-09-14T07:15:16Z</time><speed>1.140</speed><sat>31</sat></trkpt>
  <trkpt lat="38.49088766" lon="42.29178452"><ele>1683.946</ele><time>2026-09-14T07:15:17Z</time><speed>1.330</speed><sat>31</sat></trkpt>
  <trkpt lat="38.49089271" lon="42.29179826"><ele>1684.201</ele><time>2026-09-14T07:15:18Z</time><speed>1.230</speed><sat>32</sat></trkpt>
  <trkpt lat="38.49090106" lon="42.29181661"><ele>1684.755</ele><time>2026-09-14T07:15:19Z</time><speed>1.630</speed><sat>32</sat></trkpt>
  <trkpt lat="38.49091414" lon="42.29183643"><ele>1685.542</ele><time>2026-09-14T07:15:20Z</time><speed>1.570</speed><sat>31</sat></trkpt>
  <trkpt lat="38.49092333" lon="42.29184809"><ele>1684.557</ele><time>2026-09-14T07:15:21Z</time><speed>0.250</speed><sat>32</sat></trkpt>
  <trkpt lat="38.49093082" lon="42.29185648"><ele>1684.947</ele><time>2026-09-14T07:15:22Z</time><speed>0.670</speed><sat>35</sat></trkpt>
  <trkpt lat="38.49094329" lon="42.29187153"><ele>1685.121</ele><time>2026-09-14T07:15:23Z</time><speed>1.450</speed><sat>35</sat></trkpt>
  <trkpt lat="38.49095743" lon="42.29188839"><ele>1684.716</ele><time>2026-09-14T07:15:24Z</time><speed>1.650</speed><sat>36</sat></trkpt>
  <trkpt lat="38.49097206" lon="42.29190489"><ele>1684.816</ele><time>2026-09-14T07:15:25Z</time><speed>1.760</speed><sat>35</sat></trkpt>
  <trkpt lat="38.49098485" lon="42.29191629"><ele>1685.957</ele><time>2026-09-14T07:15:26Z</time><speed>1.550</speed><sat>34</sat></trkpt>
  <trkpt lat="38.49099792" lon="42.29192401"><ele>1685.293</ele><time>2026-09-14T07:15:27Z</time><speed>1.520</speed><sat>31</sat></trkpt>
  <trkpt lat="38.49101075" lon="42.29193536"><ele>1684.221</ele><time>2026-09-14T07:15:28Z</time><speed>1.670</speed><sat>29</sat></trkpt>
  <trkpt lat="38.49102220" lon="42.29195163"><ele>1684.995</ele><time>2026-09-14T07:15:29Z</time><speed>1.520</speed><sat>27</sat></trkpt>
  <trkpt lat="38.49102922" lon="42.29197224"><ele>1685.917</ele><time>2026-09-14T07:15:30Z</time><speed>1.340</speed><sat>26</sat></trkpt>
  <trkpt lat="38.49103430" lon="42.29199078"><ele>1684.888</ele><time>2026-09-14T07:15:31Z</time><speed>1.190</speed><sat>29</sat></trkpt>
  <trkpt lat="38.49104296" lon="42.29201056"><ele>1684.795</ele><time>2026-09-14T07:15:32Z</time><speed>1.600</speed><sat>31</sat></trkpt>
  <trkpt lat="38.49105813" lon="42.29202576"><ele>1686.595</ele><time>2026-09-14T07:15:33Z</time><speed>1.780</speed><sat>32</sat></trkpt>
  <trkpt lat="38.49107034" lon="42.29204184"><ele>1686.982</ele><time>2026-09-14T07:15:34Z</time><speed>1.520</speed><sat>29</sat></trkpt>
  <trkpt lat="38.49108237" lon="42.29205861"><ele>1686.164</ele><time>2026-09-14T07:15:35Z</time><speed>1.980</speed><sat>29</sat></trkpt>
  <trkpt lat="38.49109587" lon="42.29208002"><ele>1686.826</ele><time>2026-09-14T07:15:36Z</time><speed>2.340</speed><sat>27</sat></trkpt>
  <trkpt lat="38.49110855" lon="42.29210805"><ele>1686.531</ele><time>2026-09-14T07:15:37Z</time><speed>2.780</speed><sat>23</sat></trkpt>
  <trkpt lat="38.49111875" lon="42.29214152"><ele>1686.089</ele><time>2026-09-14T07:15:38Z</time><speed>3.060</speed><sat>21</sat></trkpt>
  <trkpt lat="38.49112576" lon="42.29217222"><ele>1686.441</ele><time>2026-09-14T07:15:39Z</time><speed>2.560</speed><sat>20</sat></trkpt>
  <trkpt lat="38.49112989" lon="42.29219601"><ele>1686.576</ele><time>2026-09-14T07:15:40Z</time><speed>2.040</speed><sat>19</sat></trkpt>
  <trkpt lat="38.49113277" lon="42.29221455"><ele>1686.571</ele><time>2026-09-14T07:15:41Z</time><speed>1.720</speed><sat>19</sat></trkpt>
  <trkpt lat="38.49112993" lon="42.29223010"><ele>1686.255</ele><time>2026-09-14T07:15:42Z</time><speed>1.050</speed><sat>19</sat></trkpt>
  <trkpt lat="38.49112549" lon="42.29224881"><ele>1686.373</ele><time>2026-09-14T07:15:43Z</time><speed>1.300</speed><sat>19</sat></trkpt>
  <trkpt lat="38.49112312" lon="42.29226962"><ele>1685.170</ele><time>2026-09-14T07:15:44Z</time><speed>1.490</speed><sat>19</sat></trkpt>
  <trkpt lat="38.49112286" lon="42.29229034"><ele>1686.067</ele><time>2026-09-14T07:15:45Z</time><speed>1.270</speed><sat>23</sat></trkpt>
  <trkpt lat="38.49112372" lon="42.29230411"><ele>1685.184</ele><time>2026-09-14T07:15:46Z</time><speed>1.520</speed><sat>23</sat></trkpt>
  <trkpt lat="38.49112572" lon="42.29232096"><ele>1684.332</ele><time>2026-09-14T07:15:47Z</time><speed>1.670</speed><sat>24</sat></trkpt>
  <trkpt lat="38.49112870" lon="42.29233804"><ele>1683.830</ele><time>2026-09-14T07:15:48Z</time><speed>1.600</speed><sat>25</sat></trkpt>
  <trkpt lat="38.49113483" lon="42.29235095"><ele>1683.924</ele><time>2026-09-14T07:15:49Z</time><speed>1.340</speed><sat>26</sat></trkpt>
  <trkpt lat="38.49114084" lon="42.29236399"><ele>1682.965</ele><time>2026-09-14T07:15:50Z</time><speed>1.600</speed><sat>26</sat></trkpt>
  <trkpt lat="38.49114446" lon="42.29238163"><ele>1683.590</ele><time>2026-09-14T07:15:51Z</time><speed>1.770</speed><sat>27</sat></trkpt>
  <trkpt lat="38.49114574" lon="42.29239239"><ele>1682.945</ele><time>2026-09-14T07:15:52Z</time><speed>0.690</speed><sat>29</sat></trkpt>
  <trkpt lat="38.49114713" lon="42.29240106"><ele>1681.991</ele><time>2026-09-14T07:15:53Z</time><speed>1.260</speed><sat>30</sat></trkpt>
  <trkpt lat="38.49115287" lon="42.29241102"><ele>1679.974</ele><time>2026-09-14T07:15:54Z</time><speed>1.270</speed><sat>30</sat></trkpt>
  <trkpt lat="38.49115992" lon="42.29242574"><ele>1679.119</ele><time>2026-09-14T07:15:55Z</time><speed>1.750</speed><sat>30</sat></trkpt>
  <trkpt lat="38.49116551" lon="42.29244005"><ele>1679.154</ele><time>2026-09-14T07:15:56Z</time><speed>1.410</speed><sat>30</sat></trkpt>
  <trkpt lat="38.49117127" lon="42.29245317"><ele>1678.323</ele><time>2026-09-14T07:15:57Z</time><speed>1.520</speed><sat>31</sat></trkpt>
  <trkpt lat="38.49117673" lon="42.29246753"><ele>1678.343</ele><time>2026-09-14T07:15:58Z</time><speed>1.510</speed><sat>31</sat></trkpt>
  <trkpt lat="38.49118355" lon="42.29248165"><ele>1678.027</ele><time>2026-09-14T07:15:59Z</time><speed>1.520</speed><sat>32</sat></trkpt>
  <trkpt lat="38.49119218" lon="42.29249050"><ele>1678.513</ele><time>2026-09-14T07:16:00Z</time><speed>1.180</speed><sat>31</sat></trkpt>
  <trkpt lat="38.49119898" lon="42.29250217"><ele>1679.094</ele><time>2026-09-14T07:16:01Z</time><speed>1.230</speed><sat>31</sat></trkpt>
  <trkpt lat="38.49120698" lon="42.29251773"><ele>1678.600</ele><time>2026-09-14T07:16:02Z</time><speed>1.660</speed><sat>32</sat></trkpt>
  <trkpt lat="38.49121380" lon="42.29254125"><ele>1679.875</ele><time>2026-09-14T07:16:03Z</time><speed>1.810</speed><sat>34</sat></trkpt>
  <trkpt lat="38.49122009" lon="42.29257091"><ele>1682.176</ele><time>2026-09-14T07:16:04Z</time><speed>2.120</speed><sat>33</sat></trkpt>
  <trkpt lat="38.49122845" lon="42.29259882"><ele>1683.044</ele><time>2026-09-14T07:16:05Z</time><speed>2.100</speed><sat>33</sat></trkpt>
  <trkpt lat="38.49123662" lon="42.29262658"><ele>1684.040</ele><time>2026-09-14T07:16:06Z</time><speed>2.210</speed><sat>33</sat></trkpt>
  <trkpt lat="38.49124301" lon="42.29264876"><ele>1683.775</ele><time>2026-09-14T07:16:07Z</time><speed>1.600</speed><sat>33</sat></trkpt>
  <trkpt lat="38.49124979" lon="42.29267105"><ele>1684.167</ele><time>2026-09-14T07:16:08Z</time><speed>2.270</speed><sat>33</sat></trkpt>
  <trkpt lat="38.49125270" lon="42.29269686"><ele>1685.441</ele><time>2026-09-14T07:16:09Z</time><speed>1.940</speed><sat>31</sat></trkpt>
  <trkpt lat="38.49125251" lon="42.29272183"><ele>1687.537</ele><time>2026-09-14T07:16:10Z</time><speed>1.760</speed><sat>32</sat></trkpt>
  <trkpt lat="38.49125117" lon="42.29274257"><ele>1686.837</ele><time>2026-09-14T07:16:11Z</time><speed>1.510</speed><sat>32</sat></trkpt>
  <trkpt lat="38.49124954" lon="42.29275821"><ele>1686.419</ele><time>2026-09-14T07:16:12Z</time><speed>1.490</speed><sat>32</sat></trkpt>
  <trkpt lat="38.49125066" lon="42.29277303"><ele>1685.944</ele><time>2026-09-14T07:16:13Z</time><speed>1.410</speed><sat>32</sat></trkpt>
  <trkpt lat="38.49125567" lon="42.29278697"><ele>1685.022</ele><time>2026-09-14T07:16:14Z</time><speed>1.420</speed><sat>32</sat></trkpt>
  <trkpt lat="38.49126235" lon="42.29279978"><ele>1684.812</ele><time>2026-09-14T07:16:15Z</time><speed>1.280</speed><sat>31</sat></trkpt>
  <trkpt lat="38.49126718" lon="42.29281243"><ele>1684.284</ele><time>2026-09-14T07:16:16Z</time><speed>1.310</speed><sat>31</sat></trkpt>
  <trkpt lat="38.49127287" lon="42.29282405"><ele>1684.752</ele><time>2026-09-14T07:16:17Z</time><speed>1.180</speed><sat>31</sat></trkpt>
  <trkpt lat="38.49128026" lon="42.29283769"><ele>1684.975</ele><time>2026-09-14T07:16:18Z</time><speed>1.610</speed><sat>33</sat></trkpt>
  <trkpt lat="38.49129007" lon="42.29285320"><ele>1683.607</ele><time>2026-09-14T07:16:19Z</time><speed>1.780</speed><sat>35</sat></trkpt>
  <trkpt lat="38.49129790" lon="42.29286262"><ele>1683.198</ele><time>2026-09-14T07:16:20Z</time><speed>1.060</speed><sat>36</sat></trkpt>
  <trkpt lat="38.49130642" lon="42.29287173"><ele>1683.121</ele><time>2026-09-14T07:16:21Z</time><speed>1.540</speed><sat>36</sat></trkpt>
  <trkpt lat="38.49131671" lon="42.29288154"><ele>1682.788</ele><time>2026-09-14T07:16:22Z</time><speed>1.390</speed><sat>36</sat></trkpt>
  <trkpt lat="38.49132642" lon="42.29289218"><ele>1681.417</ele><time>2026-09-14T07:16:23Z</time><speed>1.300</speed><sat>36</sat></trkpt>
  <trkpt lat="38.49133566" lon="42.29290463"><ele>1682.074</ele><time>2026-09-14T07:16:24Z</time><speed>1.480</speed><sat>34</sat></trkpt>
  <trkpt lat="38.49134250" lon="42.29292014"><ele>1680.904</ele><time>2026-09-14T07:16:25Z</time><speed>1.420</speed><sat>34</sat></trkpt>
  <trkpt lat="38.49134765" lon="42.29293698"><ele>1680.927</ele><time>2026-09-14T07:16:26Z</time><speed>1.490</speed><sat>34</sat></trkpt>
  <trkpt lat="38.49135183" lon="42.29295405"><ele>1681.790</ele><time>2026-09-14T07:16:27Z</time><speed>1.450</speed><sat>34</sat></trkpt>
  <trkpt lat="38.49135797" lon="42.29297095"><ele>1682.484</ele><time>2026-09-14T07:16:28Z</time><speed>1.670</speed><sat>33</sat></trkpt>
  <trkpt lat="38.49136384" lon="42.29298544"><ele>1680.305</ele><time>2026-09-14T07:16:29Z</time><speed>1.430</speed><sat>34</sat></trkpt>
  <trkpt lat="38.49137133" lon="42.29300320"><ele>1680.757</ele><time>2026-09-14T07:16:30Z</time><speed>1.930</speed><sat>36</sat></trkpt>
  <trkpt lat="38.49138148" lon="42.29302018"><ele>1680.893</ele><time>2026-09-14T07:16:31Z</time><speed>1.780</speed><sat>35</sat></trkpt>
  <trkpt lat="38.49139305" lon="42.29303528"><ele>1681.034</ele><time>2026-09-14T07:16:32Z</time><speed>1.810</speed><sat>36</sat></trkpt>
  <trkpt lat="38.49140215" lon="42.29305012"><ele>1681.002</ele><time>2026-09-14T07:16:33Z</time><speed>1.560</speed><sat>36</sat></trkpt>
  <trkpt lat="38.49140907" lon="42.29306437"><ele>1681.253</ele><time>2026-09-14T07:16:34Z</time><speed>1.420</speed><sat>37</sat></trkpt>
  <trkpt lat="38.49141704" lon="42.29308007"><ele>1682.313</ele><time>2026-09-14T07:16:35Z</time><speed>1.620</speed><sat>36</sat></trkpt>
  <trkpt lat="38.49142224" lon="42.29309717"><ele>1682.152</ele><time>2026-09-14T07:16:36Z</time><speed>1.410</speed><sat>34</sat></trkpt>
  <trkpt lat="38.49142774" lon="42.29311393"><ele>1682.382</ele><time>2026-09-14T07:16:37Z</time><speed>1.580</speed><sat>38</sat></trkpt>
  <trkpt lat="38.49143137" lon="42.29313225"><ele>1681.908</ele><time>2026-09-14T07:16:38Z</time><speed>1.650</speed><sat>37</sat></trkpt>
  <trkpt lat="38.49143310" lon="42.29315097"><ele>1680.650</ele><time>2026-09-14T07:16:39Z</time><speed>1.540</speed><sat>36</sat></trkpt>
  <trkpt lat="38.49143521" lon="42.29316692"><ele>1681.742</ele><time>2026-09-14T07:16:40Z</time><speed>1.200</speed><sat>35</sat></trkpt>
  <trkpt lat="38.49143699" lon="42.29318289"><ele>1681.958</ele><time>2026-09-14T07:16:41Z</time><speed>1.490</speed><sat>35</sat></trkpt>
  <trkpt lat="38.49144109" lon="42.29319974"><ele>1682.793</ele><time>2026-09-14T07:16:42Z</time><speed>1.460</speed><sat>35</sat></trkpt>
  <trkpt lat="38.49144625" lon="42.29321773"><ele>1684.491</ele><time>2026-09-14T07:16:43Z</time><speed>1.600</speed><sat>33</sat></trkpt>
  <trkpt lat="38.49145122" lon="42.29323392"><ele>1684.795</ele><time>2026-09-14T07:16:44Z</time><speed>1.270</speed><sat>33</sat></trkpt>
  <trkpt lat="38.49145700" lon="42.29325096"><ele>1685.100</ele><time>2026-09-14T07:16:45Z</time><speed>1.580</speed><sat>35</sat></trkpt>
  <trkpt lat="38.49146457" lon="42.29326662"><ele>1684.703</ele><time>2026-09-14T07:16:46Z</time><speed>1.530</speed><sat>35</sat></trkpt>
  <trkpt lat="38.49147569" lon="42.29327990"><ele>1684.440</ele><time>2026-09-14T07:16:47Z</time><speed>1.890</speed><sat>37</sat></trkpt>
  <trkpt lat="38.49148709" lon="42.29328895"><ele>1683.369</ele><time>2026-09-14T07:16:48Z</time><speed>1.130</speed><sat>36</sat></trkpt>
  <trkpt lat="38.49149864" lon="42.29329618"><ele>1684.122</ele><time>2026-09-14T07:16:49Z</time><speed>1.570</speed><sat>39</sat></trkpt>
  <trkpt lat="38.49151113" lon="42.29330623"><ele>1684.927</ele><time>2026-09-14T07:16:50Z</time><speed>1.500</speed><sat>40</sat></trkpt>
  <trkpt lat="38.49152034" lon="42.29331972"><ele>1684.355</ele><time>2026-09-14T07:16:51Z</time><speed>1.450</speed><sat>39</sat></trkpt>
  <trkpt lat="38.49152492" lon="42.29333824"><ele>1683.346</ele><time>2026-09-14T07:16:52Z</time><speed>1.790</speed><sat>41</sat></trkpt>
  <trkpt lat="38.49152761" lon="42.29335794"><ele>1683.567</ele><time>2026-09-14T07:16:53Z</time><speed>1.390</speed><sat>40</sat></trkpt>
  <trkpt lat="38.49152776" lon="42.29337592"><ele>1682.453</ele><time>2026-09-14T07:16:54Z</time><speed>1.350</speed><sat>41</sat></trkpt>
  <trkpt lat="38.49152899" lon="42.29339171"><ele>1681.972</ele><time>2026-09-14T07:16:55Z</time><speed>1.400</speed><sat>40</sat></trkpt>
  <trkpt lat="38.49153199" lon="42.29340754"><ele>1682.074</ele><time>2026-09-14T07:16:56Z</time><speed>1.430</speed><sat>40</sat></trkpt>
  <trkpt lat="38.49153738" lon="42.29342262"><ele>1682.324</ele><time>2026-09-14T07:16:57Z</time><speed>1.410</speed><sat>40</sat></trkpt>
  <trkpt lat="38.49154329" lon="42.29343660"><ele>1681.945</ele><time>2026-09-14T07:16:58Z</time><speed>1.410</speed><sat>39</sat></trkpt>
  <trkpt lat="38.49154868" lon="42.29345381"><ele>1682.304</ele><time>2026-09-14T07:16:59Z</time><speed>1.760</speed><sat>40</sat></trkpt>
  <trkpt lat="38.49155326" lon="42.29347134"><ele>1682.472</ele><time>2026-09-14T07:17:00Z</time><speed>1.370</speed><sat>40</sat></trkpt>
  <trkpt lat="38.49155702" lon="42.29348824"><ele>1682.647</ele><time>2026-09-14T07:17:01Z</time><speed>1.600</speed><sat>42</sat></trkpt>
  <trkpt lat="38.49156196" lon="42.29350341"><ele>1683.052</ele><time>2026-09-14T07:17:02Z</time><speed>1.180</speed><sat>42</sat></trkpt>
  <trkpt lat="38.49156770" lon="42.29351657"><ele>1682.759</ele><time>2026-09-14T07:17:03Z</time><speed>1.310</speed><sat>42</sat></trkpt>
  <trkpt lat="38.49157513" lon="42.29352795"><ele>1682.565</ele><time>2026-09-14T07:17:04Z</time><speed>1.230</speed><sat>41</sat></trkpt>
  <trkpt lat="38.49158174" lon="42.29353870"><ele>1681.979</ele><time>2026-09-14T07:17:05Z</time><speed>1.110</speed><sat>40</sat></trkpt>
  <trkpt lat="38.49158747" lon="42.29355293"><ele>1682.150</ele><time>2026-09-14T07:17:06Z</time><speed>1.600</speed><sat>40</sat></trkpt>
  <trkpt lat="38.49159179" lon="42.29357223"><ele>1682.065</ele><time>2026-09-14T07:17:07Z</time><speed>1.720</speed><sat>39</sat></trkpt>
  <trkpt lat="38.49159524" lon="42.29359089"><ele>1681.906</ele><time>2026-09-14T07:17:08Z</time><speed>1.620</speed><sat>39</sat></trkpt>
  <trkpt lat="38.49160025" lon="42.29360815"><ele>1681.208</ele><time>2026-09-14T07:17:09Z</time><speed>1.620</speed><sat>38</sat></trkpt>
  <trkpt lat="38.49160601" lon="42.29362466"><ele>1681.599</ele><time>2026-09-14T07:17:10Z</time><speed>1.660</speed><sat>38</sat></trkpt>
  <trkpt lat="38.49161232" lon="42.29363964"><ele>1681.858</ele><time>2026-09-14T07:17:11Z</time><speed>1.560</speed><sat>38</sat></trkpt>
  <trkpt lat="38.49161788" lon="42.29365381"><ele>1682.419</ele><time>2026-09-14T07:17:12Z</time><speed>1.500</speed><sat>38</sat></trkpt>
  <trkpt lat="38.49162186" lon="42.29367180"><ele>1683.635</ele><time>2026-09-14T07:17:13Z</time><speed>1.640</speed><sat>38</sat></trkpt>
  <trkpt lat="38.49162368" lon="42.29369131"><ele>1684.357</ele><time>2026-09-14T07:17:14Z</time><speed>1.700</speed><sat>38</sat></trkpt>
  <trkpt lat="38.49162550" lon="42.29370922"><ele>1684.887</ele><time>2026-09-14T07:17:15Z</time><speed>1.630</speed><sat>38</sat></trkpt>
  <trkpt lat="38.49162806" lon="42.29372501"><ele>1684.617</ele><time>2026-09-14T07:17:16Z</time><speed>1.550</speed><sat>38</sat></trkpt>
  <trkpt lat="38.49163309" lon="42.29373729"><ele>1684.843</ele><time>2026-09-14T07:17:17Z</time><speed>1.420</speed><sat>38</sat></trkpt>
  <trkpt lat="38.49164085" lon="42.29375106"><ele>1684.850</ele><time>2026-09-14T07:17:18Z</time><speed>1.520</speed><sat>38</sat></trkpt>
  <trkpt lat="38.49165111" lon="42.29376812"><ele>1684.670</ele><time>2026-09-14T07:17:19Z</time><speed>1.970</speed><sat>38</sat></trkpt>
  <trkpt lat="38.49166023" lon="42.29378705"><ele>1684.140</ele><time>2026-09-14T07:17:20Z</time><speed>1.870</speed><sat>38</sat></trkpt>
  <trkpt lat="38.49167000" lon="42.29380437"><ele>1684.842</ele><time>2026-09-14T07:17:21Z</time><speed>1.750</speed><sat>38</sat></trkpt>
  <trkpt lat="38.49168145" lon="42.29382096"><ele>1684.397</ele><time>2026-09-14T07:17:22Z</time><speed>1.810</speed><sat>39</sat></trkpt>
  <trkpt lat="38.49169309" lon="42.29383413"><ele>1684.299</ele><time>2026-09-14T07:17:23Z</time><speed>1.400</speed><sat>39</sat></trkpt>
  <trkpt lat="38.49170670" lon="42.29384436"><ele>1683.714</ele><time>2026-09-14T07:17:24Z</time><speed>1.590</speed><sat>39</sat></trkpt>
  <trkpt lat="38.49172166" lon="42.29385517"><ele>1683.390</ele><time>2026-09-14T07:17:25Z</time><speed>1.720</speed><sat>37</sat></trkpt>
  <trkpt lat="38.49173697" lon="42.29386935"><ele>1682.405</ele><time>2026-09-14T07:17:26Z</time><speed>2.050</speed><sat>37</sat></trkpt>
  <trkpt lat="38.49174777" lon="42.29387868"><ele>1681.402</ele><time>2026-09-14T07:17:27Z</time><speed>0.710</speed><sat>37</sat></trkpt>
  <trkpt lat="38.49175736" lon="42.29388370"><ele>1680.684</ele><time>2026-09-14T07:17:28Z</time><speed>1.360</speed><sat>36</sat></trkpt>
  <trkpt lat="38.49177091" lon="42.29389168"><ele>1681.737</ele><time>2026-09-14T07:17:29Z</time><speed>1.840</speed><sat>36</sat></trkpt>
  <trkpt lat="38.49178288" lon="42.29390168"><ele>1681.224</ele><time>2026-09-14T07:17:30Z</time><speed>1.360</speed><sat>36</sat></trkpt>
  <trkpt lat="38.49179327" lon="42.29391330"><ele>1681.097</ele><time>2026-09-14T07:17:31Z</time><speed>1.620</speed><sat>38</sat></trkpt>
  <trkpt lat="38.49180474" lon="42.29392607"><ele>1681.917</ele><time>2026-09-14T07:17:32Z</time><speed>1.690</speed><sat>38</sat></trkpt>
  <trkpt lat="38.49181563" lon="42.29393772"><ele>1682.576</ele><time>2026-09-14T07:17:33Z</time><speed>1.550</speed><sat>38</sat></trkpt>
  <trkpt lat="38.49182716" lon="42.29394798"><ele>1682.072</ele><time>2026-09-14T07:17:34Z</time><speed>1.550</speed><sat>37</sat></trkpt>
  <trkpt lat="38.49183930" lon="42.29395537"><ele>1681.753</ele><time>2026-09-14T07:17:35Z</time><speed>1.440</speed><sat>36</sat></trkpt>
  <trkpt lat="38.49185007" lon="42.29395650"><ele>1681.265</ele><time>2026-09-14T07:17:36Z</time><speed>1.250</speed><sat>37</sat></trkpt>
  <trkpt lat="38.49186096" lon="42.29394977"><ele>1682.111</ele><time>2026-09-14T07:17:37Z</time><speed>1.450</speed><sat>36</sat></trkpt>
  <trkpt lat="38.49187144" lon="42.29394035"><ele>1681.611</ele><time>2026-09-14T07:17:38Z</time><speed>1.650</speed><sat>38</sat></trkpt>
  <trkpt lat="38.49188218" lon="42.29393124"><ele>1681.806</ele><time>2026-09-14T07:17:39Z</time><speed>1.480</speed><sat>38</sat></trkpt>
  <trkpt lat="38.49188633" lon="42.29392566"><ele>1682.743</ele><time>2026-09-14T07:17:40Z</time><speed>0.540</speed><sat>39</sat></trkpt>
  <trkpt lat="38.49187856" lon="42.29392488"><ele>1682.806</ele><time>2026-09-14T07:17:41Z</time><speed>0.000</speed><sat>38</sat></trkpt>
  <trkpt lat="38.49187340" lon="42.29392520"><ele>1682.780</ele><time>2026-09-14T07:17:42Z</time><speed>0.000</speed><sat>39</sat></trkpt>
  <trkpt lat="38.49187213" lon="42.29392343"><ele>1681.706</ele><time>2026-09-14T07:17:43Z</time><speed>0.180</speed><sat>40</sat></trkpt>
  <trkpt lat="38.49186821" lon="42.29391868"><ele>1681.388</ele><time>2026-09-14T07:17:44Z</time><speed>0.760</speed><sat>40</sat></trkpt>
  <trkpt lat="38.49186386" lon="42.29391923"><ele>1682.161</ele><time>2026-09-14T07:17:45Z</time><speed>0.000</speed><sat>40</sat></trkpt>
  <trkpt lat="38.49186547" lon="42.29392052"><ele>1683.150</ele><time>2026-09-14T07:17:46Z</time><speed>0.440</speed><sat>41</sat></trkpt>
  <trkpt lat="38.49187022" lon="42.29391835"><ele>1683.091</ele><time>2026-09-14T07:17:47Z</time><speed>0.000</speed><sat>40</sat></trkpt>
  <trkpt lat="38.49187249" lon="42.29391751"><ele>1683.055</ele><time>2026-09-14T07:17:48Z</time><speed>0.000</speed><sat>39</sat></trkpt>
  <trkpt lat="38.49187471" lon="42.29391632"><ele>1683.068</ele><time>2026-09-14T07:17:49Z</time><speed>0.000</speed><sat>39</sat></trkpt>
  <trkpt lat="38.49187806" lon="42.29391510"><ele>1682.116</ele><time>2026-09-14T07:17:50Z</time><speed>0.250</speed><sat>37</sat></trkpt>
  <trkpt lat="38.49187942" lon="42.29391316"><ele>1682.142</ele><time>2026-09-14T07:17:51Z</time><speed>0.000</speed><sat>37</sat></trkpt>
  <trkpt lat="38.49188055" lon="42.29390819"><ele>1682.145</ele><time>2026-09-14T07:17:52Z</time><speed>0.000</speed><sat>34</sat></trkpt>
  <trkpt lat="38.49187914" lon="42.29390456"><ele>1681.322</ele><time>2026-09-14T07:17:53Z</time><speed>0.320</speed><sat>36</sat></trkpt>
  <trkpt lat="38.49187910" lon="42.29390205"><ele>1681.807</ele><time>2026-09-14T07:17:54Z</time><speed>0.000</speed><sat>36</sat></trkpt>
  <trkpt lat="38.49187939" lon="42.29390066"><ele>1681.286</ele><time>2026-09-14T07:17:55Z</time><speed>0.310</speed><sat>37</sat></trkpt>
  <trkpt lat="38.49188147" lon="42.29390196"><ele>1680.821</ele><time>2026-09-14T07:17:56Z</time><speed>0.000</speed><sat>37</sat></trkpt>
  <trkpt lat="38.49188286" lon="42.29390331"><ele>1680.833</ele><time>2026-09-14T07:17:57Z</time><speed>0.000</speed><sat>37</sat></trkpt>
  <trkpt lat="38.49188353" lon="42.29390402"><ele>1680.825</ele><time>2026-09-14T07:17:58Z</time><speed>0.000</speed><sat>36</sat></trkpt>
  <trkpt lat="38.49188388" lon="42.29390436"><ele>1680.833</ele><time>2026-09-14T07:17:59Z</time><speed>0.000</speed><sat>36</sat></trkpt>
  <trkpt lat="38.49188404" lon="42.29390448"><ele>1680.849</ele><time>2026-09-14T07:18:00Z</time><speed>0.000</speed><sat>33</sat></trkpt>
  <trkpt lat="38.49188411" lon="42.29390454"><ele>1680.860</ele><time>2026-09-14T07:18:01Z</time><speed>0.000</speed><sat>32</sat></trkpt>
  <trkpt lat="38.49188417" lon="42.29390458"><ele>1680.867</ele><time>2026-09-14T07:18:02Z</time><speed>0.000</speed><sat>31</sat></trkpt>
  <trkpt lat="38.49188423" lon="42.29390460"><ele>1680.871</ele><time>2026-09-14T07:18:03Z</time><speed>0.000</speed><sat>31</sat></trkpt>
  <trkpt lat="38.49188424" lon="42.29390461"><ele>1680.869</ele><time>2026-09-14T07:18:04Z</time><speed>0.000</speed><sat>31</sat></trkpt>
  <trkpt lat="38.49188422" lon="42.29390462"><ele>1680.870</ele><time>2026-09-14T07:18:05Z</time><speed>0.000</speed><sat>30</sat></trkpt>
  <trkpt lat="38.49188604" lon="42.29390703"><ele>1681.504</ele><time>2026-09-14T07:18:06Z</time><speed>0.290</speed><sat>32</sat></trkpt>
  <trkpt lat="38.49188760" lon="42.29390897"><ele>1681.049</ele><time>2026-09-14T07:18:07Z</time><speed>0.000</speed><sat>34</sat></trkpt>
  <trkpt lat="38.49189124" lon="42.29391104"><ele>1682.237</ele><time>2026-09-14T07:18:08Z</time><speed>0.640</speed><sat>35</sat></trkpt>
  <trkpt lat="38.49189394" lon="42.29391311"><ele>1681.917</ele><time>2026-09-14T07:18:09Z</time><speed>0.250</speed><sat>36</sat></trkpt>
  <trkpt lat="38.49189330" lon="42.29391307"><ele>1681.784</ele><time>2026-09-14T07:18:10Z</time><speed>0.000</speed><sat>37</sat></trkpt>
  <trkpt lat="38.49189247" lon="42.29391313"><ele>1681.822</ele><time>2026-09-14T07:18:11Z</time><speed>0.000</speed><sat>37</sat></trkpt>
  <trkpt lat="38.49189206" lon="42.29391316"><ele>1681.824</ele><time>2026-09-14T07:18:12Z</time><speed>0.000</speed><sat>36</sat></trkpt>
  <trkpt lat="38.49189187" lon="42.29391320"><ele>1681.821</ele><time>2026-09-14T07:18:13Z</time><speed>0.000</speed><sat>34</sat></trkpt>
  <trkpt lat="38.49189179" lon="42.29391322"><ele>1681.821</ele><time>2026-09-14T07:18:14Z</time><speed>0.000</speed><sat>30</sat></trkpt>
  <trkpt lat="38.49189175" lon="42.29391323"><ele>1681.820</ele><time>2026-09-14T07:18:15Z</time><speed>0.000</speed><sat>28</sat></trkpt>
  <trkpt lat="38.49189181" lon="42.29391308"><ele>1681.783</ele><time>2026-09-14T07:18:16Z</time><speed>0.000</speed><sat>26</sat></trkpt>
  <trkpt lat="38.49189201" lon="42.29391275"><ele>1681.715</ele><time>2026-09-14T07:18:17Z</time><speed>0.000</speed><sat>27</sat></trkpt>
  <trkpt lat="38.49189228" lon="42.29391231"><ele>1681.646</ele><time>2026-09-14T07:18:18Z</time><speed>0.000</speed><sat>26</sat></trkpt>
  <trkpt lat="38.49189254" lon="42.29391193"><ele>1681.589</ele><time>2026-09-14T07:18:19Z</time><speed>0.000</speed><sat>25</sat></trkpt>
  <trkpt lat="38.49189280" lon="42.29391153"><ele>1681.540</ele><time>2026-09-14T07:18:20Z</time><speed>0.000</speed><sat>26</sat></trkpt>
  <trkpt lat="38.49189307" lon="42.29391113"><ele>1681.493</ele><time>2026-09-14T07:18:21Z</time><speed>0.000</speed><sat>27</sat></trkpt>
  <trkpt lat="38.49189335" lon="42.29391073"><ele>1681.432</ele><time>2026-09-14T07:18:22Z</time><speed>0.000</speed><sat>28</sat></trkpt>
  <trkpt lat="38.49189357" lon="42.29391044"><ele>1681.404</ele><time>2026-09-14T07:18:23Z</time><speed>0.000</speed><sat>28</sat></trkpt>
  <trkpt lat="38.49189380" lon="42.29391014"><ele>1681.358</ele><time>2026-09-14T07:18:24Z</time><speed>0.000</speed><sat>28</sat></trkpt>
  <trkpt lat="38.49189400" lon="42.29390989"><ele>1681.328</ele><time>2026-09-14T07:18:25Z</time><speed>0.000</speed><sat>29</sat></trkpt>
  <trkpt lat="38.49189410" lon="42.29390978"><ele>1681.332</ele><time>2026-09-14T07:18:26Z</time><speed>0.000</speed><sat>29</sat></trkpt>
  <trkpt lat="38.49189415" lon="42.29390973"><ele>1681.327</ele><time>2026-09-14T07:18:27Z</time><speed>0.000</speed><sat>30</sat></trkpt>
  <trkpt lat="38.49189417" lon="42.29390967"><ele>1681.326</ele><time>2026-09-14T07:18:28Z</time><speed>0.000</speed><sat>29</sat></trkpt>
  <trkpt lat="38.49189416" lon="42.29390964"><ele>1681.331</ele><time>2026-09-14T07:18:29Z</time><speed>0.000</speed><sat>29</sat></trkpt>
  <trkpt lat="38.49189415" lon="42.29390962"><ele>1681.332</ele><time>2026-09-14T07:18:30Z</time><speed>0.000</speed><sat>29</sat></trkpt>
  <trkpt lat="38.49189418" lon="42.29390956"><ele>1681.323</ele><time>2026-09-14T07:18:31Z</time><speed>0.000</speed><sat>28</sat></trkpt>
  <trkpt lat="38.49189424" lon="42.29390942"><ele>1681.306</ele><time>2026-09-14T07:18:32Z</time><speed>0.000</speed><sat>28</sat></trkpt>
  <trkpt lat="38.49189425" lon="42.29390938"><ele>1681.304</ele><time>2026-09-14T07:18:33Z</time><speed>0.000</speed><sat>28</sat></trkpt>
  <trkpt lat="38.49189424" lon="42.29390935"><ele>1681.308</ele><time>2026-09-14T07:18:34Z</time><speed>0.000</speed><sat>26</sat></trkpt>
  <trkpt lat="38.49189422" lon="42.29390932"><ele>1681.313</ele><time>2026-09-14T07:18:35Z</time><speed>0.000</speed><sat>24</sat></trkpt>
  <trkpt lat="38.49189418" lon="42.29390930"><ele>1681.314</ele><time>2026-09-14T07:18:36Z</time><speed>0.000</speed><sat>24</sat></trkpt>
  <trkpt lat="38.49189418" lon="42.29390928"><ele>1681.316</ele><time>2026-09-14T07:18:37Z</time><speed>0.000</speed><sat>23</sat></trkpt>
  <trkpt lat="38.49189417" lon="42.29390924"><ele>1681.323</ele><time>2026-09-14T07:18:38Z</time><speed>0.000</speed><sat>23</sat></trkpt>
  <trkpt lat="38.49189422" lon="42.29390913"><ele>1681.307</ele><time>2026-09-14T07:18:39Z</time><speed>0.000</speed><sat>21</sat></trkpt>
  <trkpt lat="38.49189428" lon="42.29390898"><ele>1681.285</ele><time>2026-09-14T07:18:40Z</time><speed>0.000</speed><sat>21</sat></trkpt>
  <trkpt lat="38.49189433" lon="42.29390885"><ele>1681.276</ele><time>2026-09-14T07:18:41Z</time><speed>0.000</speed><sat>23</sat></trkpt>
  <trkpt lat="38.49189439" lon="42.29390872"><ele>1681.264</ele><time>2026-09-14T07:18:42Z</time><speed>0.000</speed><sat>24</sat></trkpt>
  <trkpt lat="38.49189446" lon="42.29390854"><ele>1681.242</ele><time>2026-09-14T07:18:43Z</time><speed>0.000</speed><sat>22</sat></trkpt>
  <trkpt lat="38.49189445" lon="42.29390847"><ele>1681.249</ele><time>2026-09-14T07:18:44Z</time><speed>0.000</speed><sat>22</sat></trkpt>
  <trkpt lat="38.49189446" lon="42.29390840"><ele>1681.246</ele><time>2026-09-14T07:18:45Z</time><speed>0.000</speed><sat>21</sat></trkpt>
  <trkpt lat="38.49189448" lon="42.29390831"><ele>1681.233</ele><time>2026-09-14T07:18:46Z</time><speed>0.000</speed><sat>22</sat></trkpt>
  <trkpt lat="38.49189449" lon="42.29390823"><ele>1681.225</ele><time>2026-09-14T07:18:47Z</time><speed>0.000</speed><sat>22</sat></trkpt>
  <trkpt lat="38.49189447" lon="42.29390820"><ele>1681.230</ele><time>2026-09-14T07:18:48Z</time><speed>0.000</speed><sat>22</sat></trkpt>
  <trkpt lat="38.49189447" lon="42.29390819"><ele>1681.228</ele><time>2026-09-14T07:18:49Z</time><speed>0.000</speed><sat>22</sat></trkpt>
  <trkpt lat="38.49189445" lon="42.29390815"><ele>1681.230</ele><time>2026-09-14T07:18:50Z</time><speed>0.000</speed><sat>21</sat></trkpt>
  <trkpt lat="38.49189446" lon="42.29390810"><ele>1681.221</ele><time>2026-09-14T07:18:51Z</time><speed>0.000</speed><sat>22</sat></trkpt>
  <trkpt lat="38.49189444" lon="42.29390809"><ele>1681.228</ele><time>2026-09-14T07:18:52Z</time><speed>0.000</speed><sat>22</sat></trkpt>
  <trkpt lat="38.49189442" lon="42.29390807"><ele>1681.227</ele><time>2026-09-14T07:18:53Z</time><speed>0.000</speed><sat>21</sat></trkpt>
  <trkpt lat="38.49189441" lon="42.29390805"><ele>1681.220</ele><time>2026-09-14T07:18:54Z</time><speed>0.000</speed><sat>24</sat></trkpt>
  <trkpt lat="38.49189442" lon="42.29390801"><ele>1681.217</ele><time>2026-09-14T07:18:55Z</time><speed>0.000</speed><sat>26</sat></trkpt>
  <trkpt lat="38.49189443" lon="42.29390798"><ele>1681.213</ele><time>2026-09-14T07:18:56Z</time><speed>0.000</speed><sat>27</sat></trkpt>
  <trkpt lat="38.49189447" lon="42.29390793"><ele>1681.203</ele><time>2026-09-14T07:18:57Z</time><speed>0.000</speed><sat>26</sat></trkpt>
  <trkpt lat="38.49189449" lon="42.29390790"><ele>1681.200</ele><time>2026-09-14T07:18:58Z</time><speed>0.000</speed><sat>28</sat></trkpt>
  <trkpt lat="38.49189450" lon="42.29390789"><ele>1681.202</ele><time>2026-09-14T07:18:59Z</time><speed>0.000</speed><sat>28</sat></trkpt>
  <trkpt lat="38.49189449" lon="42.29390789"><ele>1681.203</ele><time>2026-09-14T07:19:00Z</time><speed>0.000</speed><sat>28</sat></trkpt>
  <trkpt lat="38.49189447" lon="42.29390789"><ele>1681.205</ele><time>2026-09-14T07:19:01Z</time><speed>0.000</speed><sat>27</sat></trkpt>
  <trkpt lat="38.49189446" lon="42.29390791"><ele>1681.206</ele><time>2026-09-14T07:19:02Z</time><speed>0.000</speed><sat>27</sat></trkpt>
  <trkpt lat="38.49189445" lon="42.29390793"><ele>1681.206</ele><time>2026-09-14T07:19:03Z</time><speed>0.000</speed><sat>27</sat></trkpt>
  <trkpt lat="38.49189505" lon="42.29391408"><ele>1681.510</ele><time>2026-09-14T07:19:04Z</time><speed>0.760</speed><sat>27</sat></trkpt>
  <trkpt lat="38.49189800" lon="42.29392307"><ele>1683.008</ele><time>2026-09-14T07:19:05Z</time><speed>0.740</speed><sat>27</sat></trkpt>
  <trkpt lat="38.49189853" lon="42.29392570"><ele>1682.875</ele><time>2026-09-14T07:19:06Z</time><speed>0.000</speed><sat>30</sat></trkpt>
  <trkpt lat="38.49189838" lon="42.29392495"><ele>1682.876</ele><time>2026-09-14T07:19:07Z</time><speed>0.000</speed><sat>33</sat></trkpt>
  <trkpt lat="38.49189830" lon="42.29392456"><ele>1682.878</ele><time>2026-09-14T07:19:08Z</time><speed>0.000</speed><sat>35</sat></trkpt>
  <trkpt lat="38.49189826" lon="42.29392435"><ele>1682.873</ele><time>2026-09-14T07:19:09Z</time><speed>0.000</speed><sat>36</sat></trkpt>
  <trkpt lat="38.49189824" lon="42.29392423"><ele>1682.871</ele><time>2026-09-14T07:19:10Z</time><speed>0.000</speed><sat>37</sat></trkpt>
  <trkpt lat="38.49189822" lon="42.29392417"><ele>1682.868</ele><time>2026-09-14T07:19:11Z</time><speed>0.000</speed><sat>37</sat></trkpt>
  <trkpt lat="38.49189820" lon="42.29392414"><ele>1682.866</ele><time>2026-09-14T07:19:12Z</time><speed>0.000</speed><sat>36</sat></trkpt>
  <trkpt lat="38.49189820" lon="42.29392413"><ele>1682.864</ele><time>2026-09-14T07:19:13Z</time><speed>0.000</speed><sat>36</sat></trkpt>
  <trkpt lat="38.49189819" lon="42.29392411"><ele>1682.862</ele><time>2026-09-14T07:19:14Z</time><speed>0.000</speed><sat>36</sat></trkpt>
  <trkpt lat="38.49189818" lon="42.29392409"><ele>1682.858</ele><time>2026-09-14T07:19:15Z</time><speed>0.000</speed><sat>36</sat></trkpt>
  <trkpt lat="38.49189817" lon="42.29392408"><ele>1682.858</ele><time>2026-09-14T07:19:16Z</time><speed>0.000</speed><sat>35</sat></trkpt>
  <trkpt lat="38.49189816" lon="42.29392406"><ele>1682.859</ele><time>2026-09-14T07:19:17Z</time><speed>0.000</speed><sat>37</sat></trkpt>
  <trkpt lat="38.49189816" lon="42.29392403"><ele>1682.857</ele><time>2026-09-14T07:19:18Z</time><speed>0.000</speed><sat>37</sat></trkpt>
  <trkpt lat="38.49189815" lon="42.29392401"><ele>1682.854</ele><time>2026-09-14T07:19:19Z</time><speed>0.000</speed><sat>37</sat></trkpt>
  <trkpt lat="38.49189813" lon="42.29392401"><ele>1682.851</ele><time>2026-09-14T07:19:20Z</time><speed>0.000</speed><sat>37</sat></trkpt>
  <trkpt lat="38.49189811" lon="42.29392401"><ele>1682.850</ele><time>2026-09-14T07:19:21Z</time><speed>0.000</speed><sat>37</sat></trkpt>
 </trkseg>
</trk>

</gpx>
 