<?xml version="1.0" encoding="UTF-8"?>
<!-- Created with BasicAirData GPS Logger for Android - ver. 3.3.0 -->
<!-- Track 18 = 444 TrackPoints + 0 Placemarks -->

<!-- Track Statistics (based on Total Time | Time in Movement): -->
<!--  Distance = 795 m -->
<!--  Duration = 07:23 | 07:09 -->
<!--  Altitude Gap = -7 m -->
<!--  Max Speed = 38 km/h -->
<!--  Avg Speed = 6.5 | 6.7 km/h -->
<!--  Direction = WSW -->
<!--  Activity = walking -->
<!--  Altitudes = Raw -->

<gpx version="1.0"
     creator="BasicAirData GPS Logger 3.3.0"
     xmlns="http://www.topografix.com/GPX/1/0"
     xmlns:xsi="http://www.w3.org/2001/XMLSchema-instance"
     xsi:schemaLocation="http://www.topografix.com/GPX/1/0 http://www.topografix.com/GPX/1/0/gpx.xsd">
<name>GPS Logger 20260913-152642</name>
<time>2026-09-15T20:03:29Z</time>
<keywords>walking</keywords>
<bounds minlat="38.52842654" minlon="42.30338736" maxlat="38.53187060" maxlon="42.31089444" />

<trk>
 <name>Track 20260913-152642</name>
 <trkseg>
  <trkpt lat="38.53186559" lon="42.31089444"><ele>1698.316</ele><time>2026-09-13T12:26:42Z</time><speed>1.590</speed><sat>32</sat></trkpt>
  <trkpt lat="38.53186547" lon="42.31087613"><ele>1698.379</ele><time>2026-09-13T12:26:43Z</time><speed>1.570</speed><sat>34</sat></trkpt>
  <trkpt lat="38.53186544" lon="42.31085794"><ele>1698.358</ele><time>2026-09-13T12:26:44Z</time><speed>1.610</speed><sat>34</sat></trkpt>
  <trkpt lat="38.53186612" lon="42.31083810"><ele>1698.554</ele><time>2026-09-13T12:26:45Z</time><speed>1.750</speed><sat>35</sat></trkpt>
  <trkpt lat="38.53186783" lon="42.31081833"><ele>1698.687</ele><time>2026-09-13T12:26:46Z</time><speed>1.640</speed><sat>35</sat></trkpt>
  <trkpt lat="38.53186896" lon="42.31079905"><ele>1698.596</ele><time>2026-09-13T12:26:47Z</time><speed>1.650</speed><sat>35</sat></trkpt>
  <trkpt lat="38.53186972" lon="42.31077999"><ele>1698.569</ele><time>2026-09-13T12:26:48Z</time><speed>1.610</speed><sat>35</sat></trkpt>
  <trkpt lat="38.53187000" lon="42.31076123"><ele>1698.774</ele><time>2026-09-13T12:26:49Z</time><speed>1.640</speed><sat>35</sat></trkpt>
  <trkpt lat="38.53187060" lon="42.31074215"><ele>1698.568</ele><time>2026-09-13T12:26:50Z</time><speed>1.650</speed><sat>35</sat></trkpt>
  <trkpt lat="38.53187044" lon="42.31072251"><ele>1698.781</ele><time>2026-09-13T12:26:51Z</time><speed>1.800</speed><sat>35</sat></trkpt>
  <trkpt lat="38.53186964" lon="42.31070251"><ele>1699.003</ele><time>2026-09-13T12:26:52Z</time><speed>1.680</speed><sat>36</sat></trkpt>
  <trkpt lat="38.53186891" lon="42.31068355"><ele>1698.960</ele><time>2026-09-13T12:26:53Z</time><speed>1.650</speed><sat>36</sat></trkpt>
  <trkpt lat="38.53186797" lon="42.31066397"><ele>1699.073</ele><time>2026-09-13T12:26:54Z</time><speed>1.740</speed><sat>36</sat></trkpt>
  <trkpt lat="38.53186651" lon="42.31064432"><ele>1699.103</ele><time>2026-09-13T12:26:55Z</time><speed>1.710</speed><sat>36</sat></trkpt>
  <trkpt lat="38.53186470" lon="42.31062533"><ele>1699.259</ele><time>2026-09-13T12:26:56Z</time><speed>1.610</speed><sat>36</sat></trkpt>
  <trkpt lat="38.53186347" lon="42.31060610"><ele>1699.365</ele><time>2026-09-13T12:26:57Z</time><speed>1.710</speed><sat>36</sat></trkpt>
  <trkpt lat="38.53186321" lon="42.31058475"><ele>1698.912</ele><time>2026-09-13T12:26:58Z</time><speed>1.840</speed><sat>36</sat></trkpt>
  <trkpt lat="38.53186385" lon="42.31056291"><ele>1698.669</ele><time>2026-09-13T12:26:59Z</time><speed>1.790</speed><sat>36</sat></trkpt>
  <trkpt lat="38.53186497" lon="42.31054195"><ele>1698.774</ele><time>2026-09-13T12:27:00Z</time><speed>1.710</speed><sat>36</sat></trkpt>
  <trkpt lat="38.53186622" lon="42.31052172"><ele>1698.895</ele><time>2026-09-13T12:27:01Z</time><speed>1.730</speed><sat>36</sat></trkpt>
  <trkpt lat="38.53186703" lon="42.31050235"><ele>1698.997</ele><time>2026-09-13T12:27:02Z</time><speed>1.620</speed><sat>36</sat></trkpt>
  <trkpt lat="38.53186734" lon="42.31048332"><ele>1699.019</ele><time>2026-09-13T12:27:03Z</time><speed>1.660</speed><sat>36</sat></trkpt>
  <trkpt lat="38.53186720" lon="42.31046410"><ele>1699.446</ele><time>2026-09-13T12:27:04Z</time><speed>1.680</speed><sat>36</sat></trkpt>
  <trkpt lat="38.53186727" lon="42.31044370"><ele>1699.431</ele><time>2026-09-13T12:27:05Z</time><speed>1.740</speed><sat>36</sat></trkpt>
  <trkpt lat="38.53186684" lon="42.31042309"><ele>1699.495</ele><time>2026-09-13T12:27:06Z</time><speed>1.770</speed><sat>36</sat></trkpt>
  <trkpt lat="38.53186575" lon="42.31040233"><ele>1699.526</ele><time>2026-09-13T12:27:07Z</time><speed>1.730</speed><sat>36</sat></trkpt>
  <trkpt lat="38.53186405" lon="42.31038223"><ele>1699.507</ele><time>2026-09-13T12:27:08Z</time><speed>1.730</speed><sat>36</sat></trkpt>
  <trkpt lat="38.53186207" lon="42.31036247"><ele>1699.295</ele><time>2026-09-13T12:27:09Z</time><speed>1.710</speed><sat>36</sat></trkpt>
  <trkpt lat="38.53186014" lon="42.31034319"><ele>1699.208</ele><time>2026-09-13T12:27:10Z</time><speed>1.740</speed><sat>36</sat></trkpt>
  <trkpt lat="38.53185796" lon="42.31032269"><ele>1699.043</ele><time>2026-09-13T12:27:11Z</time><speed>1.770</speed><sat>36</sat></trkpt>
  <trkpt lat="38.53185558" lon="42.31030201"><ele>1698.804</ele><time>2026-09-13T12:27:12Z</time><speed>1.780</speed><sat>36</sat></trkpt>
  <trkpt lat="38.53185277" lon="42.31028150"><ele>1698.640</ele><time>2026-09-13T12:27:13Z</time><speed>1.730</speed><sat>36</sat></trkpt>
  <trkpt lat="38.53185076" lon="42.31026128"><ele>1698.666</ele><time>2026-09-13T12:27:14Z</time><speed>1.730</speed><sat>36</sat></trkpt>
  <trkpt lat="38.53185022" lon="42.31024114"><ele>1698.693</ele><time>2026-09-13T12:27:15Z</time><speed>1.760</speed><sat>36</sat></trkpt>
  <trkpt lat="38.53185189" lon="42.31022146"><ele>1698.789</ele><time>2026-09-13T12:27:16Z</time><speed>1.680</speed><sat>36</sat></trkpt>
  <trkpt lat="38.53185416" lon="42.31020390"><ele>1698.832</ele><time>2026-09-13T12:27:17Z</time><speed>1.430</speed><sat>36</sat></trkpt>
  <trkpt lat="38.53185721" lon="42.31018830"><ele>1698.680</ele><time>2026-09-13T12:27:18Z</time><speed>1.450</speed><sat>36</sat></trkpt>
  <trkpt lat="38.53186037" lon="42.31017231"><ele>1698.762</ele><time>2026-09-13T12:27:19Z</time><speed>1.540</speed><sat>36</sat></trkpt>
  <trkpt lat="38.53186355" lon="42.31015520"><ele>1698.936</ele><time>2026-09-13T12:27:20Z</time><speed>1.660</speed><sat>36</sat></trkpt>
  <trkpt lat="38.53186580" lon="42.31013684"><ele>1698.744</ele><time>2026-09-13T12:27:21Z</time><speed>1.670</speed><sat>36</sat></trkpt>
  <trkpt lat="38.53186583" lon="42.31011791"><ele>1698.882</ele><time>2026-09-13T12:27:22Z</time><speed>1.690</speed><sat>36</sat></trkpt>
  <trkpt lat="38.53186376" lon="42.31009868"><ele>1698.917</ele><time>2026-09-13T12:27:23Z</time><speed>1.730</speed><sat>36</sat></trkpt>
  <trkpt lat="38.53186060" lon="42.31007860"><ele>1699.073</ele><time>2026-09-13T12:27:24Z</time><speed>1.760</speed><sat>36</sat></trkpt>
  <trkpt lat="38.53185776" lon="42.31005916"><ele>1699.063</ele><time>2026-09-13T12:27:25Z</time><speed>1.700</speed><sat>36</sat></trkpt>
  <trkpt lat="38.53185580" lon="42.31004067"><ele>1698.911</ele><time>2026-09-13T12:27:26Z</time><speed>1.650</speed><sat>36</sat></trkpt>
  <trkpt lat="38.53185370" lon="42.31002209"><ele>1698.847</ele><time>2026-09-13T12:27:27Z</time><speed>1.740</speed><sat>36</sat></trkpt>
  <trkpt lat="38.53185128" lon="42.31000291"><ele>1698.818</ele><time>2026-09-13T12:27:28Z</time><speed>1.710</speed><sat>35</sat></trkpt>
  <trkpt lat="38.53184944" lon="42.30998455"><ele>1698.772</ele><time>2026-09-13T12:27:29Z</time><speed>1.620</speed><sat>35</sat></trkpt>
  <trkpt lat="38.53184875" lon="42.30996675"><ele>1698.827</ele><time>2026-09-13T12:27:30Z</time><speed>1.560</speed><sat>35</sat></trkpt>
  <trkpt lat="38.53184856" lon="42.30994849"><ele>1699.037</ele><time>2026-09-13T12:27:31Z</time><speed>1.650</speed><sat>35</sat></trkpt>
  <trkpt lat="38.53184770" lon="42.30993011"><ele>1699.094</ele><time>2026-09-13T12:27:32Z</time><speed>1.630</speed><sat>35</sat></trkpt>
  <trkpt lat="38.53184501" lon="42.30991185"><ele>1699.388</ele><time>2026-09-13T12:27:33Z</time><speed>1.670</speed><sat>35</sat></trkpt>
  <trkpt lat="38.53184164" lon="42.30989413"><ele>1699.351</ele><time>2026-09-13T12:27:34Z</time><speed>1.620</speed><sat>35</sat></trkpt>
  <trkpt lat="38.53183808" lon="42.30987567"><ele>1699.219</ele><time>2026-09-13T12:27:35Z</time><speed>1.740</speed><sat>36</sat></trkpt>
  <trkpt lat="38.53183557" lon="42.30985767"><ele>1699.247</ele><time>2026-09-13T12:27:36Z</time><speed>1.520</speed><sat>36</sat></trkpt>
  <trkpt lat="38.53183377" lon="42.30983975"><ele>1699.504</ele><time>2026-09-13T12:27:37Z</time><speed>1.580</speed><sat>36</sat></trkpt>
  <trkpt lat="38.53183218" lon="42.30982109"><ele>1699.307</ele><time>2026-09-13T12:27:38Z</time><speed>1.630</speed><sat>35</sat></trkpt>
  <trkpt lat="38.53182991" lon="42.30980228"><ele>1699.264</ele><time>2026-09-13T12:27:39Z</time><speed>1.650</speed><sat>35</sat></trkpt>
  <trkpt lat="38.53182737" lon="42.30978398"><ele>1699.319</ele><time>2026-09-13T12:27:40Z</time><speed>1.640</speed><sat>35</sat></trkpt>
  <trkpt lat="38.53182496" lon="42.30976596"><ele>1699.212</ele><time>2026-09-13T12:27:41Z</time><speed>1.590</speed><sat>36</sat></trkpt>
  <trkpt lat="38.53182273" lon="42.30974884"><ele>1699.340</ele><time>2026-09-13T12:27:42Z</time><speed>1.520</speed><sat>36</sat></trkpt>
  <trkpt lat="38.53182096" lon="42.30973208"><ele>1699.450</ele><time>2026-09-13T12:27:43Z</time><speed>1.480</speed><sat>36</sat></trkpt>
  <trkpt lat="38.53181902" lon="42.30971523"><ele>1699.504</ele><time>2026-09-13T12:27:44Z</time><speed>1.470</speed><sat>35</sat></trkpt>
  <trkpt lat="38.53181734" lon="42.30969868"><ele>1699.601</ele><time>2026-09-13T12:27:45Z</time><speed>1.400</speed><sat>35</sat></trkpt>
  <trkpt lat="38.53181621" lon="42.30968286"><ele>1699.601</ele><time>2026-09-13T12:27:46Z</time><speed>1.340</speed><sat>35</sat></trkpt>
  <trkpt lat="38.53181456" lon="42.30966760"><ele>1699.559</ele><time>2026-09-13T12:27:47Z</time><speed>1.290</speed><sat>35</sat></trkpt>
  <trkpt lat="38.53181271" lon="42.30965290"><ele>1699.670</ele><time>2026-09-13T12:27:48Z</time><speed>1.270</speed><sat>35</sat></trkpt>
  <trkpt lat="38.53181028" lon="42.30963891"><ele>1699.919</ele><time>2026-09-13T12:27:49Z</time><speed>1.290</speed><sat>35</sat></trkpt>
  <trkpt lat="38.53180714" lon="42.30962500"><ele>1700.089</ele><time>2026-09-13T12:27:50Z</time><speed>1.190</speed><sat>35</sat></trkpt>
  <trkpt lat="38.53180406" lon="42.30961171"><ele>1700.234</ele><time>2026-09-13T12:27:51Z</time><speed>1.230</speed><sat>35</sat></trkpt>
  <trkpt lat="38.53180072" lon="42.30959865"><ele>1700.167</ele><time>2026-09-13T12:27:52Z</time><speed>1.170</speed><sat>35</sat></trkpt>
  <trkpt lat="38.53179791" lon="42.30958597"><ele>1700.531</ele><time>2026-09-13T12:27:53Z</time><speed>1.160</speed><sat>34</sat></trkpt>
  <trkpt lat="38.53179417" lon="42.30957235"><ele>1700.851</ele><time>2026-09-13T12:27:54Z</time><speed>1.310</speed><sat>35</sat></trkpt>
  <trkpt lat="38.53179016" lon="42.30955852"><ele>1700.856</ele><time>2026-09-13T12:27:55Z</time><speed>1.330</speed><sat>35</sat></trkpt>
  <trkpt lat="38.53178749" lon="42.30954869"><ele>1700.219</ele><time>2026-09-13T12:27:56Z</time><speed>0.720</speed><sat>35</sat></trkpt>
  <trkpt lat="38.53178584" lon="42.30953810"><ele>1700.217</ele><time>2026-09-13T12:27:57Z</time><speed>1.180</speed><sat>35</sat></trkpt>
  <trkpt lat="38.53178540" lon="42.30952383"><ele>1700.018</ele><time>2026-09-13T12:27:58Z</time><speed>1.260</speed><sat>35</sat></trkpt>
  <trkpt lat="38.53178530" lon="42.30950954"><ele>1699.893</ele><time>2026-09-13T12:27:59Z</time><speed>1.230</speed><sat>35</sat></trkpt>
  <trkpt lat="38.53178514" lon="42.30949547"><ele>1699.888</ele><time>2026-09-13T12:28:00Z</time><speed>1.260</speed><sat>35</sat></trkpt>
  <trkpt lat="38.53178539" lon="42.30947952"><ele>1699.467</ele><time>2026-09-13T12:28:01Z</time><speed>1.460</speed><sat>35</sat></trkpt>
  <trkpt lat="38.53178575" lon="42.30946097"><ele>1699.313</ele><time>2026-09-13T12:28:02Z</time><speed>1.650</speed><sat>34</sat></trkpt>
  <trkpt lat="38.53178471" lon="42.30944091"><ele>1699.458</ele><time>2026-09-13T12:28:03Z</time><speed>1.770</speed><sat>35</sat></trkpt>
  <trkpt lat="38.53178220" lon="42.30942044"><ele>1699.136</ele><time>2026-09-13T12:28:04Z</time><speed>1.750</speed><sat>34</sat></trkpt>
  <trkpt lat="38.53177803" lon="42.30940051"><ele>1699.056</ele><time>2026-09-13T12:28:05Z</time><speed>1.730</speed><sat>34</sat></trkpt>
  <trkpt lat="38.53177198" lon="42.30938233"><ele>1699.201</ele><time>2026-09-13T12:28:06Z</time><speed>1.630</speed><sat>34</sat></trkpt>
  <trkpt lat="38.53176483" lon="42.30936576"><ele>1699.328</ele><time>2026-09-13T12:28:07Z</time><speed>1.560</speed><sat>34</sat></trkpt>
  <trkpt lat="38.53175840" lon="42.30934889"><ele>1699.247</ele><time>2026-09-13T12:28:08Z</time><speed>1.650</speed><sat>34</sat></trkpt>
  <trkpt lat="38.53175343" lon="42.30933071"><ele>1699.123</ele><time>2026-09-13T12:28:09Z</time><speed>1.640</speed><sat>34</sat></trkpt>
  <trkpt lat="38.53175023" lon="42.30931140"><ele>1699.294</ele><time>2026-09-13T12:28:10Z</time><speed>1.710</speed><sat>34</sat></trkpt>
  <trkpt lat="38.53174944" lon="42.30929101"><ele>1699.337</ele><time>2026-09-13T12:28:11Z</time><speed>1.760</speed><sat>34</sat></trkpt>
  <trkpt lat="38.53175043" lon="42.30927034"><ele>1698.813</ele><time>2026-09-13T12:28:12Z</time><speed>1.680</speed><sat>34</sat></trkpt>
  <trkpt lat="38.53175261" lon="42.30924855"><ele>1698.951</ele><time>2026-09-13T12:28:13Z</time><speed>1.910</speed><sat>33</sat></trkpt>
  <trkpt lat="38.53175433" lon="42.30922773"><ele>1698.974</ele><time>2026-09-13T12:28:14Z</time><speed>1.660</speed><sat>33</sat></trkpt>
  <trkpt lat="38.53175250" lon="42.30920863"><ele>1699.124</ele><time>2026-09-13T12:28:15Z</time><speed>1.750</speed><sat>33</sat></trkpt>
  <trkpt lat="38.53174764" lon="42.30918863"><ele>1699.651</ele><time>2026-09-13T12:28:16Z</time><speed>1.910</speed><sat>35</sat></trkpt>
  <trkpt lat="38.53174144" lon="42.30916646"><ele>1700.162</ele><time>2026-09-13T12:28:17Z</time><speed>2.050</speed><sat>35</sat></trkpt>
  <trkpt lat="38.53173666" lon="42.30914612"><ele>1700.086</ele><time>2026-09-13T12:28:18Z</time><speed>1.750</speed><sat>35</sat></trkpt>
  <trkpt lat="38.53173398" lon="42.30912921"><ele>1700.013</ele><time>2026-09-13T12:28:19Z</time><speed>1.650</speed><sat>35</sat></trkpt>
  <trkpt lat="38.53173267" lon="42.30911335"><ele>1699.869</ele><time>2026-09-13T12:28:20Z</time><speed>1.540</speed><sat>35</sat></trkpt>
  <trkpt lat="38.53173135" lon="42.30909606"><ele>1699.806</ele><time>2026-09-13T12:28:21Z</time><speed>1.760</speed><sat>35</sat></trkpt>
  <trkpt lat="38.53172971" lon="42.30907875"><ele>1699.366</ele><time>2026-09-13T12:28:22Z</time><speed>1.610</speed><sat>35</sat></trkpt>
  <trkpt lat="38.53172743" lon="42.30906269"><ele>1699.176</ele><time>2026-09-13T12:28:23Z</time><speed>1.520</speed><sat>35</sat></trkpt>
  <trkpt lat="38.53172395" lon="42.30904655"><ele>1699.076</ele><time>2026-09-13T12:28:24Z</time><speed>1.630</speed><sat>35</sat></trkpt>
  <trkpt lat="38.53172000" lon="42.30903020"><ele>1699.097</ele><time>2026-09-13T12:28:25Z</time><speed>1.640</speed><sat>35</sat></trkpt>
  <trkpt lat="38.53171616" lon="42.30901570"><ele>1698.761</ele><time>2026-09-13T12:28:26Z</time><speed>1.320</speed><sat>35</sat></trkpt>
  <trkpt lat="38.53171232" lon="42.30900125"><ele>1698.520</ele><time>2026-09-13T12:28:27Z</time><speed>1.510</speed><sat>36</sat></trkpt>
  <trkpt lat="38.53170910" lon="42.30898580"><ele>1698.472</ele><time>2026-09-13T12:28:28Z</time><speed>1.470</speed><sat>36</sat></trkpt>
  <trkpt lat="38.53170629" lon="42.30896908"><ele>1698.409</ele><time>2026-09-13T12:28:29Z</time><speed>1.530</speed><sat>36</sat></trkpt>
  <trkpt lat="38.53170303" lon="42.30894965"><ele>1698.843</ele><time>2026-09-13T12:28:30Z</time><speed>1.670</speed><sat>36</sat></trkpt>
  <trkpt lat="38.53169927" lon="42.30893117"><ele>1699.948</ele><time>2026-09-13T12:28:31Z</time><speed>1.480</speed><sat>36</sat></trkpt>
  <trkpt lat="38.53169625" lon="42.30891564"><ele>1699.880</ele><time>2026-09-13T12:28:32Z</time><speed>1.400</speed><sat>36</sat></trkpt>
  <trkpt lat="38.53169367" lon="42.30889976"><ele>1699.877</ele><time>2026-09-13T12:28:33Z</time><speed>1.520</speed><sat>36</sat></trkpt>
  <trkpt lat="38.53169155" lon="42.30888222"><ele>1700.104</ele><time>2026-09-13T12:28:34Z</time><speed>1.530</speed><sat>36</sat></trkpt>
  <trkpt lat="38.53168977" lon="42.30886362"><ele>1700.844</ele><time>2026-09-13T12:28:35Z</time><speed>1.600</speed><sat>36</sat></trkpt>
  <trkpt lat="38.53168849" lon="42.30884505"><ele>1701.677</ele><time>2026-09-13T12:28:36Z</time><speed>1.520</speed><sat>36</sat></trkpt>
  <trkpt lat="38.53168659" lon="42.30882474"><ele>1701.919</ele><time>2026-09-13T12:28:37Z</time><speed>1.790</speed><sat>36</sat></trkpt>
  <trkpt lat="38.53168301" lon="42.30880440"><ele>1701.546</ele><time>2026-09-13T12:28:38Z</time><speed>1.670</speed><sat>36</sat></trkpt>
  <trkpt lat="38.53167865" lon="42.30878573"><ele>1701.750</ele><time>2026-09-13T12:28:39Z</time><speed>1.660</speed><sat>36</sat></trkpt>
  <trkpt lat="38.53167417" lon="42.30876720"><ele>1701.481</ele><time>2026-09-13T12:28:40Z</time><speed>1.670</speed><sat>36</sat></trkpt>
  <trkpt lat="38.53166897" lon="42.30874940"><ele>1701.756</ele><time>2026-09-13T12:28:41Z</time><speed>1.650</speed><sat>36</sat></trkpt>
  <trkpt lat="38.53166349" lon="42.30873054"><ele>1701.193</ele><time>2026-09-13T12:28:42Z</time><speed>1.690</speed><sat>36</sat></trkpt>
  <trkpt lat="38.53165854" lon="42.30871171"><ele>1701.737</ele><time>2026-09-13T12:28:43Z</time><speed>1.690</speed><sat>36</sat></trkpt>
  <trkpt lat="38.53165326" lon="42.30869250"><ele>1701.547</ele><time>2026-09-13T12:28:44Z</time><speed>1.720</speed><sat>36</sat></trkpt>
  <trkpt lat="38.53164821" lon="42.30867230"><ele>1701.807</ele><time>2026-09-13T12:28:45Z</time><speed>1.800</speed><sat>36</sat></trkpt>
  <trkpt lat="38.53164386" lon="42.30865248"><ele>1701.811</ele><time>2026-09-13T12:28:46Z</time><speed>1.630</speed><sat>36</sat></trkpt>
  <trkpt lat="38.53164003" lon="42.30863388"><ele>1701.632</ele><time>2026-09-13T12:28:47Z</time><speed>1.680</speed><sat>36</sat></trkpt>
  <trkpt lat="38.53163664" lon="42.30861503"><ele>1701.954</ele><time>2026-09-13T12:28:48Z</time><speed>1.740</speed><sat>36</sat></trkpt>
  <trkpt lat="38.53163325" lon="42.30859718"><ele>1701.931</ele><time>2026-09-13T12:28:49Z</time><speed>1.570</speed><sat>36</sat></trkpt>
  <trkpt lat="38.53163073" lon="42.30857924"><ele>1701.336</ele><time>2026-09-13T12:28:50Z</time><speed>1.680</speed><sat>36</sat></trkpt>
  <trkpt lat="38.53162753" lon="42.30856441"><ele>1701.195</ele><time>2026-09-13T12:28:51Z</time><speed>1.150</speed><sat>36</sat></trkpt>
  <trkpt lat="38.53162407" lon="42.30855077"><ele>1701.372</ele><time>2026-09-13T12:28:52Z</time><speed>1.320</speed><sat>36</sat></trkpt>
  <trkpt lat="38.53161939" lon="42.30853558"><ele>1701.240</ele><time>2026-09-13T12:28:53Z</time><speed>1.410</speed><sat>36</sat></trkpt>
  <trkpt lat="38.53161426" lon="42.30851986"><ele>1701.353</ele><time>2026-09-13T12:28:54Z</time><speed>1.370</speed><sat>36</sat></trkpt>
  <trkpt lat="38.53160906" lon="42.30850384"><ele>1701.353</ele><time>2026-09-13T12:28:55Z</time><speed>1.400</speed><sat>36</sat></trkpt>
  <trkpt lat="38.53160298" lon="42.30848766"><ele>1701.462</ele><time>2026-09-13T12:28:56Z</time><speed>1.420</speed><sat>36</sat></trkpt>
  <trkpt lat="38.53159626" lon="42.30847079"><ele>1701.816</ele><time>2026-09-13T12:28:57Z</time><speed>1.460</speed><sat>36</sat></trkpt>
  <trkpt lat="38.53158952" lon="42.30845243"><ele>1701.486</ele><time>2026-09-13T12:28:58Z</time><speed>1.560</speed><sat>36</sat></trkpt>
  <trkpt lat="38.53158510" lon="42.30843427"><ele>1701.517</ele><time>2026-09-13T12:28:59Z</time><speed>1.470</speed><sat>36</sat></trkpt>
  <trkpt lat="38.53158103" lon="42.30841573"><ele>1701.735</ele><time>2026-09-13T12:29:00Z</time><speed>1.590</speed><sat>36</sat></trkpt>
  <trkpt lat="38.53157784" lon="42.30839699"><ele>1701.882</ele><time>2026-09-13T12:29:01Z</time><speed>1.500</speed><sat>36</sat></trkpt>
  <trkpt lat="38.53157609" lon="42.30837953"><ele>1701.951</ele><time>2026-09-13T12:29:02Z</time><speed>1.390</speed><sat>36</sat></trkpt>
  <trkpt lat="38.53157312" lon="42.30836299"><ele>1702.321</ele><time>2026-09-13T12:29:03Z</time><speed>1.440</speed><sat>36</sat></trkpt>
  <trkpt lat="38.53156799" lon="42.30834803"><ele>1701.850</ele><time>2026-09-13T12:29:04Z</time><speed>1.270</speed><sat>36</sat></trkpt>
  <trkpt lat="38.53156099" lon="42.30833566"><ele>1701.423</ele><time>2026-09-13T12:29:05Z</time><speed>1.310</speed><sat>36</sat></trkpt>
  <trkpt lat="38.53155021" lon="42.30832434"><ele>1701.425</ele><time>2026-09-13T12:29:06Z</time><speed>1.520</speed><sat>36</sat></trkpt>
  <trkpt lat="38.53154028" lon="42.30831430"><ele>1701.812</ele><time>2026-09-13T12:29:07Z</time><speed>1.180</speed><sat>36</sat></trkpt>
  <trkpt lat="38.53153257" lon="42.30830550"><ele>1701.970</ele><time>2026-09-13T12:29:08Z</time><speed>1.060</speed><sat>36</sat></trkpt>
  <trkpt lat="38.53152378" lon="42.30829523"><ele>1701.671</ele><time>2026-09-13T12:29:09Z</time><speed>1.300</speed><sat>36</sat></trkpt>
  <trkpt lat="38.53151522" lon="42.30828654"><ele>1701.417</ele><time>2026-09-13T12:29:10Z</time><speed>1.020</speed><sat>36</sat></trkpt>
  <trkpt lat="38.53150392" lon="42.30827888"><ele>1701.167</ele><time>2026-09-13T12:29:11Z</time><speed>1.200</speed><sat>36</sat></trkpt>
  <trkpt lat="38.53149228" lon="42.30827319"><ele>1701.256</ele><time>2026-09-13T12:29:12Z</time><speed>0.910</speed><sat>35</sat></trkpt>
  <trkpt lat="38.53148597" lon="42.30826964"><ele>1701.449</ele><time>2026-09-13T12:29:13Z</time><speed>0.000</speed><sat>35</sat></trkpt>
  <trkpt lat="38.53147978" lon="42.30826456"><ele>1701.356</ele><time>2026-09-13T12:29:14Z</time><speed>0.900</speed><sat>35</sat></trkpt>
  <trkpt lat="38.53146737" lon="42.30825901"><ele>1700.903</ele><time>2026-09-13T12:29:15Z</time><speed>1.460</speed><sat>35</sat></trkpt>
  <trkpt lat="38.53145421" lon="42.30825518"><ele>1700.806</ele><time>2026-09-13T12:29:16Z</time><speed>1.180</speed><sat>34</sat></trkpt>
  <trkpt lat="38.53144186" lon="42.30825080"><ele>1700.935</ele><time>2026-09-13T12:29:17Z</time><speed>1.270</speed><sat>34</sat></trkpt>
  <trkpt lat="38.53142897" lon="42.30824496"><ele>1700.937</ele><time>2026-09-13T12:29:18Z</time><speed>1.300</speed><sat>34</sat></trkpt>
  <trkpt lat="38.53141655" lon="42.30823947"><ele>1699.670</ele><time>2026-09-13T12:29:19Z</time><speed>1.350</speed><sat>34</sat></trkpt>
  <trkpt lat="38.53140478" lon="42.30823280"><ele>1700.433</ele><time>2026-09-13T12:29:20Z</time><speed>1.340</speed><sat>33</sat></trkpt>
  <trkpt lat="38.53139286" lon="42.30822521"><ele>1700.361</ele><time>2026-09-13T12:29:21Z</time><speed>1.390</speed><sat>33</sat></trkpt>
  <trkpt lat="38.53137898" lon="42.30821756"><ele>1699.501</ele><time>2026-09-13T12:29:22Z</time><speed>1.580</speed><sat>33</sat></trkpt>
  <trkpt lat="38.53136412" lon="42.30820476"><ele>1699.823</ele><time>2026-09-13T12:29:23Z</time><speed>1.890</speed><sat>33</sat></trkpt>
  <trkpt lat="38.53135159" lon="42.30819013"><ele>1700.225</ele><time>2026-09-13T12:29:24Z</time><speed>1.510</speed><sat>32</sat></trkpt>
  <trkpt lat="38.53134227" lon="42.30817331"><ele>1700.663</ele><time>2026-09-13T12:29:25Z</time><speed>1.610</speed><sat>32</sat></trkpt>
  <trkpt lat="38.53133458" lon="42.30815280"><ele>1699.572</ele><time>2026-09-13T12:29:26Z</time><speed>1.690</speed><sat>32</sat></trkpt>
  <trkpt lat="38.53132715" lon="42.30813299"><ele>1699.682</ele><time>2026-09-13T12:29:27Z</time><speed>1.640</speed><sat>34</sat></trkpt>
  <trkpt lat="38.53132085" lon="42.30811483"><ele>1699.659</ele><time>2026-09-13T12:29:28Z</time><speed>1.500</speed><sat>34</sat></trkpt>
  <trkpt lat="38.53131478" lon="42.30809743"><ele>1699.745</ele><time>2026-09-13T12:29:29Z</time><speed>1.560</speed><sat>34</sat></trkpt>
  <trkpt lat="38.53130797" lon="42.30808149"><ele>1699.602</ele><time>2026-09-13T12:29:30Z</time><speed>1.540</speed><sat>34</sat></trkpt>
  <trkpt lat="38.53130112" lon="42.30806624"><ele>1699.691</ele><time>2026-09-13T12:29:31Z</time><speed>1.540</speed><sat>34</sat></trkpt>
  <trkpt lat="38.53129547" lon="42.30805045"><ele>1699.540</ele><time>2026-09-13T12:29:32Z</time><speed>1.570</speed><sat>34</sat></trkpt>
  <trkpt lat="38.53129030" lon="42.30803348"><ele>1699.645</ele><time>2026-09-13T12:29:33Z</time><speed>1.610</speed><sat>34</sat></trkpt>
  <trkpt lat="38.53128444" lon="42.30801692"><ele>1699.505</ele><time>2026-09-13T12:29:34Z</time><speed>1.600</speed><sat>34</sat></trkpt>
  <trkpt lat="38.53127736" lon="42.30800203"><ele>1699.388</ele><time>2026-09-13T12:29:35Z</time><speed>1.580</speed><sat>34</sat></trkpt>
  <trkpt lat="38.53126959" lon="42.30798696"><ele>1698.853</ele><time>2026-09-13T12:29:36Z</time><speed>1.630</speed><sat>34</sat></trkpt>
  <trkpt lat="38.53126228" lon="42.30797173"><ele>1698.883</ele><time>2026-09-13T12:29:37Z</time><speed>1.580</speed><sat>34</sat></trkpt>
  <trkpt lat="38.53125506" lon="42.30795690"><ele>1698.724</ele><time>2026-09-13T12:29:38Z</time><speed>1.590</speed><sat>35</sat></trkpt>
  <trkpt lat="38.53124831" lon="42.30793601"><ele>1699.418</ele><time>2026-09-13T12:29:39Z</time><speed>2.170</speed><sat>35</sat></trkpt>
  <trkpt lat="38.53124135" lon="42.30791438"><ele>1699.507</ele><time>2026-09-13T12:29:40Z</time><speed>1.870</speed><sat>35</sat></trkpt>
  <trkpt lat="38.53123480" lon="42.30789712"><ele>1698.857</ele><time>2026-09-13T12:29:41Z</time><speed>1.620</speed><sat>35</sat></trkpt>
  <trkpt lat="38.53122753" lon="42.30788223"><ele>1698.605</ele><time>2026-09-13T12:29:42Z</time><speed>1.560</speed><sat>35</sat></trkpt>
  <trkpt lat="38.53121881" lon="42.30786900"><ele>1698.008</ele><time>2026-09-13T12:29:43Z</time><speed>1.560</speed><sat>35</sat></trkpt>
  <trkpt lat="38.53121186" lon="42.30785639"><ele>1697.669</ele><time>2026-09-13T12:29:44Z</time><speed>1.290</speed><sat>35</sat></trkpt>
  <trkpt lat="38.53120555" lon="42.30784485"><ele>1697.688</ele><time>2026-09-13T12:29:45Z</time><speed>1.300</speed><sat>36</sat></trkpt>
  <trkpt lat="38.53119755" lon="42.30782967"><ele>1697.536</ele><time>2026-09-13T12:29:46Z</time><speed>1.710</speed><sat>36</sat></trkpt>
  <trkpt lat="38.53118833" lon="42.30781279"><ele>1697.570</ele><time>2026-09-13T12:29:47Z</time><speed>1.670</speed><sat>36</sat></trkpt>
  <trkpt lat="38.53117978" lon="42.30779440"><ele>1697.755</ele><time>2026-09-13T12:29:48Z</time><speed>1.790</speed><sat>36</sat></trkpt>
  <trkpt lat="38.53117876" lon="42.30777407"><ele>1698.822</ele><time>2026-09-13T12:29:49Z</time><speed>1.940</speed><sat>36</sat></trkpt>
  <trkpt lat="38.53118309" lon="42.30775327"><ele>1698.932</ele><time>2026-09-13T12:29:50Z</time><speed>1.810</speed><sat>36</sat></trkpt>
  <trkpt lat="38.53119125" lon="42.30773466"><ele>1699.614</ele><time>2026-09-13T12:29:51Z</time><speed>1.720</speed><sat>36</sat></trkpt>
  <trkpt lat="38.53119896" lon="42.30771756"><ele>1699.081</ele><time>2026-09-13T12:29:52Z</time><speed>1.680</speed><sat>36</sat></trkpt>
  <trkpt lat="38.53120551" lon="42.30769908"><ele>1698.674</ele><time>2026-09-13T12:29:53Z</time><speed>1.810</speed><sat>36</sat></trkpt>
  <trkpt lat="38.53120934" lon="42.30767997"><ele>1698.672</ele><time>2026-09-13T12:29:54Z</time><speed>1.740</speed><sat>36</sat></trkpt>
  <trkpt lat="38.53120845" lon="42.30766144"><ele>1698.484</ele><time>2026-09-13T12:29:55Z</time><speed>1.760</speed><sat>36</sat></trkpt>
  <trkpt lat="38.53120319" lon="42.30764526"><ele>1698.010</ele><time>2026-09-13T12:29:56Z</time><speed>1.640</speed><sat>36</sat></trkpt>
  <trkpt lat="38.53119587" lon="42.30762979"><ele>1697.806</ele><time>2026-09-13T12:29:57Z</time><speed>1.690</speed><sat>36</sat></trkpt>
  <trkpt lat="38.53118809" lon="42.30761398"><ele>1697.877</ele><time>2026-09-13T12:29:58Z</time><speed>1.690</speed><sat>36</sat></trkpt>
  <trkpt lat="38.53118007" lon="42.30759649"><ele>1697.762</ele><time>2026-09-13T12:29:59Z</time><speed>1.790</speed><sat>36</sat></trkpt>
  <trkpt lat="38.53117206" lon="42.30757762"><ele>1697.823</ele><time>2026-09-13T12:30:00Z</time><speed>1.830</speed><sat>36</sat></trkpt>
  <trkpt lat="38.53116232" lon="42.30755921"><ele>1697.246</ele><time>2026-09-13T12:30:01Z</time><speed>1.880</speed><sat>36</sat></trkpt>
  <trkpt lat="38.53115239" lon="42.30754121"><ele>1696.741</ele><time>2026-09-13T12:30:02Z</time><speed>1.870</speed><sat>36</sat></trkpt>
  <trkpt lat="38.53114392" lon="42.30752358"><ele>1696.702</ele><time>2026-09-13T12:30:03Z</time><speed>1.860</speed><sat>36</sat></trkpt>
  <trkpt lat="38.53113603" lon="42.30750618"><ele>1696.249</ele><time>2026-09-13T12:30:04Z</time><speed>1.830</speed><sat>36</sat></trkpt>
  <trkpt lat="38.53112987" lon="42.30748746"><ele>1696.197</ele><time>2026-09-13T12:30:05Z</time><speed>1.880</speed><sat>36</sat></trkpt>
  <trkpt lat="38.53112338" lon="42.30746778"><ele>1696.406</ele><time>2026-09-13T12:30:06Z</time><speed>1.930</speed><sat>36</sat></trkpt>
  <trkpt lat="38.53111732" lon="42.30745070"><ele>1696.134</ele><time>2026-09-13T12:30:07Z</time><speed>1.650</speed><sat>36</sat></trkpt>
  <trkpt lat="38.53111056" lon="42.30743520"><ele>1696.244</ele><time>2026-09-13T12:30:08Z</time><speed>1.700</speed><sat>36</sat></trkpt>
  <trkpt lat="38.53110246" lon="42.30741935"><ele>1696.224</ele><time>2026-09-13T12:30:09Z</time><speed>1.730</speed><sat>36</sat></trkpt>
  <trkpt lat="38.53109301" lon="42.30740425"><ele>1696.054</ele><time>2026-09-13T12:30:10Z</time><speed>1.710</speed><sat>35</sat></trkpt>
  <trkpt lat="38.53108573" lon="42.30739172"><ele>1695.713</ele><time>2026-09-13T12:30:11Z</time><speed>1.190</speed><sat>35</sat></trkpt>
  <trkpt lat="38.53107988" lon="42.30737828"><ele>1695.685</ele><time>2026-09-13T12:30:12Z</time><speed>1.580</speed><sat>35</sat></trkpt>
  <trkpt lat="38.53107216" lon="42.30736212"><ele>1696.126</ele><time>2026-09-13T12:30:13Z</time><speed>1.820</speed><sat>35</sat></trkpt>
  <trkpt lat="38.53106351" lon="42.30734529"><ele>1695.841</ele><time>2026-09-13T12:30:14Z</time><speed>1.780</speed><sat>35</sat></trkpt>
  <trkpt lat="38.53105372" lon="42.30732901"><ele>1695.728</ele><time>2026-09-13T12:30:15Z</time><speed>1.820</speed><sat>35</sat></trkpt>
  <trkpt lat="38.53104435" lon="42.30731556"><ele>1695.764</ele><time>2026-09-13T12:30:16Z</time><speed>1.510</speed><sat>35</sat></trkpt>
  <trkpt lat="38.53103660" lon="42.30730363"><ele>1696.050</ele><time>2026-09-13T12:30:17Z</time><speed>1.380</speed><sat>35</sat></trkpt>
  <trkpt lat="38.53102780" lon="42.30729050"><ele>1696.199</ele><time>2026-09-13T12:30:18Z</time><speed>1.750</speed><sat>35</sat></trkpt>
  <trkpt lat="38.53101897" lon="42.30727542"><ele>1696.172</ele><time>2026-09-13T12:30:19Z</time><speed>1.710</speed><sat>35</sat></trkpt>
  <trkpt lat="38.53101164" lon="42.30726019"><ele>1696.000</ele><time>2026-09-13T12:30:20Z</time><speed>1.570</speed><sat>35</sat></trkpt>
  <trkpt lat="38.53100515" lon="42.30724617"><ele>1695.742</ele><time>2026-09-13T12:30:21Z</time><speed>1.470</speed><sat>35</sat></trkpt>
  <trkpt lat="38.53099859" lon="42.30723248"><ele>1695.727</ele><time>2026-09-13T12:30:22Z</time><speed>1.490</speed><sat>35</sat></trkpt>
  <trkpt lat="38.53099159" lon="42.30721860"><ele>1695.682</ele><time>2026-09-13T12:30:23Z</time><speed>1.530</speed><sat>35</sat></trkpt>
  <trkpt lat="38.53098339" lon="42.30720455"><ele>1695.602</ele><time>2026-09-13T12:30:24Z</time><speed>1.540</speed><sat>35</sat></trkpt>
  <trkpt lat="38.53097546" lon="42.30719130"><ele>1695.514</ele><time>2026-09-13T12:30:25Z</time><speed>1.390</speed><sat>34</sat></trkpt>
  <trkpt lat="38.53096705" lon="42.30717688"><ele>1695.328</ele><time>2026-09-13T12:30:26Z</time><speed>1.640</speed><sat>34</sat></trkpt>
  <trkpt lat="38.53095711" lon="42.30715997"><ele>1695.739</ele><time>2026-09-13T12:30:27Z</time><speed>1.890</speed><sat>34</sat></trkpt>
  <trkpt lat="38.53094830" lon="42.30714329"><ele>1695.906</ele><time>2026-09-13T12:30:28Z</time><speed>1.590</speed><sat>33</sat></trkpt>
  <trkpt lat="38.53094097" lon="42.30712752"><ele>1695.628</ele><time>2026-09-13T12:30:29Z</time><speed>1.570</speed><sat>33</sat></trkpt>
  <trkpt lat="38.53093391" lon="42.30711182"><ele>1695.662</ele><time>2026-09-13T12:30:30Z</time><speed>1.610</speed><sat>33</sat></trkpt>
  <trkpt lat="38.53092687" lon="42.30709582"><ele>1695.932</ele><time>2026-09-13T12:30:31Z</time><speed>1.580</speed><sat>33</sat></trkpt>
  <trkpt lat="38.53091926" lon="42.30707951"><ele>1695.894</ele><time>2026-09-13T12:30:32Z</time><speed>1.650</speed><sat>33</sat></trkpt>
  <trkpt lat="38.53091150" lon="42.30706366"><ele>1695.627</ele><time>2026-09-13T12:30:33Z</time><speed>1.580</speed><sat>33</sat></trkpt>
  <trkpt lat="38.53090376" lon="42.30704770"><ele>1695.331</ele><time>2026-09-13T12:30:34Z</time><speed>1.600</speed><sat>33</sat></trkpt>
  <trkpt lat="38.53089668" lon="42.30703188"><ele>1695.553</ele><time>2026-09-13T12:30:35Z</time><speed>1.600</speed><sat>33</sat></trkpt>
  <trkpt lat="38.53088893" lon="42.30701699"><ele>1695.840</ele><time>2026-09-13T12:30:36Z</time><speed>1.540</speed><sat>33</sat></trkpt>
  <trkpt lat="38.53087922" lon="42.30700470"><ele>1695.462</ele><time>2026-09-13T12:30:37Z</time><speed>1.580</speed><sat>32</sat></trkpt>
  <trkpt lat="38.53086758" lon="42.30699153"><ele>1695.513</ele><time>2026-09-13T12:30:38Z</time><speed>1.840</speed><sat>32</sat></trkpt>
  <trkpt lat="38.53085710" lon="42.30697773"><ele>1695.601</ele><time>2026-09-13T12:30:39Z</time><speed>1.560</speed><sat>32</sat></trkpt>
  <trkpt lat="38.53084932" lon="42.30696280"><ele>1695.472</ele><time>2026-09-13T12:30:40Z</time><speed>1.570</speed><sat>32</sat></trkpt>
  <trkpt lat="38.53084239" lon="42.30694640"><ele>1695.710</ele><time>2026-09-13T12:30:41Z</time><speed>1.650</speed><sat>32</sat></trkpt>
  <trkpt lat="38.53083513" lon="42.30692989"><ele>1695.639</ele><time>2026-09-13T12:30:42Z</time><speed>1.640</speed><sat>32</sat></trkpt>
  <trkpt lat="38.53082748" lon="42.30691343"><ele>1695.788</ele><time>2026-09-13T12:30:43Z</time><speed>1.680</speed><sat>32</sat></trkpt>
  <trkpt lat="38.53081971" lon="42.30689651"><ele>1695.756</ele><time>2026-09-13T12:30:44Z</time><speed>1.710</speed><sat>32</sat></trkpt>
  <trkpt lat="38.53081150" lon="42.30687906"><ele>1695.570</ele><time>2026-09-13T12:30:45Z</time><speed>1.670</speed><sat>30</sat></trkpt>
  <trkpt lat="38.53080353" lon="42.30686232"><ele>1695.475</ele><time>2026-09-13T12:30:46Z</time><speed>1.670</speed><sat>29</sat></trkpt>
  <trkpt lat="38.53079515" lon="42.30684585"><ele>1695.525</ele><time>2026-09-13T12:30:47Z</time><speed>1.690</speed><sat>29</sat></trkpt>
  <trkpt lat="38.53078658" lon="42.30683003"><ele>1695.388</ele><time>2026-09-13T12:30:48Z</time><speed>1.640</speed><sat>29</sat></trkpt>
  <trkpt lat="38.53077773" lon="42.30681429"><ele>1695.728</ele><time>2026-09-13T12:30:49Z</time><speed>1.710</speed><sat>29</sat></trkpt>
  <trkpt lat="38.53076732" lon="42.30679941"><ele>1695.484</ele><time>2026-09-13T12:30:50Z</time><speed>1.700</speed><sat>29</sat></trkpt>
  <trkpt lat="38.53075591" lon="42.30678516"><ele>1695.450</ele><time>2026-09-13T12:30:51Z</time><speed>1.760</speed><sat>29</sat></trkpt>
  <trkpt lat="38.53074440" lon="42.30677176"><ele>1695.685</ele><time>2026-09-13T12:30:52Z</time><speed>1.690</speed><sat>29</sat></trkpt>
  <trkpt lat="38.53073350" lon="42.30675815"><ele>1695.663</ele><time>2026-09-13T12:30:53Z</time><speed>1.690</speed><sat>28</sat></trkpt>
  <trkpt lat="38.53072313" lon="42.30674373"><ele>1695.720</ele><time>2026-09-13T12:30:54Z</time><speed>1.760</speed><sat>28</sat></trkpt>
  <trkpt lat="38.53071270" lon="42.30672846"><ele>1696.104</ele><time>2026-09-13T12:30:55Z</time><speed>1.810</speed><sat>29</sat></trkpt>
  <trkpt lat="38.53070238" lon="42.30671397"><ele>1696.300</ele><time>2026-09-13T12:30:56Z</time><speed>1.700</speed><sat>29</sat></trkpt>
  <trkpt lat="38.53069137" lon="42.30670006"><ele>1696.273</ele><time>2026-09-13T12:30:57Z</time><speed>1.750</speed><sat>30</sat></trkpt>
  <trkpt lat="38.53068028" lon="42.30668664"><ele>1696.509</ele><time>2026-09-13T12:30:58Z</time><speed>1.710</speed><sat>30</sat></trkpt>
  <trkpt lat="38.53066958" lon="42.30667298"><ele>1696.557</ele><time>2026-09-13T12:30:59Z</time><speed>1.740</speed><sat>31</sat></trkpt>
  <trkpt lat="38.53065907" lon="42.30665937"><ele>1696.448</ele><time>2026-09-13T12:31:00Z</time><speed>1.690</speed><sat>32</sat></trkpt>
  <trkpt lat="38.53064874" lon="42.30664553"><ele>1695.948</ele><time>2026-09-13T12:31:01Z</time><speed>1.710</speed><sat>32</sat></trkpt>
  <trkpt lat="38.53063867" lon="42.30663261"><ele>1695.666</ele><time>2026-09-13T12:31:02Z</time><speed>1.710</speed><sat>32</sat></trkpt>
  <trkpt lat="38.53062864" lon="42.30661951"><ele>1695.282</ele><time>2026-09-13T12:31:03Z</time><speed>1.720</speed><sat>32</sat></trkpt>
  <trkpt lat="38.53061980" lon="42.30660567"><ele>1695.017</ele><time>2026-09-13T12:31:04Z</time><speed>1.650</speed><sat>32</sat></trkpt>
  <trkpt lat="38.53061213" lon="42.30659207"><ele>1695.228</ele><time>2026-09-13T12:31:05Z</time><speed>1.550</speed><sat>32</sat></trkpt>
  <trkpt lat="38.53060454" lon="42.30657819"><ele>1695.157</ele><time>2026-09-13T12:31:06Z</time><speed>1.620</speed><sat>32</sat></trkpt>
  <trkpt lat="38.53059641" lon="42.30656416"><ele>1694.847</ele><time>2026-09-13T12:31:07Z</time><speed>1.630</speed><sat>32</sat></trkpt>
  <trkpt lat="38.53058803" lon="42.30654937"><ele>1694.844</ele><time>2026-09-13T12:31:08Z</time><speed>1.710</speed><sat>33</sat></trkpt>
  <trkpt lat="38.53057997" lon="42.30653438"><ele>1694.960</ele><time>2026-09-13T12:31:09Z</time><speed>1.600</speed><sat>33</sat></trkpt>
  <trkpt lat="38.53057242" lon="42.30651888"><ele>1694.874</ele><time>2026-09-13T12:31:10Z</time><speed>1.650</speed><sat>33</sat></trkpt>
  <trkpt lat="38.53056428" lon="42.30650307"><ele>1694.458</ele><time>2026-09-13T12:31:11Z</time><speed>1.660</speed><sat>33</sat></trkpt>
  <trkpt lat="38.53055557" lon="42.30648792"><ele>1694.600</ele><time>2026-09-13T12:31:12Z</time><speed>1.650</speed><sat>33</sat></trkpt>
  <trkpt lat="38.53054778" lon="42.30647586"><ele>1693.350</ele><time>2026-09-13T12:31:13Z</time><speed>1.410</speed><sat>33</sat></trkpt>
  <trkpt lat="38.53053906" lon="42.30646405"><ele>1693.330</ele><time>2026-09-13T12:31:14Z</time><speed>1.540</speed><sat>33</sat></trkpt>
  <trkpt lat="38.53052934" lon="42.30645120"><ele>1693.397</ele><time>2026-09-13T12:31:15Z</time><speed>1.540</speed><sat>33</sat></trkpt>
  <trkpt lat="38.53051945" lon="42.30643758"><ele>1693.440</ele><time>2026-09-13T12:31:16Z</time><speed>1.610</speed><sat>33</sat></trkpt>
  <trkpt lat="38.53051030" lon="42.30642379"><ele>1693.377</ele><time>2026-09-13T12:31:17Z</time><speed>1.510</speed><sat>33</sat></trkpt>
  <trkpt lat="38.53050106" lon="42.30640894"><ele>1693.744</ele><time>2026-09-13T12:31:18Z</time><speed>1.580</speed><sat>33</sat></trkpt>
  <trkpt lat="38.53049096" lon="42.30639383"><ele>1693.669</ele><time>2026-09-13T12:31:19Z</time><speed>1.590</speed><sat>33</sat></trkpt>
  <trkpt lat="38.53048161" lon="42.30637864"><ele>1693.813</ele><time>2026-09-13T12:31:20Z</time><speed>1.580</speed><sat>33</sat></trkpt>
  <trkpt lat="38.53047203" lon="42.30636353"><ele>1693.414</ele><time>2026-09-13T12:31:21Z</time><speed>1.590</speed><sat>33</sat></trkpt>
  <trkpt lat="38.53046198" lon="42.30634793"><ele>1693.669</ele><time>2026-09-13T12:31:22Z</time><speed>1.650</speed><sat>33</sat></trkpt>
  <trkpt lat="38.53045199" lon="42.30633267"><ele>1694.101</ele><time>2026-09-13T12:31:23Z</time><speed>1.580</speed><sat>33</sat></trkpt>
  <trkpt lat="38.53044116" lon="42.30631652"><ele>1694.987</ele><time>2026-09-13T12:31:24Z</time><speed>1.850</speed><sat>32</sat></trkpt>
  <trkpt lat="38.53042941" lon="42.30629764"><ele>1695.465</ele><time>2026-09-13T12:31:25Z</time><speed>2.160</speed><sat>33</sat></trkpt>
  <trkpt lat="38.53041749" lon="42.30627794"><ele>1696.133</ele><time>2026-09-13T12:31:26Z</time><speed>2.060</speed><sat>33</sat></trkpt>
  <trkpt lat="38.53040512" lon="42.30625920"><ele>1696.588</ele><time>2026-09-13T12:31:27Z</time><speed>2.000</speed><sat>34</sat></trkpt>
  <trkpt lat="38.53039174" lon="42.30624342"><ele>1696.648</ele><time>2026-09-13T12:31:28Z</time><speed>1.960</speed><sat>34</sat></trkpt>
  <trkpt lat="38.53037813" lon="42.30623012"><ele>1696.515</ele><time>2026-09-13T12:31:29Z</time><speed>1.810</speed><sat>34</sat></trkpt>
  <trkpt lat="38.53036569" lon="42.30621774"><ele>1696.417</ele><time>2026-09-13T12:31:30Z</time><speed>1.740</speed><sat>34</sat></trkpt>
  <trkpt lat="38.53035444" lon="42.30620498"><ele>1695.940</ele><time>2026-09-13T12:31:31Z</time><speed>1.760</speed><sat>34</sat></trkpt>
  <trkpt lat="38.53034514" lon="42.30619272"><ele>1695.483</ele><time>2026-09-13T12:31:32Z</time><speed>1.600</speed><sat>34</sat></trkpt>
  <trkpt lat="38.53033615" lon="42.30618143"><ele>1695.565</ele><time>2026-09-13T12:31:33Z</time><speed>1.560</speed><sat>34</sat></trkpt>
  <trkpt lat="38.53032763" lon="42.30616964"><ele>1695.542</ele><time>2026-09-13T12:31:34Z</time><speed>1.590</speed><sat>34</sat></trkpt>
  <trkpt lat="38.53031778" lon="42.30615746"><ele>1695.586</ele><time>2026-09-13T12:31:35Z</time><speed>1.660</speed><sat>34</sat></trkpt>
  <trkpt lat="38.53030854" lon="42.30614550"><ele>1694.911</ele><time>2026-09-13T12:31:36Z</time><speed>1.590</speed><sat>34</sat></trkpt>
  <trkpt lat="38.53029920" lon="42.30613323"><ele>1694.368</ele><time>2026-09-13T12:31:37Z</time><speed>1.680</speed><sat>34</sat></trkpt>
  <trkpt lat="38.53028917" lon="42.30611847"><ele>1694.389</ele><time>2026-09-13T12:31:38Z</time><speed>1.820</speed><sat>34</sat></trkpt>
  <trkpt lat="38.53027911" lon="42.30610285"><ele>1694.246</ele><time>2026-09-13T12:31:39Z</time><speed>1.780</speed><sat>34</sat></trkpt>
  <trkpt lat="38.53026903" lon="42.30608785"><ele>1693.820</ele><time>2026-09-13T12:31:40Z</time><speed>1.710</speed><sat>34</sat></trkpt>
  <trkpt lat="38.53025870" lon="42.30607385"><ele>1693.431</ele><time>2026-09-13T12:31:41Z</time><speed>1.700</speed><sat>33</sat></trkpt>
  <trkpt lat="38.53024845" lon="42.30605962"><ele>1693.689</ele><time>2026-09-13T12:31:42Z</time><speed>1.700</speed><sat>33</sat></trkpt>
  <trkpt lat="38.53023781" lon="42.30604683"><ele>1694.039</ele><time>2026-09-13T12:31:43Z</time><speed>1.650</speed><sat>33</sat></trkpt>
  <trkpt lat="38.53022838" lon="42.30603447"><ele>1694.786</ele><time>2026-09-13T12:31:44Z</time><speed>1.440</speed><sat>34</sat></trkpt>
  <trkpt lat="38.53022026" lon="42.30602087"><ele>1694.511</ele><time>2026-09-13T12:31:45Z</time><speed>1.620</speed><sat>34</sat></trkpt>
  <trkpt lat="38.53021298" lon="42.30600635"><ele>1694.427</ele><time>2026-09-13T12:31:46Z</time><speed>1.410</speed><sat>34</sat></trkpt>
  <trkpt lat="38.53020657" lon="42.30599171"><ele>1694.463</ele><time>2026-09-13T12:31:47Z</time><speed>1.490</speed><sat>34</sat></trkpt>
  <trkpt lat="38.53019926" lon="42.30597867"><ele>1694.284</ele><time>2026-09-13T12:31:48Z</time><speed>1.480</speed><sat>34</sat></trkpt>
  <trkpt lat="38.53019130" lon="42.30596487"><ele>1694.533</ele><time>2026-09-13T12:31:49Z</time><speed>1.450</speed><sat>34</sat></trkpt>
  <trkpt lat="38.53018334" lon="42.30595218"><ele>1693.415</ele><time>2026-09-13T12:31:50Z</time><speed>1.300</speed><sat>34</sat></trkpt>
  <trkpt lat="38.53017490" lon="42.30593997"><ele>1693.766</ele><time>2026-09-13T12:31:51Z</time><speed>1.360</speed><sat>34</sat></trkpt>
  <trkpt lat="38.53016530" lon="42.30592777"><ele>1693.308</ele><time>2026-09-13T12:31:52Z</time><speed>1.400</speed><sat>33</sat></trkpt>
  <trkpt lat="38.53015374" lon="42.30591642"><ele>1693.130</ele><time>2026-09-13T12:31:53Z</time><speed>1.500</speed><sat>34</sat></trkpt>
  <trkpt lat="38.53014192" lon="42.30590537"><ele>1692.570</ele><time>2026-09-13T12:31:54Z</time><speed>1.460</speed><sat>34</sat></trkpt>
  <trkpt lat="38.53013090" lon="42.30589175"><ele>1692.886</ele><time>2026-09-13T12:31:55Z</time><speed>1.460</speed><sat>33</sat></trkpt>
  <trkpt lat="38.53012023" lon="42.30587633"><ele>1692.986</ele><time>2026-09-13T12:31:56Z</time><speed>1.580</speed><sat>34</sat></trkpt>
  <trkpt lat="38.53010945" lon="42.30585948"><ele>1692.938</ele><time>2026-09-13T12:31:57Z</time><speed>1.650</speed><sat>34</sat></trkpt>
  <trkpt lat="38.53009860" lon="42.30584289"><ele>1693.389</ele><time>2026-09-13T12:31:58Z</time><speed>1.630</speed><sat>33</sat></trkpt>
  <trkpt lat="38.53008753" lon="42.30582511"><ele>1693.509</ele><time>2026-09-13T12:31:59Z</time><speed>1.910</speed><sat>32</sat></trkpt>
  <trkpt lat="38.53007620" lon="42.30580771"><ele>1694.036</ele><time>2026-09-13T12:32:00Z</time><speed>1.800</speed><sat>32</sat></trkpt>
  <trkpt lat="38.53006476" lon="42.30578911"><ele>1693.969</ele><time>2026-09-13T12:32:01Z</time><speed>2.030</speed><sat>32</sat></trkpt>
  <trkpt lat="38.53005369" lon="42.30577029"><ele>1694.009</ele><time>2026-09-13T12:32:02Z</time><speed>1.960</speed><sat>32</sat></trkpt>
  <trkpt lat="38.53004099" lon="42.30574874"><ele>1694.004</ele><time>2026-09-13T12:32:03Z</time><speed>2.590</speed><sat>32</sat></trkpt>
  <trkpt lat="38.53002673" lon="42.30572612"><ele>1693.926</ele><time>2026-09-13T12:32:04Z</time><speed>2.520</speed><sat>32</sat></trkpt>
  <trkpt lat="38.53001556" lon="42.30570855"><ele>1693.535</ele><time>2026-09-13T12:32:05Z</time><speed>1.900</speed><sat>32</sat></trkpt>
  <trkpt lat="38.53000505" lon="42.30569683"><ele>1693.555</ele><time>2026-09-13T12:32:06Z</time><speed>1.820</speed><sat>33</sat></trkpt>
  <trkpt lat="38.52999355" lon="42.30569006"><ele>1693.722</ele><time>2026-09-13T12:32:07Z</time><speed>1.680</speed><sat>33</sat></trkpt>
  <trkpt lat="38.52998335" lon="42.30568285"><ele>1693.555</ele><time>2026-09-13T12:32:08Z</time><speed>1.580</speed><sat>33</sat></trkpt>
  <trkpt lat="38.52997484" lon="42.30567418"><ele>1693.491</ele><time>2026-09-13T12:32:09Z</time><speed>1.530</speed><sat>33</sat></trkpt>
  <trkpt lat="38.52997033" lon="42.30566306"><ele>1693.476</ele><time>2026-09-13T12:32:10Z</time><speed>1.290</speed><sat>33</sat></trkpt>
  <trkpt lat="38.52996590" lon="42.30565130"><ele>1693.628</ele><time>2026-09-13T12:32:11Z</time><speed>1.380</speed><sat>33</sat></trkpt>
  <trkpt lat="38.52995972" lon="42.30563950"><ele>1693.331</ele><time>2026-09-13T12:32:12Z</time><speed>1.410</speed><sat>33</sat></trkpt>
  <trkpt lat="38.52995326" lon="42.30562710"><ele>1693.969</ele><time>2026-09-13T12:32:13Z</time><speed>1.430</speed><sat>32</sat></trkpt>
  <trkpt lat="38.52994542" lon="42.30561298"><ele>1693.905</ele><time>2026-09-13T12:32:14Z</time><speed>1.640</speed><sat>32</sat></trkpt>
  <trkpt lat="38.52993665" lon="42.30559972"><ele>1694.009</ele><time>2026-09-13T12:32:15Z</time><speed>1.470</speed><sat>33</sat></trkpt>
  <trkpt lat="38.52992763" lon="42.30558772"><ele>1694.021</ele><time>2026-09-13T12:32:16Z</time><speed>1.470</speed><sat>33</sat></trkpt>
  <trkpt lat="38.52991768" lon="42.30557431"><ele>1694.497</ele><time>2026-09-13T12:32:17Z</time><speed>1.550</speed><sat>33</sat></trkpt>
  <trkpt lat="38.52990837" lon="42.30556003"><ele>1694.172</ele><time>2026-09-13T12:32:18Z</time><speed>1.550</speed><sat>33</sat></trkpt>
  <trkpt lat="38.52989863" lon="42.30554466"><ele>1694.709</ele><time>2026-09-13T12:32:19Z</time><speed>1.730</speed><sat>33</sat></trkpt>
  <trkpt lat="38.52988885" lon="42.30552920"><ele>1694.870</ele><time>2026-09-13T12:32:20Z</time><speed>1.630</speed><sat>33</sat></trkpt>
  <trkpt lat="38.52987944" lon="42.30551525"><ele>1694.416</ele><time>2026-09-13T12:32:21Z</time><speed>1.570</speed><sat>32</sat></trkpt>
  <trkpt lat="38.52986978" lon="42.30550161"><ele>1693.806</ele><time>2026-09-13T12:32:22Z</time><speed>1.560</speed><sat>32</sat></trkpt>
  <trkpt lat="38.52986023" lon="42.30548753"><ele>1694.050</ele><time>2026-09-13T12:32:23Z</time><speed>1.610</speed><sat>32</sat></trkpt>
  <trkpt lat="38.52985058" lon="42.30547319"><ele>1694.220</ele><time>2026-09-13T12:32:24Z</time><speed>1.620</speed><sat>31</sat></trkpt>
  <trkpt lat="38.52984151" lon="42.30545889"><ele>1694.557</ele><time>2026-09-13T12:32:25Z</time><speed>1.590</speed><sat>31</sat></trkpt>
  <trkpt lat="38.52983293" lon="42.30544386"><ele>1694.116</ele><time>2026-09-13T12:32:26Z</time><speed>1.590</speed><sat>31</sat></trkpt>
  <trkpt lat="38.52982521" lon="42.30542968"><ele>1694.221</ele><time>2026-09-13T12:32:27Z</time><speed>1.420</speed><sat>31</sat></trkpt>
  <trkpt lat="38.52981692" lon="42.30541667"><ele>1694.563</ele><time>2026-09-13T12:32:28Z</time><speed>1.520</speed><sat>31</sat></trkpt>
  <trkpt lat="38.52980830" lon="42.30540345"><ele>1694.396</ele><time>2026-09-13T12:32:29Z</time><speed>1.450</speed><sat>30</sat></trkpt>
  <trkpt lat="38.52980037" lon="42.30538903"><ele>1694.186</ele><time>2026-09-13T12:32:30Z</time><speed>1.510</speed><sat>30</sat></trkpt>
  <trkpt lat="38.52979313" lon="42.30537546"><ele>1694.251</ele><time>2026-09-13T12:32:31Z</time><speed>1.390</speed><sat>30</sat></trkpt>
  <trkpt lat="38.52978574" lon="42.30536233"><ele>1694.270</ele><time>2026-09-13T12:32:32Z</time><speed>1.490</speed><sat>30</sat></trkpt>
  <trkpt lat="38.52977807" lon="42.30534908"><ele>1694.330</ele><time>2026-09-13T12:32:33Z</time><speed>1.470</speed><sat>30</sat></trkpt>
  <trkpt lat="38.52977008" lon="42.30533503"><ele>1694.331</ele><time>2026-09-13T12:32:34Z</time><speed>1.510</speed><sat>30</sat></trkpt>
  <trkpt lat="38.52976217" lon="42.30531984"><ele>1693.995</ele><time>2026-09-13T12:32:35Z</time><speed>1.550</speed><sat>31</sat></trkpt>
  <trkpt lat="38.52975214" lon="42.30530491"><ele>1694.595</ele><time>2026-09-13T12:32:36Z</time><speed>1.760</speed><sat>31</sat></trkpt>
  <trkpt lat="38.52973953" lon="42.30529162"><ele>1694.829</ele><time>2026-09-13T12:32:37Z</time><speed>1.780</speed><sat>31</sat></trkpt>
  <trkpt lat="38.52972806" lon="42.30528017"><ele>1694.184</ele><time>2026-09-13T12:32:38Z</time><speed>1.560</speed><sat>31</sat></trkpt>
  <trkpt lat="38.52971665" lon="42.30526651"><ele>1694.866</ele><time>2026-09-13T12:32:39Z</time><speed>1.850</speed><sat>31</sat></trkpt>
  <trkpt lat="38.52970596" lon="42.30525083"><ele>1694.671</ele><time>2026-09-13T12:32:40Z</time><speed>1.740</speed><sat>31</sat></trkpt>
  <trkpt lat="38.52969698" lon="42.30523440"><ele>1694.777</ele><time>2026-09-13T12:32:41Z</time><speed>1.700</speed><sat>30</sat></trkpt>
  <trkpt lat="38.52968917" lon="42.30521771"><ele>1694.925</ele><time>2026-09-13T12:32:42Z</time><speed>1.670</speed><sat>30</sat></trkpt>
  <trkpt lat="38.52968077" lon="42.30520081"><ele>1695.027</ele><time>2026-09-13T12:32:43Z</time><speed>1.710</speed><sat>30</sat></trkpt>
  <trkpt lat="38.52967188" lon="42.30518517"><ele>1695.204</ele><time>2026-09-13T12:32:44Z</time><speed>1.720</speed><sat>31</sat></trkpt>
  <trkpt lat="38.52966089" lon="42.30517205"><ele>1695.207</ele><time>2026-09-13T12:32:45Z</time><speed>1.750</speed><sat>31</sat></trkpt>
  <trkpt lat="38.52965414" lon="42.30516239"><ele>1694.702</ele><time>2026-09-13T12:32:46Z</time><speed>0.850</speed><sat>32</sat></trkpt>
  <trkpt lat="38.52965162" lon="42.30515536"><ele>1693.945</ele><time>2026-09-13T12:32:47Z</time><speed>0.810</speed><sat>32</sat></trkpt>
  <trkpt lat="38.52964769" lon="42.30514561"><ele>1693.227</ele><time>2026-09-13T12:32:48Z</time><speed>1.250</speed><sat>32</sat></trkpt>
  <trkpt lat="38.52963984" lon="42.30513102"><ele>1692.611</ele><time>2026-09-13T12:32:49Z</time><speed>1.600</speed><sat>33</sat></trkpt>
  <trkpt lat="38.52962981" lon="42.30511582"><ele>1693.467</ele><time>2026-09-13T12:32:50Z</time><speed>1.630</speed><sat>33</sat></trkpt>
  <trkpt lat="38.52961977" lon="42.30510345"><ele>1694.374</ele><time>2026-09-13T12:32:51Z</time><speed>1.420</speed><sat>29</sat></trkpt>
  <trkpt lat="38.52960928" lon="42.30508954"><ele>1693.770</ele><time>2026-09-13T12:32:52Z</time><speed>1.590</speed><sat>29</sat></trkpt>
  <trkpt lat="38.52959760" lon="42.30507468"><ele>1693.283</ele><time>2026-09-13T12:32:53Z</time><speed>1.640</speed><sat>30</sat></trkpt>
  <trkpt lat="38.52958695" lon="42.30505962"><ele>1692.721</ele><time>2026-09-13T12:32:54Z</time><speed>1.540</speed><sat>29</sat></trkpt>
  <trkpt lat="38.52957740" lon="42.30504305"><ele>1692.943</ele><time>2026-09-13T12:32:55Z</time><speed>1.590</speed><sat>29</sat></trkpt>
  <trkpt lat="38.52956850" lon="42.30502835"><ele>1693.067</ele><time>2026-09-13T12:32:56Z</time><speed>1.440</speed><sat>29</sat></trkpt>
  <trkpt lat="38.52955836" lon="42.30501595"><ele>1693.670</ele><time>2026-09-13T12:32:57Z</time><speed>1.650</speed><sat>28</sat></trkpt>
  <trkpt lat="38.52954735" lon="42.30500483"><ele>1692.922</ele><time>2026-09-13T12:32:58Z</time><speed>1.590</speed><sat>25</sat></trkpt>
  <trkpt lat="38.52953512" lon="42.30499242"><ele>1693.163</ele><time>2026-09-13T12:32:59Z</time><speed>1.680</speed><sat>24</sat></trkpt>
  <trkpt lat="38.52952575" lon="42.30498008"><ele>1693.555</ele><time>2026-09-13T12:33:00Z</time><speed>1.390</speed><sat>25</sat></trkpt>
  <trkpt lat="38.52951822" lon="42.30496652"><ele>1692.250</ele><time>2026-09-13T12:33:01Z</time><speed>1.410</speed><sat>26</sat></trkpt>
  <trkpt lat="38.52951227" lon="42.30495189"><ele>1692.729</ele><time>2026-09-13T12:33:02Z</time><speed>1.200</speed><sat>27</sat></trkpt>
  <trkpt lat="38.52950603" lon="42.30493740"><ele>1693.219</ele><time>2026-09-13T12:33:03Z</time><speed>1.470</speed><sat>28</sat></trkpt>
  <trkpt lat="38.52950225" lon="42.30491705"><ele>1691.863</ele><time>2026-09-13T12:33:04Z</time><speed>1.630</speed><sat>29</sat></trkpt>
  <trkpt lat="38.52949823" lon="42.30489578"><ele>1692.374</ele><time>2026-09-13T12:33:05Z</time><speed>1.540</speed><sat>31</sat></trkpt>
  <trkpt lat="38.52948933" lon="42.30487346"><ele>1692.590</ele><time>2026-09-13T12:33:06Z</time><speed>2.160</speed><sat>30</sat></trkpt>
  <trkpt lat="38.52947909" lon="42.30485466"><ele>1693.382</ele><time>2026-09-13T12:33:07Z</time><speed>1.500</speed><sat>29</sat></trkpt>
  <trkpt lat="38.52946936" lon="42.30483951"><ele>1693.760</ele><time>2026-09-13T12:33:08Z</time><speed>1.550</speed><sat>28</sat></trkpt>
  <trkpt lat="38.52946238" lon="42.30482738"><ele>1694.960</ele><time>2026-09-13T12:33:09Z</time><speed>1.150</speed><sat>29</sat></trkpt>
  <trkpt lat="38.52945478" lon="42.30481070"><ele>1693.179</ele><time>2026-09-13T12:33:10Z</time><speed>1.700</speed><sat>32</sat></trkpt>
  <trkpt lat="38.52944723" lon="42.30479319"><ele>1693.184</ele><time>2026-09-13T12:33:11Z</time><speed>1.380</speed><sat>33</sat></trkpt>
  <trkpt lat="38.52943925" lon="42.30477780"><ele>1693.459</ele><time>2026-09-13T12:33:12Z</time><speed>1.490</speed><sat>32</sat></trkpt>
  <trkpt lat="38.52943174" lon="42.30476209"><ele>1693.442</ele><time>2026-09-13T12:33:13Z</time><speed>1.550</speed><sat>31</sat></trkpt>
  <trkpt lat="38.52942096" lon="42.30474618"><ele>1692.876</ele><time>2026-09-13T12:33:14Z</time><speed>1.940</speed><sat>31</sat></trkpt>
  <trkpt lat="38.52940732" lon="42.30473143"><ele>1692.385</ele><time>2026-09-13T12:33:15Z</time><speed>1.950</speed><sat>28</sat></trkpt>
  <trkpt lat="38.52939262" lon="42.30471747"><ele>1691.741</ele><time>2026-09-13T12:33:16Z</time><speed>2.000</speed><sat>26</sat></trkpt>
  <trkpt lat="38.52937796" lon="42.30470107"><ele>1691.337</ele><time>2026-09-13T12:33:17Z</time><speed>2.260</speed><sat>25</sat></trkpt>
  <trkpt lat="38.52936157" lon="42.30468596"><ele>1691.829</ele><time>2026-09-13T12:33:18Z</time><speed>2.310</speed><sat>27</sat></trkpt>
  <trkpt lat="38.52934680" lon="42.30466900"><ele>1692.916</ele><time>2026-09-13T12:33:19Z</time><speed>2.340</speed><sat>28</sat></trkpt>
  <trkpt lat="38.52933135" lon="42.30465008"><ele>1693.506</ele><time>2026-09-13T12:33:20Z</time><speed>2.670</speed><sat>29</sat></trkpt>
  <trkpt lat="38.52931692" lon="42.30463185"><ele>1694.170</ele><time>2026-09-13T12:33:21Z</time><speed>2.300</speed><sat>29</sat></trkpt>
  <trkpt lat="38.52930326" lon="42.30461528"><ele>1694.942</ele><time>2026-09-13T12:33:22Z</time><speed>2.410</speed><sat>30</sat></trkpt>
  <trkpt lat="38.52928902" lon="42.30459937"><ele>1695.617</ele><time>2026-09-13T12:33:23Z</time><speed>2.260</speed><sat>31</sat></trkpt>
  <trkpt lat="38.52927478" lon="42.30458427"><ele>1695.324</ele><time>2026-09-13T12:33:24Z</time><speed>2.210</speed><sat>30</sat></trkpt>
  <trkpt lat="38.52926202" lon="42.30456947"><ele>1694.962</ele><time>2026-09-13T12:33:25Z</time><speed>2.000</speed><sat>29</sat></trkpt>
  <trkpt lat="38.52924948" lon="42.30455514"><ele>1694.762</ele><time>2026-09-13T12:33:26Z</time><speed>2.150</speed><sat>28</sat></trkpt>
  <trkpt lat="38.52923740" lon="42.30453740"><ele>1693.655</ele><time>2026-09-13T12:33:27Z</time><speed>2.320</speed><sat>28</sat></trkpt>
  <trkpt lat="38.52922627" lon="42.30451867"><ele>1693.984</ele><time>2026-09-13T12:33:28Z</time><speed>2.180</speed><sat>28</sat></trkpt>
  <trkpt lat="38.52921517" lon="42.30450286"><ele>1694.300</ele><time>2026-09-13T12:33:29Z</time><speed>2.090</speed><sat>25</sat></trkpt>
  <trkpt lat="38.52920544" lon="42.30448990"><ele>1694.586</ele><time>2026-09-13T12:33:30Z</time><speed>1.700</speed><sat>25</sat></trkpt>
  <trkpt lat="38.52919990" lon="42.30448493"><ele>1694.770</ele><time>2026-09-13T12:33:31Z</time><speed>0.530</speed><sat>25</sat></trkpt>
  <trkpt lat="38.52920085" lon="42.30448630"><ele>1695.152</ele><time>2026-09-13T12:33:32Z</time><speed>0.270</speed><sat>27</sat></trkpt>
  <trkpt lat="38.52920256" lon="42.30448883"><ele>1696.011</ele><time>2026-09-13T12:33:33Z</time><speed>0.000</speed><sat>28</sat></trkpt>
  <trkpt lat="38.52920554" lon="42.30449794"><ele>1696.826</ele><time>2026-09-13T12:33:34Z</time><speed>0.000</speed><sat>27</sat></trkpt>
  <trkpt lat="38.52919817" lon="42.30450952"><ele>1697.747</ele><time>2026-09-13T12:33:35Z</time><speed>1.610</speed><sat>27</sat></trkpt>
  <trkpt lat="38.52918379" lon="42.30452025"><ele>1698.962</ele><time>2026-09-13T12:33:36Z</time><speed>1.390</speed><sat>26</sat></trkpt>
  <trkpt lat="38.52917101" lon="42.30452910"><ele>1699.147</ele><time>2026-09-13T12:33:37Z</time><speed>1.450</speed><sat>29</sat></trkpt>
  <trkpt lat="38.52916506" lon="42.30453606"><ele>1700.013</ele><time>2026-09-13T12:33:38Z</time><speed>0.000</speed><sat>27</sat></trkpt>
  <trkpt lat="38.52915852" lon="42.30453714"><ele>1699.920</ele><time>2026-09-13T12:33:39Z</time><speed>0.000</speed><sat>26</sat></trkpt>
  <trkpt lat="38.52915072" lon="42.30454441"><ele>1699.343</ele><time>2026-09-13T12:33:40Z</time><speed>1.000</speed><sat>24</sat></trkpt>
  <trkpt lat="38.52914500" lon="42.30454770"><ele>1698.168</ele><time>2026-09-13T12:33:41Z</time><speed>0.690</speed><sat>24</sat></trkpt>
  <trkpt lat="38.52914002" lon="42.30454686"><ele>1698.381</ele><time>2026-09-13T12:33:42Z</time><speed>1.000</speed><sat>22</sat></trkpt>
  <trkpt lat="38.52913457" lon="42.30453973"><ele>1698.562</ele><time>2026-09-13T12:33:43Z</time><speed>1.080</speed><sat>24</sat></trkpt>
  <trkpt lat="38.52913321" lon="42.30453207"><ele>1697.937</ele><time>2026-09-13T12:33:44Z</time><speed>0.420</speed><sat>23</sat></trkpt>
  <trkpt lat="38.52913463" lon="42.30452857"><ele>1698.028</ele><time>2026-09-13T12:33:45Z</time><speed>0.310</speed><sat>23</sat></trkpt>
  <trkpt lat="38.52913401" lon="42.30453107"><ele>1698.069</ele><time>2026-09-13T12:33:46Z</time><speed>0.970</speed><sat>23</sat></trkpt>
  <trkpt lat="38.52913593" lon="42.30453634"><ele>1698.952</ele><time>2026-09-13T12:33:47Z</time><speed>0.360</speed><sat>22</sat></trkpt>
  <trkpt lat="38.52913966" lon="42.30454440"><ele>1698.502</ele><time>2026-09-13T12:33:48Z</time><speed>0.820</speed><sat>24</sat></trkpt>
  <trkpt lat="38.52913577" lon="42.30456129"><ele>1698.098</ele><time>2026-09-13T12:33:49Z</time><speed>2.030</speed><sat>22</sat></trkpt>
  <trkpt lat="38.52913946" lon="42.30455917"><ele>1697.644</ele><time>2026-09-13T12:33:50Z</time><speed>0.000</speed><sat>23</sat></trkpt>
  <trkpt lat="38.52914011" lon="42.30455307"><ele>1697.308</ele><time>2026-09-13T12:33:51Z</time><speed>0.000</speed><sat>23</sat></trkpt>
  <trkpt lat="38.52913981" lon="42.30455041"><ele>1697.059</ele><time>2026-09-13T12:33:52Z</time><speed>0.000</speed><sat>21</sat></trkpt>
  <trkpt lat="38.52914400" lon="42.30453375"><ele>1696.486</ele><time>2026-09-13T12:33:53Z</time><speed>0.000</speed><sat>19</sat></trkpt>
  <trkpt lat="38.52913631" lon="42.30449815"><ele>1696.380</ele><time>2026-09-13T12:33:54Z</time><speed>0.000</speed><sat>18</sat></trkpt>
  <trkpt lat="38.52908720" lon="42.30443556"><ele>1696.934</ele><time>2026-09-13T12:33:55Z</time><speed>6.350</speed><sat>18</sat></trkpt>
  <trkpt lat="38.52902682" lon="42.30435120"><ele>1696.296</ele><time>2026-09-13T12:33:56Z</time><speed>7.690</speed><sat>18</sat></trkpt>
  <trkpt lat="38.52897383" lon="42.30425522"><ele>1696.139</ele><time>2026-09-13T12:33:57Z</time><speed>8.600</speed><sat>21</sat></trkpt>
  <trkpt lat="38.52887898" lon="42.30393223"><ele>1693.567</ele><time>2026-09-13T12:33:58Z</time><speed>9.420</speed><sat>22</sat></trkpt>
  <trkpt lat="38.52879157" lon="42.30384131"><ele>1689.707</ele><time>2026-09-13T12:33:59Z</time><speed>9.300</speed><sat>23</sat></trkpt>
  <trkpt lat="38.52869607" lon="42.30373528"><ele>1686.911</ele><time>2026-09-13T12:34:00Z</time><speed>10.650</speed><sat>24</sat></trkpt>
  <trkpt lat="38.52864005" lon="42.30366357"><ele>1688.499</ele><time>2026-09-13T12:34:01Z</time><speed>9.940</speed><sat>12</sat></trkpt>
  <trkpt lat="38.52859591" lon="42.30358025"><ele>1689.228</ele><time>2026-09-13T12:34:02Z</time><speed>9.840</speed><sat>19</sat></trkpt>
  <trkpt lat="38.52855032" lon="42.30351348"><ele>1690.649</ele><time>2026-09-13T12:34:03Z</time><speed>9.560</speed><sat>23</sat></trkpt>
  <trkpt lat="38.52848864" lon="42.30344457"><ele>1691.551</ele><time>2026-09-13T12:34:04Z</time><speed>9.830</speed><sat>25</sat></trkpt>
  <trkpt lat="38.52842654" lon="42.30338736"><ele>1691.133</ele><time>2026-09-13T12:34:05Z</time><speed>9.640</speed><sat>26</sat></trkpt>
 </trkseg>
</trk>

</gpx>
 