<?xml version="1.0" encoding="UTF-8"?>
<!-- Created with BasicAirData GPS Logger for Android - ver. 3.3.0 -->
<!-- Track 52 = 653 TrackPoints + 0 Placemarks -->

<!-- Track Statistics (based on Total Time | Time in Movement): -->
<!--  Distance = 677 m -->
<!--  Duration = 10:52 | 07:43 -->
<!--  Altitude Gap = 1 m -->
<!--  Max Speed = 15 km/h -->
<!--  Avg Speed = 3.7 | 5.3 km/h -->
<!--  Direction = NNE -->
<!--  Activity = walking -->
<!--  Altitudes = Raw -->

<gpx version="1.0"
     creator="BasicAirData GPS Logger 3.3.0"
     xmlns="http://www.topografix.com/GPX/1/0"
     xmlns:xsi="http://www.w3.org/2001/XMLSchema-instance"
     xsi:schemaLocation="http://www.topografix.com/GPX/1/0 http://www.topografix.com/GPX/1/0/gpx.xsd">
<name>GPS Logger 20260926-152413</name>
<time>2026-09-28T18:27:35Z</time>
<keywords>walking</keywords>
<bounds minlat="37.02078117" minlon="35.34213553" maxlat="37.02552215" maxlon="35.34401678" />

<trk>
 <name>Track 20260926-152413</name>
 <trkseg>
  <trkpt lat="37.02078117" lon="35.34213553"><ele>64.214</ele><time>2026-09-26T12:24:13Z</time><speed>1.150</speed><sat>34</sat></trkpt>
  <trkpt lat="37.02079200" lon="35.34214383"><ele>64.086</ele><time>2026-09-26T12:24:14Z</time><speed>1.300</speed><sat>34</sat></trkpt>
  <trkpt lat="37.02080121" lon="35.34215240"><ele>63.807</ele><time>2026-09-26T12:24:15Z</time><speed>1.030</speed><sat>34</sat></trkpt>
  <trkpt lat="37.02081504" lon="35.34216282"><ele>63.480</ele><time>2026-09-26T12:24:16Z</time><speed>2.000</speed><sat>34</sat></trkpt>
  <trkpt lat="37.02082835" lon="35.34217196"><ele>63.467</ele><time>2026-09-26T12:24:17Z</time><speed>1.310</speed><sat>34</sat></trkpt>
  <trkpt lat="37.02083996" lon="35.34217832"><ele>63.173</ele><time>2026-09-26T12:24:18Z</time><speed>1.490</speed><sat>34</sat></trkpt>
  <trkpt lat="37.02084886" lon="35.34218313"><ele>63.229</ele><time>2026-09-26T12:24:19Z</time><speed>0.740</speed><sat>34</sat></trkpt>
  <trkpt lat="37.02085461" lon="35.34218625"><ele>62.979</ele><time>2026-09-26T12:24:20Z</time><speed>0.700</speed><sat>34</sat></trkpt>
  <trkpt lat="37.02086009" lon="35.34218816"><ele>63.174</ele><time>2026-09-26T12:24:21Z</time><speed>0.610</speed><sat>34</sat></trkpt>
  <trkpt lat="37.02087081" lon="35.34218868"><ele>64.623</ele><time>2026-09-26T12:24:22Z</time><speed>1.670</speed><sat>34</sat></trkpt>
  <trkpt lat="37.02088311" lon="35.34218916"><ele>64.969</ele><time>2026-09-26T12:24:23Z</time><speed>1.070</speed><sat>34</sat></trkpt>
  <trkpt lat="37.02089547" lon="35.34219609"><ele>65.013</ele><time>2026-09-26T12:24:24Z</time><speed>1.930</speed><sat>34</sat></trkpt>
  <trkpt lat="37.02090717" lon="35.34220822"><ele>65.601</ele><time>2026-09-26T12:24:25Z</time><speed>1.530</speed><sat>33</sat></trkpt>
  <trkpt lat="37.02091829" lon="35.34222314"><ele>65.414</ele><time>2026-09-26T12:24:26Z</time><speed>1.910</speed><sat>33</sat></trkpt>
  <trkpt lat="37.02092991" lon="35.34223554"><ele>64.804</ele><time>2026-09-26T12:24:27Z</time><speed>1.470</speed><sat>33</sat></trkpt>
  <trkpt lat="37.02093938" lon="35.34224278"><ele>64.271</ele><time>2026-09-26T12:24:28Z</time><speed>1.160</speed><sat>33</sat></trkpt>
  <trkpt lat="37.02094829" lon="35.34224732"><ele>64.466</ele><time>2026-09-26T12:24:29Z</time><speed>1.100</speed><sat>33</sat></trkpt>
  <trkpt lat="37.02095947" lon="35.34225243"><ele>64.320</ele><time>2026-09-26T12:24:30Z</time><speed>1.500</speed><sat>33</sat></trkpt>
  <trkpt lat="37.02097071" lon="35.34225702"><ele>64.330</ele><time>2026-09-26T12:24:31Z</time><speed>1.170</speed><sat>33</sat></trkpt>
  <trkpt lat="37.02098021" lon="35.34226145"><ele>63.404</ele><time>2026-09-26T12:24:32Z</time><speed>1.160</speed><sat>33</sat></trkpt>
  <trkpt lat="37.02099096" lon="35.34226509"><ele>63.577</ele><time>2026-09-26T12:24:33Z</time><speed>1.430</speed><sat>33</sat></trkpt>
  <trkpt lat="37.02100208" lon="35.34226906"><ele>63.580</ele><time>2026-09-26T12:24:34Z</time><speed>1.330</speed><sat>33</sat></trkpt>
  <trkpt lat="37.02100990" lon="35.34227059"><ele>63.099</ele><time>2026-09-26T12:24:35Z</time><speed>0.730</speed><sat>33</sat></trkpt>
  <trkpt lat="37.02101442" lon="35.34227225"><ele>62.801</ele><time>2026-09-26T12:24:36Z</time><speed>0.680</speed><sat>33</sat></trkpt>
  <trkpt lat="37.02102361" lon="35.34228182"><ele>63.624</ele><time>2026-09-26T12:24:37Z</time><speed>1.770</speed><sat>33</sat></trkpt>
  <trkpt lat="37.02103580" lon="35.34229270"><ele>63.514</ele><time>2026-09-26T12:24:38Z</time><speed>1.500</speed><sat>33</sat></trkpt>
  <trkpt lat="37.02104672" lon="35.34230130"><ele>63.260</ele><time>2026-09-26T12:24:39Z</time><speed>1.340</speed><sat>33</sat></trkpt>
  <trkpt lat="37.02105776" lon="35.34230697"><ele>63.693</ele><time>2026-09-26T12:24:40Z</time><speed>1.270</speed><sat>33</sat></trkpt>
  <trkpt lat="37.02106921" lon="35.34231034"><ele>64.020</ele><time>2026-09-26T12:24:41Z</time><speed>1.200</speed><sat>33</sat></trkpt>
  <trkpt lat="37.02107935" lon="35.34231514"><ele>64.225</ele><time>2026-09-26T12:24:42Z</time><speed>1.230</speed><sat>33</sat></trkpt>
  <trkpt lat="37.02109004" lon="35.34232254"><ele>63.675</ele><time>2026-09-26T12:24:43Z</time><speed>1.230</speed><sat>34</sat></trkpt>
  <trkpt lat="37.02110413" lon="35.34232541"><ele>63.845</ele><time>2026-09-26T12:24:44Z</time><speed>1.640</speed><sat>34</sat></trkpt>
  <trkpt lat="37.02111726" lon="35.34232710"><ele>63.364</ele><time>2026-09-26T12:24:45Z</time><speed>1.190</speed><sat>34</sat></trkpt>
  <trkpt lat="37.02112805" lon="35.34233039"><ele>62.859</ele><time>2026-09-26T12:24:46Z</time><speed>1.110</speed><sat>34</sat></trkpt>
  <trkpt lat="37.02113791" lon="35.34233537"><ele>62.911</ele><time>2026-09-26T12:24:47Z</time><speed>1.130</speed><sat>34</sat></trkpt>
  <trkpt lat="37.02114994" lon="35.34234024"><ele>62.567</ele><time>2026-09-26T12:24:48Z</time><speed>1.400</speed><sat>33</sat></trkpt>
  <trkpt lat="37.02116030" lon="35.34234578"><ele>61.800</ele><time>2026-09-26T12:24:49Z</time><speed>1.120</speed><sat>32</sat></trkpt>
  <trkpt lat="37.02117100" lon="35.34235096"><ele>60.965</ele><time>2026-09-26T12:24:50Z</time><speed>1.180</speed><sat>32</sat></trkpt>
  <trkpt lat="37.02118090" lon="35.34235546"><ele>59.868</ele><time>2026-09-26T12:24:51Z</time><speed>1.110</speed><sat>32</sat></trkpt>
  <trkpt lat="37.02119066" lon="35.34235877"><ele>59.942</ele><time>2026-09-26T12:24:52Z</time><speed>1.120</speed><sat>32</sat></trkpt>
  <trkpt lat="37.02120191" lon="35.34235893"><ele>59.421</ele><time>2026-09-26T12:24:53Z</time><speed>1.220</speed><sat>32</sat></trkpt>
  <trkpt lat="37.02121305" lon="35.34236076"><ele>59.522</ele><time>2026-09-26T12:24:54Z</time><speed>1.190</speed><sat>33</sat></trkpt>
  <trkpt lat="37.02122476" lon="35.34236503"><ele>59.294</ele><time>2026-09-26T12:24:55Z</time><speed>1.220</speed><sat>33</sat></trkpt>
  <trkpt lat="37.02123825" lon="35.34236848"><ele>57.953</ele><time>2026-09-26T12:24:56Z</time><speed>1.300</speed><sat>33</sat></trkpt>
  <trkpt lat="37.02125456" lon="35.34237573"><ele>56.457</ele><time>2026-09-26T12:24:57Z</time><speed>1.800</speed><sat>33</sat></trkpt>
  <trkpt lat="37.02127012" lon="35.34238341"><ele>56.336</ele><time>2026-09-26T12:24:58Z</time><speed>1.420</speed><sat>33</sat></trkpt>
  <trkpt lat="37.02128439" lon="35.34239335"><ele>56.359</ele><time>2026-09-26T12:24:59Z</time><speed>1.410</speed><sat>33</sat></trkpt>
  <trkpt lat="37.02129427" lon="35.34240273"><ele>56.759</ele><time>2026-09-26T12:25:00Z</time><speed>0.650</speed><sat>33</sat></trkpt>
  <trkpt lat="37.02130290" lon="35.34240923"><ele>56.128</ele><time>2026-09-26T12:25:01Z</time><speed>1.100</speed><sat>33</sat></trkpt>
  <trkpt lat="37.02131513" lon="35.34241419"><ele>56.292</ele><time>2026-09-26T12:25:02Z</time><speed>1.220</speed><sat>33</sat></trkpt>
  <trkpt lat="37.02132583" lon="35.34241950"><ele>56.697</ele><time>2026-09-26T12:25:03Z</time><speed>0.770</speed><sat>33</sat></trkpt>
  <trkpt lat="37.02133586" lon="35.34242663"><ele>56.954</ele><time>2026-09-26T12:25:04Z</time><speed>1.030</speed><sat>32</sat></trkpt>
  <trkpt lat="37.02134589" lon="35.34243398"><ele>57.252</ele><time>2026-09-26T12:25:05Z</time><speed>0.930</speed><sat>32</sat></trkpt>
  <trkpt lat="37.02135558" lon="35.34244179"><ele>57.884</ele><time>2026-09-26T12:25:06Z</time><speed>0.980</speed><sat>32</sat></trkpt>
  <trkpt lat="37.02136465" lon="35.34244695"><ele>57.258</ele><time>2026-09-26T12:25:07Z</time><speed>0.730</speed><sat>33</sat></trkpt>
  <trkpt lat="37.02137851" lon="35.34244739"><ele>58.111</ele><time>2026-09-26T12:25:08Z</time><speed>1.700</speed><sat>33</sat></trkpt>
  <trkpt lat="37.02139447" lon="35.34244409"><ele>58.994</ele><time>2026-09-26T12:25:09Z</time><speed>1.420</speed><sat>33</sat></trkpt>
  <trkpt lat="37.02140895" lon="35.34243917"><ele>59.682</ele><time>2026-09-26T12:25:10Z</time><speed>1.420</speed><sat>33</sat></trkpt>
  <trkpt lat="37.02142264" lon="35.34243467"><ele>59.743</ele><time>2026-09-26T12:25:11Z</time><speed>1.380</speed><sat>33</sat></trkpt>
  <trkpt lat="37.02143653" lon="35.34242913"><ele>60.276</ele><time>2026-09-26T12:25:12Z</time><speed>1.390</speed><sat>33</sat></trkpt>
  <trkpt lat="37.02145079" lon="35.34242400"><ele>60.526</ele><time>2026-09-26T12:25:13Z</time><speed>1.380</speed><sat>33</sat></trkpt>
  <trkpt lat="37.02146477" lon="35.34242026"><ele>60.462</ele><time>2026-09-26T12:25:14Z</time><speed>1.370</speed><sat>33</sat></trkpt>
  <trkpt lat="37.02147760" lon="35.34241735"><ele>60.837</ele><time>2026-09-26T12:25:15Z</time><speed>1.260</speed><sat>33</sat></trkpt>
  <trkpt lat="37.02148896" lon="35.34241436"><ele>59.556</ele><time>2026-09-26T12:25:16Z</time><speed>0.910</speed><sat>33</sat></trkpt>
  <trkpt lat="37.02150443" lon="35.34241373"><ele>58.605</ele><time>2026-09-26T12:25:17Z</time><speed>1.570</speed><sat>33</sat></trkpt>
  <trkpt lat="37.02152216" lon="35.34241243"><ele>58.696</ele><time>2026-09-26T12:25:18Z</time><speed>1.610</speed><sat>33</sat></trkpt>
  <trkpt lat="37.02153921" lon="35.34241211"><ele>58.318</ele><time>2026-09-26T12:25:19Z</time><speed>1.600</speed><sat>33</sat></trkpt>
  <trkpt lat="37.02155596" lon="35.34241406"><ele>58.600</ele><time>2026-09-26T12:25:20Z</time><speed>1.780</speed><sat>33</sat></trkpt>
  <trkpt lat="37.02157225" lon="35.34241585"><ele>59.431</ele><time>2026-09-26T12:25:21Z</time><speed>1.700</speed><sat>33</sat></trkpt>
  <trkpt lat="37.02158893" lon="35.34242090"><ele>60.248</ele><time>2026-09-26T12:25:22Z</time><speed>1.860</speed><sat>33</sat></trkpt>
  <trkpt lat="37.02160593" lon="35.34242754"><ele>59.773</ele><time>2026-09-26T12:25:23Z</time><speed>1.840</speed><sat>33</sat></trkpt>
  <trkpt lat="37.02162190" lon="35.34243557"><ele>60.078</ele><time>2026-09-26T12:25:24Z</time><speed>1.790</speed><sat>33</sat></trkpt>
  <trkpt lat="37.02163689" lon="35.34244373"><ele>60.430</ele><time>2026-09-26T12:25:25Z</time><speed>1.800</speed><sat>33</sat></trkpt>
  <trkpt lat="37.02165193" lon="35.34245118"><ele>60.632</ele><time>2026-09-26T12:25:26Z</time><speed>1.750</speed><sat>33</sat></trkpt>
  <trkpt lat="37.02166983" lon="35.34245745"><ele>60.800</ele><time>2026-09-26T12:25:27Z</time><speed>1.980</speed><sat>33</sat></trkpt>
  <trkpt lat="37.02168679" lon="35.34246355"><ele>60.794</ele><time>2026-09-26T12:25:28Z</time><speed>1.790</speed><sat>33</sat></trkpt>
  <trkpt lat="37.02170228" lon="35.34247125"><ele>60.773</ele><time>2026-09-26T12:25:29Z</time><speed>1.840</speed><sat>33</sat></trkpt>
  <trkpt lat="37.02171807" lon="35.34248129"><ele>60.907</ele><time>2026-09-26T12:25:30Z</time><speed>1.860</speed><sat>33</sat></trkpt>
  <trkpt lat="37.02173212" lon="35.34249125"><ele>61.412</ele><time>2026-09-26T12:25:31Z</time><speed>1.740</speed><sat>33</sat></trkpt>
  <trkpt lat="37.02174644" lon="35.34250041"><ele>60.919</ele><time>2026-09-26T12:25:32Z</time><speed>1.790</speed><sat>34</sat></trkpt>
  <trkpt lat="37.02176060" lon="35.34250568"><ele>59.858</ele><time>2026-09-26T12:25:33Z</time><speed>1.570</speed><sat>34</sat></trkpt>
  <trkpt lat="37.02177401" lon="35.34251028"><ele>60.135</ele><time>2026-09-26T12:25:34Z</time><speed>1.500</speed><sat>34</sat></trkpt>
  <trkpt lat="37.02178674" lon="35.34251499"><ele>60.010</ele><time>2026-09-26T12:25:35Z</time><speed>1.460</speed><sat>34</sat></trkpt>
  <trkpt lat="37.02180025" lon="35.34252326"><ele>59.404</ele><time>2026-09-26T12:25:36Z</time><speed>1.670</speed><sat>34</sat></trkpt>
  <trkpt lat="37.02181471" lon="35.34253268"><ele>58.712</ele><time>2026-09-26T12:25:37Z</time><speed>1.710</speed><sat>34</sat></trkpt>
  <trkpt lat="37.02183069" lon="35.34253811"><ele>58.858</ele><time>2026-09-26T12:25:38Z</time><speed>1.680</speed><sat>33</sat></trkpt>
  <trkpt lat="37.02184812" lon="35.34254193"><ele>58.175</ele><time>2026-09-26T12:25:39Z</time><speed>1.820</speed><sat>33</sat></trkpt>
  <trkpt lat="37.02186646" lon="35.34254542"><ele>58.583</ele><time>2026-09-26T12:25:40Z</time><speed>1.810</speed><sat>33</sat></trkpt>
  <trkpt lat="37.02188463" lon="35.34255072"><ele>58.758</ele><time>2026-09-26T12:25:41Z</time><speed>1.820</speed><sat>33</sat></trkpt>
  <trkpt lat="37.02190082" lon="35.34255853"><ele>59.843</ele><time>2026-09-26T12:25:42Z</time><speed>1.730</speed><sat>33</sat></trkpt>
  <trkpt lat="37.02191596" lon="35.34256560"><ele>60.511</ele><time>2026-09-26T12:25:43Z</time><speed>1.700</speed><sat>34</sat></trkpt>
  <trkpt lat="37.02192990" lon="35.34257070"><ele>60.395</ele><time>2026-09-26T12:25:44Z</time><speed>1.620</speed><sat>34</sat></trkpt>
  <trkpt lat="37.02194332" lon="35.34257325"><ele>60.478</ele><time>2026-09-26T12:25:45Z</time><speed>1.530</speed><sat>34</sat></trkpt>
  <trkpt lat="37.02195593" lon="35.34257520"><ele>61.501</ele><time>2026-09-26T12:25:46Z</time><speed>1.530</speed><sat>34</sat></trkpt>
  <trkpt lat="37.02196916" lon="35.34257687"><ele>60.944</ele><time>2026-09-26T12:25:47Z</time><speed>1.540</speed><sat>34</sat></trkpt>
  <trkpt lat="37.02197916" lon="35.34257956"><ele>61.986</ele><time>2026-09-26T12:25:48Z</time><speed>0.950</speed><sat>34</sat></trkpt>
  <trkpt lat="37.02198966" lon="35.34258464"><ele>61.774</ele><time>2026-09-26T12:25:49Z</time><speed>1.600</speed><sat>34</sat></trkpt>
  <trkpt lat="37.02200192" lon="35.34259165"><ele>62.825</ele><time>2026-09-26T12:25:50Z</time><speed>1.620</speed><sat>34</sat></trkpt>
  <trkpt lat="37.02201433" lon="35.34259893"><ele>62.846</ele><time>2026-09-26T12:25:51Z</time><speed>1.630</speed><sat>34</sat></trkpt>
  <trkpt lat="37.02202714" lon="35.34260603"><ele>62.746</ele><time>2026-09-26T12:25:52Z</time><speed>1.680</speed><sat>34</sat></trkpt>
  <trkpt lat="37.02204126" lon="35.34261449"><ele>63.196</ele><time>2026-09-26T12:25:53Z</time><speed>1.670</speed><sat>34</sat></trkpt>
  <trkpt lat="37.02205355" lon="35.34262598"><ele>64.000</ele><time>2026-09-26T12:25:54Z</time><speed>1.530</speed><sat>34</sat></trkpt>
  <trkpt lat="37.02206514" lon="35.34263754"><ele>64.142</ele><time>2026-09-26T12:25:55Z</time><speed>1.460</speed><sat>34</sat></trkpt>
  <trkpt lat="37.02207743" lon="35.34264823"><ele>63.651</ele><time>2026-09-26T12:25:56Z</time><speed>1.550</speed><sat>34</sat></trkpt>
  <trkpt lat="37.02208867" lon="35.34265584"><ele>63.817</ele><time>2026-09-26T12:25:57Z</time><speed>1.260</speed><sat>34</sat></trkpt>
  <trkpt lat="37.02210203" lon="35.34266237"><ele>62.885</ele><time>2026-09-26T12:25:58Z</time><speed>1.660</speed><sat>34</sat></trkpt>
  <trkpt lat="37.02211555" lon="35.34266717"><ele>63.198</ele><time>2026-09-26T12:25:59Z</time><speed>1.340</speed><sat>35</sat></trkpt>
  <trkpt lat="37.02212912" lon="35.34267101"><ele>62.891</ele><time>2026-09-26T12:26:00Z</time><speed>1.600</speed><sat>35</sat></trkpt>
  <trkpt lat="37.02214370" lon="35.34267624"><ele>63.080</ele><time>2026-09-26T12:26:01Z</time><speed>1.550</speed><sat>34</sat></trkpt>
  <trkpt lat="37.02215712" lon="35.34268196"><ele>63.756</ele><time>2026-09-26T12:26:02Z</time><speed>1.450</speed><sat>34</sat></trkpt>
  <trkpt lat="37.02216914" lon="35.34268984"><ele>63.801</ele><time>2026-09-26T12:26:03Z</time><speed>1.440</speed><sat>34</sat></trkpt>
  <trkpt lat="37.02218110" lon="35.34269797"><ele>64.170</ele><time>2026-09-26T12:26:04Z</time><speed>1.410</speed><sat>34</sat></trkpt>
  <trkpt lat="37.02219084" lon="35.34270481"><ele>64.238</ele><time>2026-09-26T12:26:05Z</time><speed>1.030</speed><sat>34</sat></trkpt>
  <trkpt lat="37.02220241" lon="35.34271261"><ele>64.982</ele><time>2026-09-26T12:26:06Z</time><speed>1.750</speed><sat>34</sat></trkpt>
  <trkpt lat="37.02221675" lon="35.34272111"><ele>64.556</ele><time>2026-09-26T12:26:07Z</time><speed>1.710</speed><sat>35</sat></trkpt>
  <trkpt lat="37.02222677" lon="35.34272865"><ele>64.817</ele><time>2026-09-26T12:26:08Z</time><speed>1.150</speed><sat>35</sat></trkpt>
  <trkpt lat="37.02223676" lon="35.34273563"><ele>64.019</ele><time>2026-09-26T12:26:09Z</time><speed>1.330</speed><sat>35</sat></trkpt>
  <trkpt lat="37.02224729" lon="35.34274180"><ele>63.149</ele><time>2026-09-26T12:26:10Z</time><speed>1.360</speed><sat>35</sat></trkpt>
  <trkpt lat="37.02225901" lon="35.34274737"><ele>61.869</ele><time>2026-09-26T12:26:11Z</time><speed>1.360</speed><sat>35</sat></trkpt>
  <trkpt lat="37.02226839" lon="35.34275099"><ele>60.685</ele><time>2026-09-26T12:26:12Z</time><speed>1.240</speed><sat>35</sat></trkpt>
  <trkpt lat="37.02228050" lon="35.34275107"><ele>60.759</ele><time>2026-09-26T12:26:13Z</time><speed>1.620</speed><sat>34</sat></trkpt>
  <trkpt lat="37.02229277" lon="35.34274583"><ele>60.093</ele><time>2026-09-26T12:26:14Z</time><speed>1.230</speed><sat>34</sat></trkpt>
  <trkpt lat="37.02230285" lon="35.34273910"><ele>60.885</ele><time>2026-09-26T12:26:15Z</time><speed>1.290</speed><sat>34</sat></trkpt>
  <trkpt lat="37.02231569" lon="35.34273374"><ele>60.894</ele><time>2026-09-26T12:26:16Z</time><speed>1.520</speed><sat>34</sat></trkpt>
  <trkpt lat="37.02232676" lon="35.34272873"><ele>60.936</ele><time>2026-09-26T12:26:17Z</time><speed>1.180</speed><sat>34</sat></trkpt>
  <trkpt lat="37.02233706" lon="35.34272612"><ele>61.035</ele><time>2026-09-26T12:26:18Z</time><speed>1.250</speed><sat>34</sat></trkpt>
  <trkpt lat="37.02235162" lon="35.34271922"><ele>60.843</ele><time>2026-09-26T12:26:19Z</time><speed>2.100</speed><sat>34</sat></trkpt>
  <trkpt lat="37.02236860" lon="35.34271190"><ele>61.262</ele><time>2026-09-26T12:26:20Z</time><speed>1.900</speed><sat>34</sat></trkpt>
  <trkpt lat="37.02238595" lon="35.34270560"><ele>61.790</ele><time>2026-09-26T12:26:21Z</time><speed>1.950</speed><sat>34</sat></trkpt>
  <trkpt lat="37.02240026" lon="35.34270229"><ele>61.958</ele><time>2026-09-26T12:26:22Z</time><speed>1.550</speed><sat>34</sat></trkpt>
  <trkpt lat="37.02241003" lon="35.34270507"><ele>62.049</ele><time>2026-09-26T12:26:23Z</time><speed>1.030</speed><sat>34</sat></trkpt>
  <trkpt lat="37.02241999" lon="35.34271265"><ele>61.793</ele><time>2026-09-26T12:26:24Z</time><speed>1.290</speed><sat>34</sat></trkpt>
  <trkpt lat="37.02243175" lon="35.34272342"><ele>62.060</ele><time>2026-09-26T12:26:25Z</time><speed>1.380</speed><sat>34</sat></trkpt>
  <trkpt lat="37.02244288" lon="35.34273260"><ele>62.988</ele><time>2026-09-26T12:26:26Z</time><speed>1.180</speed><sat>34</sat></trkpt>
  <trkpt lat="37.02245362" lon="35.34273933"><ele>62.594</ele><time>2026-09-26T12:26:27Z</time><speed>1.240</speed><sat>34</sat></trkpt>
  <trkpt lat="37.02246677" lon="35.34274934"><ele>62.259</ele><time>2026-09-26T12:26:28Z</time><speed>1.630</speed><sat>34</sat></trkpt>
  <trkpt lat="37.02247977" lon="35.34276288"><ele>62.869</ele><time>2026-09-26T12:26:29Z</time><speed>1.510</speed><sat>34</sat></trkpt>
  <trkpt lat="37.02249237" lon="35.34277389"><ele>62.351</ele><time>2026-09-26T12:26:30Z</time><speed>1.520</speed><sat>34</sat></trkpt>
  <trkpt lat="37.02250710" lon="35.34278332"><ele>63.113</ele><time>2026-09-26T12:26:31Z</time><speed>1.730</speed><sat>34</sat></trkpt>
  <trkpt lat="37.02252326" lon="35.34278918"><ele>63.052</ele><time>2026-09-26T12:26:32Z</time><speed>1.710</speed><sat>34</sat></trkpt>
  <trkpt lat="37.02253724" lon="35.34279416"><ele>63.280</ele><time>2026-09-26T12:26:33Z</time><speed>1.380</speed><sat>34</sat></trkpt>
  <trkpt lat="37.02254953" lon="35.34280054"><ele>62.244</ele><time>2026-09-26T12:26:34Z</time><speed>1.340</speed><sat>34</sat></trkpt>
  <trkpt lat="37.02256385" lon="35.34280810"><ele>62.364</ele><time>2026-09-26T12:26:35Z</time><speed>1.800</speed><sat>34</sat></trkpt>
  <trkpt lat="37.02257862" lon="35.34281620"><ele>62.500</ele><time>2026-09-26T12:26:36Z</time><speed>1.610</speed><sat>34</sat></trkpt>
  <trkpt lat="37.02259276" lon="35.34282297"><ele>62.433</ele><time>2026-09-26T12:26:37Z</time><speed>1.650</speed><sat>34</sat></trkpt>
  <trkpt lat="37.02260611" lon="35.34283125"><ele>62.318</ele><time>2026-09-26T12:26:38Z</time><speed>1.630</speed><sat>35</sat></trkpt>
  <trkpt lat="37.02261943" lon="35.34283979"><ele>62.658</ele><time>2026-09-26T12:26:39Z</time><speed>1.740</speed><sat>35</sat></trkpt>
  <trkpt lat="37.02263390" lon="35.34284604"><ele>61.661</ele><time>2026-09-26T12:26:40Z</time><speed>1.720</speed><sat>35</sat></trkpt>
  <trkpt lat="37.02264841" lon="35.34285003"><ele>61.078</ele><time>2026-09-26T12:26:41Z</time><speed>1.700</speed><sat>35</sat></trkpt>
  <trkpt lat="37.02266395" lon="35.34285602"><ele>61.710</ele><time>2026-09-26T12:26:42Z</time><speed>1.830</speed><sat>34</sat></trkpt>
  <trkpt lat="37.02267887" lon="35.34286047"><ele>61.605</ele><time>2026-09-26T12:26:43Z</time><speed>1.640</speed><sat>34</sat></trkpt>
  <trkpt lat="37.02269208" lon="35.34286751"><ele>61.946</ele><time>2026-09-26T12:26:44Z</time><speed>1.550</speed><sat>33</sat></trkpt>
  <trkpt lat="37.02270413" lon="35.34287335"><ele>61.361</ele><time>2026-09-26T12:26:45Z</time><speed>1.500</speed><sat>34</sat></trkpt>
  <trkpt lat="37.02271446" lon="35.34287747"><ele>60.702</ele><time>2026-09-26T12:26:46Z</time><speed>1.140</speed><sat>34</sat></trkpt>
  <trkpt lat="37.02272456" lon="35.34288146"><ele>60.493</ele><time>2026-09-26T12:26:47Z</time><speed>1.350</speed><sat>34</sat></trkpt>
  <trkpt lat="37.02273640" lon="35.34288382"><ele>60.243</ele><time>2026-09-26T12:26:48Z</time><speed>1.440</speed><sat>35</sat></trkpt>
  <trkpt lat="37.02275235" lon="35.34288897"><ele>60.488</ele><time>2026-09-26T12:26:49Z</time><speed>1.910</speed><sat>35</sat></trkpt>
  <trkpt lat="37.02276856" lon="35.34289480"><ele>60.182</ele><time>2026-09-26T12:26:50Z</time><speed>1.550</speed><sat>35</sat></trkpt>
  <trkpt lat="37.02278273" lon="35.34289929"><ele>60.435</ele><time>2026-09-26T12:26:51Z</time><speed>1.490</speed><sat>35</sat></trkpt>
  <trkpt lat="37.02279688" lon="35.34290499"><ele>61.447</ele><time>2026-09-26T12:26:52Z</time><speed>1.620</speed><sat>35</sat></trkpt>
  <trkpt lat="37.02281101" lon="35.34290987"><ele>61.109</ele><time>2026-09-26T12:26:53Z</time><speed>1.500</speed><sat>35</sat></trkpt>
  <trkpt lat="37.02282996" lon="35.34291531"><ele>61.534</ele><time>2026-09-26T12:26:54Z</time><speed>2.220</speed><sat>34</sat></trkpt>
  <trkpt lat="37.02284823" lon="35.34291979"><ele>60.878</ele><time>2026-09-26T12:26:55Z</time><speed>1.740</speed><sat>34</sat></trkpt>
  <trkpt lat="37.02286567" lon="35.34292263"><ele>60.985</ele><time>2026-09-26T12:26:56Z</time><speed>1.740</speed><sat>34</sat></trkpt>
  <trkpt lat="37.02288103" lon="35.34292719"><ele>60.913</ele><time>2026-09-26T12:26:57Z</time><speed>1.570</speed><sat>35</sat></trkpt>
  <trkpt lat="37.02289334" lon="35.34293239"><ele>60.726</ele><time>2026-09-26T12:26:58Z</time><speed>1.490</speed><sat>35</sat></trkpt>
  <trkpt lat="37.02290558" lon="35.34293834"><ele>60.455</ele><time>2026-09-26T12:26:59Z</time><speed>1.540</speed><sat>35</sat></trkpt>
  <trkpt lat="37.02291657" lon="35.34294658"><ele>60.655</ele><time>2026-09-26T12:27:00Z</time><speed>1.470</speed><sat>35</sat></trkpt>
  <trkpt lat="37.02292662" lon="35.34295523"><ele>60.298</ele><time>2026-09-26T12:27:01Z</time><speed>1.470</speed><sat>35</sat></trkpt>
  <trkpt lat="37.02294004" lon="35.34296039"><ele>60.319</ele><time>2026-09-26T12:27:02Z</time><speed>1.990</speed><sat>35</sat></trkpt>
  <trkpt lat="37.02295708" lon="35.34295862"><ele>59.497</ele><time>2026-09-26T12:27:03Z</time><speed>2.120</speed><sat>34</sat></trkpt>
  <trkpt lat="37.02297362" lon="35.34295340"><ele>58.940</ele><time>2026-09-26T12:27:04Z</time><speed>1.980</speed><sat>33</sat></trkpt>
  <trkpt lat="37.02298304" lon="35.34295411"><ele>59.985</ele><time>2026-09-26T12:27:05Z</time><speed>1.270</speed><sat>32</sat></trkpt>
  <trkpt lat="37.02299092" lon="35.34295834"><ele>59.534</ele><time>2026-09-26T12:27:06Z</time><speed>1.450</speed><sat>32</sat></trkpt>
  <trkpt lat="37.02300270" lon="35.34296378"><ele>59.914</ele><time>2026-09-26T12:27:07Z</time><speed>1.780</speed><sat>31</sat></trkpt>
  <trkpt lat="37.02301614" lon="35.34296682"><ele>59.692</ele><time>2026-09-26T12:27:08Z</time><speed>1.690</speed><sat>31</sat></trkpt>
  <trkpt lat="37.02303249" lon="35.34297274"><ele>59.056</ele><time>2026-09-26T12:27:09Z</time><speed>2.140</speed><sat>31</sat></trkpt>
  <trkpt lat="37.02304992" lon="35.34297679"><ele>59.288</ele><time>2026-09-26T12:27:10Z</time><speed>1.980</speed><sat>31</sat></trkpt>
  <trkpt lat="37.02306604" lon="35.34298898"><ele>59.427</ele><time>2026-09-26T12:27:11Z</time><speed>2.250</speed><sat>31</sat></trkpt>
  <trkpt lat="37.02308310" lon="35.34300120"><ele>59.255</ele><time>2026-09-26T12:27:12Z</time><speed>2.210</speed><sat>28</sat></trkpt>
  <trkpt lat="37.02309984" lon="35.34301527"><ele>59.093</ele><time>2026-09-26T12:27:13Z</time><speed>2.220</speed><sat>27</sat></trkpt>
  <trkpt lat="37.02311603" lon="35.34303020"><ele>59.206</ele><time>2026-09-26T12:27:14Z</time><speed>2.230</speed><sat>28</sat></trkpt>
  <trkpt lat="37.02313140" lon="35.34304134"><ele>58.963</ele><time>2026-09-26T12:27:15Z</time><speed>2.070</speed><sat>29</sat></trkpt>
  <trkpt lat="37.02314432" lon="35.34305016"><ele>59.123</ele><time>2026-09-26T12:27:16Z</time><speed>1.920</speed><sat>29</sat></trkpt>
  <trkpt lat="37.02315370" lon="35.34306353"><ele>59.288</ele><time>2026-09-26T12:27:17Z</time><speed>1.740</speed><sat>29</sat></trkpt>
  <trkpt lat="37.02316260" lon="35.34307246"><ele>59.373</ele><time>2026-09-26T12:27:18Z</time><speed>1.720</speed><sat>29</sat></trkpt>
  <trkpt lat="37.02317054" lon="35.34308277"><ele>57.555</ele><time>2026-09-26T12:27:19Z</time><speed>1.790</speed><sat>29</sat></trkpt>
  <trkpt lat="37.02317858" lon="35.34309383"><ele>57.040</ele><time>2026-09-26T12:27:20Z</time><speed>1.730</speed><sat>31</sat></trkpt>
  <trkpt lat="37.02318829" lon="35.34310498"><ele>57.320</ele><time>2026-09-26T12:27:21Z</time><speed>1.760</speed><sat>30</sat></trkpt>
  <trkpt lat="37.02319918" lon="35.34311467"><ele>56.884</ele><time>2026-09-26T12:27:22Z</time><speed>1.770</speed><sat>30</sat></trkpt>
  <trkpt lat="37.02321498" lon="35.34312070"><ele>58.083</ele><time>2026-09-26T12:27:23Z</time><speed>1.720</speed><sat>30</sat></trkpt>
  <trkpt lat="37.02322749" lon="35.34312586"><ele>58.843</ele><time>2026-09-26T12:27:24Z</time><speed>1.710</speed><sat>33</sat></trkpt>
  <trkpt lat="37.02324011" lon="35.34312639"><ele>59.026</ele><time>2026-09-26T12:27:25Z</time><speed>1.640</speed><sat>33</sat></trkpt>
  <trkpt lat="37.02325369" lon="35.34312493"><ele>60.601</ele><time>2026-09-26T12:27:26Z</time><speed>1.710</speed><sat>33</sat></trkpt>
  <trkpt lat="37.02326789" lon="35.34312106"><ele>59.400</ele><time>2026-09-26T12:27:27Z</time><speed>1.580</speed><sat>33</sat></trkpt>
  <trkpt lat="37.02328137" lon="35.34311756"><ele>58.923</ele><time>2026-09-26T12:27:28Z</time><speed>1.550</speed><sat>33</sat></trkpt>
  <trkpt lat="37.02329381" lon="35.34311613"><ele>58.108</ele><time>2026-09-26T12:27:29Z</time><speed>1.640</speed><sat>33</sat></trkpt>
  <trkpt lat="37.02331005" lon="35.34311923"><ele>57.532</ele><time>2026-09-26T12:27:30Z</time><speed>2.080</speed><sat>33</sat></trkpt>
  <trkpt lat="37.02332556" lon="35.34312381"><ele>57.748</ele><time>2026-09-26T12:27:31Z</time><speed>1.560</speed><sat>32</sat></trkpt>
  <trkpt lat="37.02333950" lon="35.34312933"><ele>58.393</ele><time>2026-09-26T12:27:32Z</time><speed>1.500</speed><sat>32</sat></trkpt>
  <trkpt lat="37.02335798" lon="35.34313085"><ele>58.768</ele><time>2026-09-26T12:27:33Z</time><speed>2.160</speed><sat>32</sat></trkpt>
  <trkpt lat="37.02337613" lon="35.34313218"><ele>58.829</ele><time>2026-09-26T12:27:34Z</time><speed>1.830</speed><sat>32</sat></trkpt>
  <trkpt lat="37.02339223" lon="35.34313496"><ele>58.960</ele><time>2026-09-26T12:27:35Z</time><speed>1.610</speed><sat>31</sat></trkpt>
  <trkpt lat="37.02340690" lon="35.34313884"><ele>58.998</ele><time>2026-09-26T12:27:36Z</time><speed>1.600</speed><sat>32</sat></trkpt>
  <trkpt lat="37.02342187" lon="35.34314436"><ele>58.672</ele><time>2026-09-26T12:27:37Z</time><speed>1.610</speed><sat>32</sat></trkpt>
  <trkpt lat="37.02343654" lon="35.34315005"><ele>59.610</ele><time>2026-09-26T12:27:38Z</time><speed>1.610</speed><sat>33</sat></trkpt>
  <trkpt lat="37.02345031" lon="35.34315496"><ele>59.604</ele><time>2026-09-26T12:27:39Z</time><speed>1.540</speed><sat>33</sat></trkpt>
  <trkpt lat="37.02346394" lon="35.34315924"><ele>59.321</ele><time>2026-09-26T12:27:40Z</time><speed>1.560</speed><sat>33</sat></trkpt>
  <trkpt lat="37.02347742" lon="35.34316326"><ele>58.756</ele><time>2026-09-26T12:27:41Z</time><speed>1.550</speed><sat>33</sat></trkpt>
  <trkpt lat="37.02349025" lon="35.34316842"><ele>59.003</ele><time>2026-09-26T12:27:42Z</time><speed>1.490</speed><sat>33</sat></trkpt>
  <trkpt lat="37.02350157" lon="35.34317284"><ele>58.891</ele><time>2026-09-26T12:27:43Z</time><speed>1.330</speed><sat>33</sat></trkpt>
  <trkpt lat="37.02351591" lon="35.34315905"><ele>57.434</ele><time>2026-09-26T12:27:44Z</time><speed>2.890</speed><sat>32</sat></trkpt>
  <trkpt lat="37.02352949" lon="35.34315442"><ele>59.917</ele><time>2026-09-26T12:27:45Z</time><speed>1.540</speed><sat>31</sat></trkpt>
  <trkpt lat="37.02353872" lon="35.34315623"><ele>60.234</ele><time>2026-09-26T12:27:46Z</time><speed>1.590</speed><sat>31</sat></trkpt>
  <trkpt lat="37.02354992" lon="35.34316392"><ele>60.677</ele><time>2026-09-26T12:27:47Z</time><speed>1.540</speed><sat>30</sat></trkpt>
  <trkpt lat="37.02356250" lon="35.34317463"><ele>60.533</ele><time>2026-09-26T12:27:48Z</time><speed>1.540</speed><sat>29</sat></trkpt>
  <trkpt lat="37.02357478" lon="35.34317974"><ele>59.717</ele><time>2026-09-26T12:27:49Z</time><speed>1.460</speed><sat>29</sat></trkpt>
  <trkpt lat="37.02358797" lon="35.34318630"><ele>60.774</ele><time>2026-09-26T12:27:50Z</time><speed>1.600</speed><sat>29</sat></trkpt>
  <trkpt lat="37.02360023" lon="35.34319548"><ele>61.782</ele><time>2026-09-26T12:27:51Z</time><speed>1.470</speed><sat>29</sat></trkpt>
  <trkpt lat="37.02361222" lon="35.34320631"><ele>62.186</ele><time>2026-09-26T12:27:52Z</time><speed>1.470</speed><sat>29</sat></trkpt>
  <trkpt lat="37.02362386" lon="35.34321742"><ele>62.722</ele><time>2026-09-26T12:27:53Z</time><speed>1.470</speed><sat>29</sat></trkpt>
  <trkpt lat="37.02363560" lon="35.34322664"><ele>63.601</ele><time>2026-09-26T12:27:54Z</time><speed>1.460</speed><sat>29</sat></trkpt>
  <trkpt lat="37.02364679" lon="35.34323885"><ele>64.729</ele><time>2026-09-26T12:27:55Z</time><speed>1.600</speed><sat>29</sat></trkpt>
  <trkpt lat="37.02365807" lon="35.34325250"><ele>65.117</ele><time>2026-09-26T12:27:56Z</time><speed>1.680</speed><sat>29</sat></trkpt>
  <trkpt lat="37.02366914" lon="35.34326635"><ele>65.069</ele><time>2026-09-26T12:27:57Z</time><speed>1.640</speed><sat>29</sat></trkpt>
  <trkpt lat="37.02368185" lon="35.34327704"><ele>64.877</ele><time>2026-09-26T12:27:58Z</time><speed>1.760</speed><sat>29</sat></trkpt>
  <trkpt lat="37.02369878" lon="35.34327941"><ele>64.938</ele><time>2026-09-26T12:27:59Z</time><speed>2.060</speed><sat>29</sat></trkpt>
  <trkpt lat="37.02371903" lon="35.34327326"><ele>64.819</ele><time>2026-09-26T12:28:00Z</time><speed>2.620</speed><sat>27</sat></trkpt>
  <trkpt lat="37.02374115" lon="35.34326511"><ele>64.594</ele><time>2026-09-26T12:28:01Z</time><speed>2.620</speed><sat>26</sat></trkpt>
  <trkpt lat="37.02376295" lon="35.34325700"><ele>64.600</ele><time>2026-09-26T12:28:02Z</time><speed>2.720</speed><sat>24</sat></trkpt>
  <trkpt lat="37.02377833" lon="35.34325944"><ele>64.735</ele><time>2026-09-26T12:28:03Z</time><speed>1.600</speed><sat>23</sat></trkpt>
  <trkpt lat="37.02379125" lon="35.34327634"><ele>64.584</ele><time>2026-09-26T12:28:04Z</time><speed>1.970</speed><sat>20</sat></trkpt>
  <trkpt lat="37.02380065" lon="35.34330944"><ele>64.548</ele><time>2026-09-26T12:28:05Z</time><speed>2.460</speed><sat>20</sat></trkpt>
  <trkpt lat="37.02379336" lon="35.34334750"><ele>63.068</ele><time>2026-09-26T12:28:06Z</time><speed>3.000</speed><sat>18</sat></trkpt>
  <trkpt lat="37.02378045" lon="35.34338760"><ele>62.909</ele><time>2026-09-26T12:28:07Z</time><speed>2.990</speed><sat>16</sat></trkpt>
  <trkpt lat="37.02375992" lon="35.34341457"><ele>62.924</ele><time>2026-09-26T12:28:08Z</time><speed>2.820</speed><sat>14</sat></trkpt>
  <trkpt lat="37.02374711" lon="35.34343161"><ele>63.164</ele><time>2026-09-26T12:28:09Z</time><speed>2.200</speed><sat>11</sat></trkpt>
  <trkpt lat="37.02373792" lon="35.34344201"><ele>62.991</ele><time>2026-09-26T12:28:10Z</time><speed>1.830</speed><sat>10</sat></trkpt>
  <trkpt lat="37.02375075" lon="35.34345091"><ele>62.080</ele><time>2026-09-26T12:28:11Z</time><speed>1.980</speed><sat>11</sat></trkpt>
  <trkpt lat="37.02377050" lon="35.34346112"><ele>61.297</ele><time>2026-09-26T12:28:12Z</time><speed>2.010</speed><sat>12</sat></trkpt>
  <trkpt lat="37.02379198" lon="35.34347188"><ele>59.822</ele><time>2026-09-26T12:28:13Z</time><speed>1.790</speed><sat>11</sat></trkpt>
  <trkpt lat="37.02381601" lon="35.34347550"><ele>58.212</ele><time>2026-09-26T12:28:14Z</time><speed>1.720</speed><sat>12</sat></trkpt>
  <trkpt lat="37.02384078" lon="35.34347301"><ele>57.794</ele><time>2026-09-26T12:28:15Z</time><speed>1.650</speed><sat>13</sat></trkpt>
  <trkpt lat="37.02386247" lon="35.34346413"><ele>57.917</ele><time>2026-09-26T12:28:16Z</time><speed>1.340</speed><sat>14</sat></trkpt>
  <trkpt lat="37.02388349" lon="35.34345823"><ele>58.536</ele><time>2026-09-26T12:28:17Z</time><speed>1.660</speed><sat>14</sat></trkpt>
  <trkpt lat="37.02390475" lon="35.34345226"><ele>58.920</ele><time>2026-09-26T12:28:18Z</time><speed>1.730</speed><sat>15</sat></trkpt>
  <trkpt lat="37.02392393" lon="35.34344580"><ele>59.383</ele><time>2026-09-26T12:28:19Z</time><speed>1.410</speed><sat>16</sat></trkpt>
  <trkpt lat="37.02394060" lon="35.34343840"><ele>59.597</ele><time>2026-09-26T12:28:20Z</time><speed>1.420</speed><sat>15</sat></trkpt>
  <trkpt lat="37.02395477" lon="35.34343283"><ele>60.783</ele><time>2026-09-26T12:28:21Z</time><speed>1.400</speed><sat>20</sat></trkpt>
  <trkpt lat="37.02397055" lon="35.34342689"><ele>60.581</ele><time>2026-09-26T12:28:22Z</time><speed>1.760</speed><sat>22</sat></trkpt>
  <trkpt lat="37.02398171" lon="35.34342771"><ele>65.133</ele><time>2026-09-26T12:28:23Z</time><speed>1.430</speed><sat>21</sat></trkpt>
  <trkpt lat="37.02399087" lon="35.34343076"><ele>66.632</ele><time>2026-09-26T12:28:24Z</time><speed>1.380</speed><sat>22</sat></trkpt>
  <trkpt lat="37.02400029" lon="35.34343633"><ele>67.192</ele><time>2026-09-26T12:28:25Z</time><speed>1.400</speed><sat>23</sat></trkpt>
  <trkpt lat="37.02401525" lon="35.34345090"><ele>65.767</ele><time>2026-09-26T12:28:26Z</time><speed>2.060</speed><sat>21</sat></trkpt>
  <trkpt lat="37.02402950" lon="35.34346775"><ele>66.129</ele><time>2026-09-26T12:28:27Z</time><speed>1.750</speed><sat>23</sat></trkpt>
  <trkpt lat="37.02404029" lon="35.34349059"><ele>65.952</ele><time>2026-09-26T12:28:28Z</time><speed>1.690</speed><sat>22</sat></trkpt>
  <trkpt lat="37.02404691" lon="35.34351499"><ele>65.432</ele><time>2026-09-26T12:28:29Z</time><speed>1.750</speed><sat>22</sat></trkpt>
  <trkpt lat="37.02405081" lon="35.34354026"><ele>65.051</ele><time>2026-09-26T12:28:30Z</time><speed>1.870</speed><sat>19</sat></trkpt>
  <trkpt lat="37.02405809" lon="35.34356461"><ele>64.144</ele><time>2026-09-26T12:28:31Z</time><speed>1.920</speed><sat>19</sat></trkpt>
  <trkpt lat="37.02407459" lon="35.34359170"><ele>62.367</ele><time>2026-09-26T12:28:32Z</time><speed>2.690</speed><sat>19</sat></trkpt>
  <trkpt lat="37.02409165" lon="35.34362403"><ele>59.522</ele><time>2026-09-26T12:28:33Z</time><speed>2.760</speed><sat>22</sat></trkpt>
  <trkpt lat="37.02411137" lon="35.34365376"><ele>58.816</ele><time>2026-09-26T12:28:34Z</time><speed>2.890</speed><sat>21</sat></trkpt>
  <trkpt lat="37.02413503" lon="35.34367841"><ele>58.867</ele><time>2026-09-26T12:28:35Z</time><speed>3.150</speed><sat>21</sat></trkpt>
  <trkpt lat="37.02424438" lon="35.34345049"><ele>59.331</ele><time>2026-09-26T12:28:36Z</time><speed>4.180</speed><sat>19</sat></trkpt>
  <trkpt lat="37.02424131" lon="35.34342934"><ele>59.576</ele><time>2026-09-26T12:28:37Z</time><speed>2.890</speed><sat>22</sat></trkpt>
  <trkpt lat="37.02423833" lon="35.34341261"><ele>60.616</ele><time>2026-09-26T12:28:38Z</time><speed>2.140</speed><sat>22</sat></trkpt>
  <trkpt lat="37.02423776" lon="35.34340934"><ele>60.541</ele><time>2026-09-26T12:28:39Z</time><speed>1.780</speed><sat>20</sat></trkpt>
  <trkpt lat="37.02423901" lon="35.34341121"><ele>59.781</ele><time>2026-09-26T12:28:40Z</time><speed>1.470</speed><sat>24</sat></trkpt>
  <trkpt lat="37.02424260" lon="35.34341846"><ele>59.632</ele><time>2026-09-26T12:28:41Z</time><speed>1.530</speed><sat>27</sat></trkpt>
  <trkpt lat="37.02424757" lon="35.34342709"><ele>59.580</ele><time>2026-09-26T12:28:42Z</time><speed>1.480</speed><sat>27</sat></trkpt>
  <trkpt lat="37.02425324" lon="35.34343473"><ele>60.181</ele><time>2026-09-26T12:28:43Z</time><speed>1.460</speed><sat>26</sat></trkpt>
  <trkpt lat="37.02426079" lon="35.34344176"><ele>60.156</ele><time>2026-09-26T12:28:44Z</time><speed>1.530</speed><sat>26</sat></trkpt>
  <trkpt lat="37.02426971" lon="35.34344794"><ele>59.821</ele><time>2026-09-26T12:28:45Z</time><speed>1.530</speed><sat>26</sat></trkpt>
  <trkpt lat="37.02427928" lon="35.34345349"><ele>59.781</ele><time>2026-09-26T12:28:46Z</time><speed>1.490</speed><sat>27</sat></trkpt>
  <trkpt lat="37.02428906" lon="35.34346044"><ele>58.962</ele><time>2026-09-26T12:28:47Z</time><speed>1.500</speed><sat>27</sat></trkpt>
  <trkpt lat="37.02429827" lon="35.34346846"><ele>59.197</ele><time>2026-09-26T12:28:48Z</time><speed>1.450</speed><sat>26</sat></trkpt>
  <trkpt lat="37.02430777" lon="35.34347690"><ele>58.721</ele><time>2026-09-26T12:28:49Z</time><speed>1.470</speed><sat>28</sat></trkpt>
  <trkpt lat="37.02431709" lon="35.34348480"><ele>58.479</ele><time>2026-09-26T12:28:50Z</time><speed>1.430</speed><sat>28</sat></trkpt>
  <trkpt lat="37.02432813" lon="35.34349347"><ele>58.403</ele><time>2026-09-26T12:28:51Z</time><speed>1.630</speed><sat>28</sat></trkpt>
  <trkpt lat="37.02434017" lon="35.34350049"><ele>58.696</ele><time>2026-09-26T12:28:52Z</time><speed>1.620</speed><sat>28</sat></trkpt>
  <trkpt lat="37.02435268" lon="35.34350360"><ele>59.503</ele><time>2026-09-26T12:28:53Z</time><speed>1.470</speed><sat>29</sat></trkpt>
  <trkpt lat="37.02436421" lon="35.34350524"><ele>59.218</ele><time>2026-09-26T12:28:54Z</time><speed>1.350</speed><sat>30</sat></trkpt>
  <trkpt lat="37.02437748" lon="35.34350777"><ele>59.637</ele><time>2026-09-26T12:28:55Z</time><speed>1.710</speed><sat>31</sat></trkpt>
  <trkpt lat="37.02439193" lon="35.34351205"><ele>59.630</ele><time>2026-09-26T12:28:56Z</time><speed>1.650</speed><sat>32</sat></trkpt>
  <trkpt lat="37.02440587" lon="35.34351680"><ele>59.853</ele><time>2026-09-26T12:28:57Z</time><speed>1.600</speed><sat>32</sat></trkpt>
  <trkpt lat="37.02441883" lon="35.34352023"><ele>59.549</ele><time>2026-09-26T12:28:58Z</time><speed>1.470</speed><sat>32</sat></trkpt>
  <trkpt lat="37.02443197" lon="35.34352308"><ele>59.979</ele><time>2026-09-26T12:28:59Z</time><speed>1.570</speed><sat>32</sat></trkpt>
  <trkpt lat="37.02444524" lon="35.34352651"><ele>60.208</ele><time>2026-09-26T12:29:00Z</time><speed>1.620</speed><sat>32</sat></trkpt>
  <trkpt lat="37.02445787" lon="35.34353080"><ele>60.243</ele><time>2026-09-26T12:29:01Z</time><speed>1.510</speed><sat>32</sat></trkpt>
  <trkpt lat="37.02446835" lon="35.34353529"><ele>60.360</ele><time>2026-09-26T12:29:02Z</time><speed>1.390</speed><sat>33</sat></trkpt>
  <trkpt lat="37.02447885" lon="35.34353948"><ele>60.811</ele><time>2026-09-26T12:29:03Z</time><speed>1.420</speed><sat>33</sat></trkpt>
  <trkpt lat="37.02448919" lon="35.34354329"><ele>60.668</ele><time>2026-09-26T12:29:04Z</time><speed>1.390</speed><sat>33</sat></trkpt>
  <trkpt lat="37.02449964" lon="35.34354637"><ele>60.400</ele><time>2026-09-26T12:29:05Z</time><speed>1.370</speed><sat>33</sat></trkpt>
  <trkpt lat="37.02451104" lon="35.34354978"><ele>60.087</ele><time>2026-09-26T12:29:06Z</time><speed>1.510</speed><sat>32</sat></trkpt>
  <trkpt lat="37.02452258" lon="35.34355410"><ele>59.737</ele><time>2026-09-26T12:29:07Z</time><speed>1.450</speed><sat>32</sat></trkpt>
  <trkpt lat="37.02453398" lon="35.34355970"><ele>59.084</ele><time>2026-09-26T12:29:08Z</time><speed>1.450</speed><sat>31</sat></trkpt>
  <trkpt lat="37.02454740" lon="35.34356264"><ele>57.646</ele><time>2026-09-26T12:29:09Z</time><speed>1.580</speed><sat>31</sat></trkpt>
  <trkpt lat="37.02455999" lon="35.34356514"><ele>58.450</ele><time>2026-09-26T12:29:10Z</time><speed>1.430</speed><sat>31</sat></trkpt>
  <trkpt lat="37.02457232" lon="35.34356577"><ele>58.151</ele><time>2026-09-26T12:29:11Z</time><speed>1.500</speed><sat>32</sat></trkpt>
  <trkpt lat="37.02458455" lon="35.34356788"><ele>58.033</ele><time>2026-09-26T12:29:12Z</time><speed>1.430</speed><sat>32</sat></trkpt>
  <trkpt lat="37.02459583" lon="35.34357026"><ele>58.131</ele><time>2026-09-26T12:29:13Z</time><speed>1.400</speed><sat>32</sat></trkpt>
  <trkpt lat="37.02460725" lon="35.34357310"><ele>58.549</ele><time>2026-09-26T12:29:14Z</time><speed>1.420</speed><sat>32</sat></trkpt>
  <trkpt lat="37.02461934" lon="35.34357645"><ele>58.469</ele><time>2026-09-26T12:29:15Z</time><speed>1.510</speed><sat>32</sat></trkpt>
  <trkpt lat="37.02463136" lon="35.34358011"><ele>58.603</ele><time>2026-09-26T12:29:16Z</time><speed>1.430</speed><sat>32</sat></trkpt>
  <trkpt lat="37.02464290" lon="35.34358264"><ele>58.649</ele><time>2026-09-26T12:29:17Z</time><speed>1.370</speed><sat>32</sat></trkpt>
  <trkpt lat="37.02465447" lon="35.34358506"><ele>58.514</ele><time>2026-09-26T12:29:18Z</time><speed>1.440</speed><sat>32</sat></trkpt>
  <trkpt lat="37.02466636" lon="35.34358789"><ele>58.306</ele><time>2026-09-26T12:29:19Z</time><speed>1.460</speed><sat>32</sat></trkpt>
  <trkpt lat="37.02467833" lon="35.34359181"><ele>58.147</ele><time>2026-09-26T12:29:20Z</time><speed>1.470</speed><sat>32</sat></trkpt>
  <trkpt lat="37.02469072" lon="35.34359581"><ele>58.203</ele><time>2026-09-26T12:29:21Z</time><speed>1.530</speed><sat>31</sat></trkpt>
  <trkpt lat="37.02470335" lon="35.34359928"><ele>58.363</ele><time>2026-09-26T12:29:22Z</time><speed>1.530</speed><sat>32</sat></trkpt>
  <trkpt lat="37.02471566" lon="35.34360145"><ele>58.271</ele><time>2026-09-26T12:29:23Z</time><speed>1.440</speed><sat>32</sat></trkpt>
  <trkpt lat="37.02472503" lon="35.34360373"><ele>58.269</ele><time>2026-09-26T12:29:24Z</time><speed>1.010</speed><sat>33</sat></trkpt>
  <trkpt lat="37.02473235" lon="35.34360621"><ele>57.954</ele><time>2026-09-26T12:29:25Z</time><speed>0.980</speed><sat>33</sat></trkpt>
  <trkpt lat="37.02474238" lon="35.34361193"><ele>58.504</ele><time>2026-09-26T12:29:26Z</time><speed>1.350</speed><sat>33</sat></trkpt>
  <trkpt lat="37.02475589" lon="35.34361635"><ele>59.261</ele><time>2026-09-26T12:29:27Z</time><speed>1.540</speed><sat>33</sat></trkpt>
  <trkpt lat="37.02477110" lon="35.34362132"><ele>59.483</ele><time>2026-09-26T12:29:28Z</time><speed>1.670</speed><sat>33</sat></trkpt>
  <trkpt lat="37.02478569" lon="35.34362664"><ele>59.324</ele><time>2026-09-26T12:29:29Z</time><speed>1.590</speed><sat>33</sat></trkpt>
  <trkpt lat="37.02480024" lon="35.34363174"><ele>59.273</ele><time>2026-09-26T12:29:30Z</time><speed>1.670</speed><sat>33</sat></trkpt>
  <trkpt lat="37.02481342" lon="35.34363577"><ele>58.784</ele><time>2026-09-26T12:29:31Z</time><speed>1.400</speed><sat>33</sat></trkpt>
  <trkpt lat="37.02482686" lon="35.34363874"><ele>59.236</ele><time>2026-09-26T12:29:32Z</time><speed>1.540</speed><sat>33</sat></trkpt>
  <trkpt lat="37.02484107" lon="35.34364142"><ele>59.407</ele><time>2026-09-26T12:29:33Z</time><speed>1.550</speed><sat>33</sat></trkpt>
  <trkpt lat="37.02485588" lon="35.34364457"><ele>60.819</ele><time>2026-09-26T12:29:34Z</time><speed>1.590</speed><sat>33</sat></trkpt>
  <trkpt lat="37.02487361" lon="35.34364506"><ele>60.317</ele><time>2026-09-26T12:29:35Z</time><speed>2.080</speed><sat>33</sat></trkpt>
  <trkpt lat="37.02489180" lon="35.34364431"><ele>58.972</ele><time>2026-09-26T12:29:36Z</time><speed>1.660</speed><sat>34</sat></trkpt>
  <trkpt lat="37.02490557" lon="35.34364446"><ele>59.771</ele><time>2026-09-26T12:29:37Z</time><speed>1.290</speed><sat>34</sat></trkpt>
  <trkpt lat="37.02491800" lon="35.34364821"><ele>59.682</ele><time>2026-09-26T12:29:38Z</time><speed>1.420</speed><sat>34</sat></trkpt>
  <trkpt lat="37.02492900" lon="35.34365449"><ele>59.757</ele><time>2026-09-26T12:29:39Z</time><speed>1.140</speed><sat>34</sat></trkpt>
  <trkpt lat="37.02493824" lon="35.34366397"><ele>60.982</ele><time>2026-09-26T12:29:40Z</time><speed>1.350</speed><sat>34</sat></trkpt>
  <trkpt lat="37.02494749" lon="35.34367480"><ele>61.760</ele><time>2026-09-26T12:29:41Z</time><speed>1.320</speed><sat>34</sat></trkpt>
  <trkpt lat="37.02495539" lon="35.34368701"><ele>61.896</ele><time>2026-09-26T12:29:42Z</time><speed>1.330</speed><sat>34</sat></trkpt>
  <trkpt lat="37.02496164" lon="35.34369893"><ele>60.929</ele><time>2026-09-26T12:29:43Z</time><speed>1.240</speed><sat>34</sat></trkpt>
  <trkpt lat="37.02496771" lon="35.34370853"><ele>60.654</ele><time>2026-09-26T12:29:44Z</time><speed>1.020</speed><sat>34</sat></trkpt>
  <trkpt lat="37.02497247" lon="35.34371417"><ele>59.883</ele><time>2026-09-26T12:29:45Z</time><speed>0.490</speed><sat>34</sat></trkpt>
  <trkpt lat="37.02497801" lon="35.34372083"><ele>60.082</ele><time>2026-09-26T12:29:46Z</time><speed>0.900</speed><sat>34</sat></trkpt>
  <trkpt lat="37.02498407" lon="35.34373089"><ele>59.949</ele><time>2026-09-26T12:29:47Z</time><speed>1.080</speed><sat>34</sat></trkpt>
  <trkpt lat="37.02499264" lon="35.34374667"><ele>60.507</ele><time>2026-09-26T12:29:48Z</time><speed>1.650</speed><sat>33</sat></trkpt>
  <trkpt lat="37.02500509" lon="35.34376089"><ele>61.127</ele><time>2026-09-26T12:29:49Z</time><speed>1.710</speed><sat>33</sat></trkpt>
  <trkpt lat="37.02501803" lon="35.34376938"><ele>62.131</ele><time>2026-09-26T12:29:50Z</time><speed>1.240</speed><sat>33</sat></trkpt>
  <trkpt lat="37.02503166" lon="35.34377296"><ele>60.963</ele><time>2026-09-26T12:29:51Z</time><speed>1.420</speed><sat>33</sat></trkpt>
  <trkpt lat="37.02504693" lon="35.34377367"><ele>60.840</ele><time>2026-09-26T12:29:52Z</time><speed>1.420</speed><sat>34</sat></trkpt>
  <trkpt lat="37.02506220" lon="35.34377282"><ele>60.954</ele><time>2026-09-26T12:29:53Z</time><speed>1.450</speed><sat>34</sat></trkpt>
  <trkpt lat="37.02507860" lon="35.34377355"><ele>60.442</ele><time>2026-09-26T12:29:54Z</time><speed>1.560</speed><sat>35</sat></trkpt>
  <trkpt lat="37.02509470" lon="35.34377439"><ele>60.339</ele><time>2026-09-26T12:29:55Z</time><speed>1.550</speed><sat>35</sat></trkpt>
  <trkpt lat="37.02511008" lon="35.34377621"><ele>60.115</ele><time>2026-09-26T12:29:56Z</time><speed>1.550</speed><sat>35</sat></trkpt>
  <trkpt lat="37.02512411" lon="35.34378118"><ele>59.619</ele><time>2026-09-26T12:29:57Z</time><speed>1.510</speed><sat>35</sat></trkpt>
  <trkpt lat="37.02513718" lon="35.34378670"><ele>58.994</ele><time>2026-09-26T12:29:58Z</time><speed>1.450</speed><sat>35</sat></trkpt>
  <trkpt lat="37.02515037" lon="35.34379113"><ele>58.939</ele><time>2026-09-26T12:29:59Z</time><speed>1.550</speed><sat>35</sat></trkpt>
  <trkpt lat="37.02516317" lon="35.34379354"><ele>59.183</ele><time>2026-09-26T12:30:00Z</time><speed>1.460</speed><sat>34</sat></trkpt>
  <trkpt lat="37.02517622" lon="35.34379397"><ele>59.353</ele><time>2026-09-26T12:30:01Z</time><speed>1.500</speed><sat>35</sat></trkpt>
  <trkpt lat="37.02518874" lon="35.34379379"><ele>59.929</ele><time>2026-09-26T12:30:02Z</time><speed>1.490</speed><sat>34</sat></trkpt>
  <trkpt lat="37.02520168" lon="35.34379601"><ele>58.415</ele><time>2026-09-26T12:30:03Z</time><speed>1.520</speed><sat>34</sat></trkpt>
  <trkpt lat="37.02521359" lon="35.34379987"><ele>58.084</ele><time>2026-09-26T12:30:04Z</time><speed>1.430</speed><sat>34</sat></trkpt>
  <trkpt lat="37.02522463" lon="35.34380467"><ele>58.458</ele><time>2026-09-26T12:30:05Z</time><speed>1.460</speed><sat>34</sat></trkpt>
  <trkpt lat="37.02523624" lon="35.34381047"><ele>59.370</ele><time>2026-09-26T12:30:06Z</time><speed>1.530</speed><sat>34</sat></trkpt>
  <trkpt lat="37.02524852" lon="35.34381537"><ele>60.020</ele><time>2026-09-26T12:30:07Z</time><speed>1.520</speed><sat>34</sat></trkpt>
  <trkpt lat="37.02526068" lon="35.34381895"><ele>60.260</ele><time>2026-09-26T12:30:08Z</time><speed>1.470</speed><sat>34</sat></trkpt>
  <trkpt lat="37.02527405" lon="35.34382143"><ele>60.921</ele><time>2026-09-26T12:30:09Z</time><speed>1.510</speed><sat>34</sat></trkpt>
  <trkpt lat="37.02528749" lon="35.34382492"><ele>60.783</ele><time>2026-09-26T12:30:10Z</time><speed>1.530</speed><sat>35</sat></trkpt>
  <trkpt lat="37.02530095" lon="35.34382848"><ele>61.255</ele><time>2026-09-26T12:30:11Z</time><speed>1.440</speed><sat>35</sat></trkpt>
  <trkpt lat="37.02531472" lon="35.34383256"><ele>61.710</ele><time>2026-09-26T12:30:12Z</time><speed>1.530</speed><sat>34</sat></trkpt>
  <trkpt lat="37.02532927" lon="35.34383707"><ele>61.843</ele><time>2026-09-26T12:30:13Z</time><speed>1.640</speed><sat>34</sat></trkpt>
  <trkpt lat="37.02534334" lon="35.34384091"><ele>61.641</ele><time>2026-09-26T12:30:14Z</time><speed>1.590</speed><sat>34</sat></trkpt>
  <trkpt lat="37.02535684" lon="35.34384525"><ele>61.656</ele><time>2026-09-26T12:30:15Z</time><speed>1.560</speed><sat>34</sat></trkpt>
  <trkpt lat="37.02537048" lon="35.34384916"><ele>61.924</ele><time>2026-09-26T12:30:16Z</time><speed>1.550</speed><sat>34</sat></trkpt>
  <trkpt lat="37.02538420" lon="35.34385254"><ele>62.316</ele><time>2026-09-26T12:30:17Z</time><speed>1.560</speed><sat>34</sat></trkpt>
  <trkpt lat="37.02539713" lon="35.34385631"><ele>61.933</ele><time>2026-09-26T12:30:18Z</time><speed>1.520</speed><sat>34</sat></trkpt>
  <trkpt lat="37.02540919" lon="35.34385992"><ele>62.087</ele><time>2026-09-26T12:30:19Z</time><speed>1.450</speed><sat>33</sat></trkpt>
  <trkpt lat="37.02542047" lon="35.34386365"><ele>61.847</ele><time>2026-09-26T12:30:20Z</time><speed>1.530</speed><sat>33</sat></trkpt>
  <trkpt lat="37.02543230" lon="35.34386762"><ele>62.100</ele><time>2026-09-26T12:30:21Z</time><speed>1.530</speed><sat>33</sat></trkpt>
  <trkpt lat="37.02544425" lon="35.34387153"><ele>61.816</ele><time>2026-09-26T12:30:22Z</time><speed>1.510</speed><sat>33</sat></trkpt>
  <trkpt lat="37.02545630" lon="35.34387468"><ele>61.486</ele><time>2026-09-26T12:30:23Z</time><speed>1.530</speed><sat>33</sat></trkpt>
  <trkpt lat="37.02546851" lon="35.34387809"><ele>62.124</ele><time>2026-09-26T12:30:24Z</time><speed>1.480</speed><sat>33</sat></trkpt>
  <trkpt lat="37.02548112" lon="35.34388120"><ele>62.185</ele><time>2026-09-26T12:30:25Z</time><speed>1.560</speed><sat>33</sat></trkpt>
  <trkpt lat="37.02549383" lon="35.34388362"><ele>62.477</ele><time>2026-09-26T12:30:26Z</time><speed>1.480</speed><sat>34</sat></trkpt>
  <trkpt lat="37.02550568" lon="35.34388649"><ele>62.722</ele><time>2026-09-26T12:30:27Z</time><speed>1.400</speed><sat>34</sat></trkpt>
  <trkpt lat="37.02551636" lon="35.34389011"><ele>62.664</ele><time>2026-09-26T12:30:28Z</time><speed>1.300</speed><sat>34</sat></trkpt>
  <trkpt lat="37.02552215" lon="35.34389362"><ele>62.636</ele><time>2026-09-26T12:30:29Z</time><speed>0.450</speed><sat>34</sat></trkpt>
  <trkpt lat="37.02552058" lon="35.34389611"><ele>62.621</ele><time>2026-09-26T12:30:30Z</time><speed>0.000</speed><sat>34</sat></trkpt>
  <trkpt lat="37.02552096" lon="35.34389885"><ele>62.083</ele><time>2026-09-26T12:30:31Z</time><speed>0.390</speed><sat>33</sat></trkpt>
  <trkpt lat="37.02552091" lon="35.34390215"><ele>62.204</ele><time>2026-09-26T12:30:32Z</time><speed>0.240</speed><sat>34</sat></trkpt>
  <trkpt lat="37.02551821" lon="35.34390337"><ele>62.218</ele><time>2026-09-26T12:30:33Z</time><speed>0.000</speed><sat>34</sat></trkpt>
  <trkpt lat="37.02551764" lon="35.34390342"><ele>62.660</ele><time>2026-09-26T12:30:34Z</time><speed>0.150</speed><sat>33</sat></trkpt>
  <trkpt lat="37.02551683" lon="35.34390314"><ele>62.666</ele><time>2026-09-26T12:30:35Z</time><speed>0.000</speed><sat>32</sat></trkpt>
  <trkpt lat="37.02551621" lon="35.34390265"><ele>62.670</ele><time>2026-09-26T12:30:36Z</time><speed>0.000</speed><sat>33</sat></trkpt>
  <trkpt lat="37.02551590" lon="35.34390243"><ele>62.671</ele><time>2026-09-26T12:30:37Z</time><speed>0.000</speed><sat>33</sat></trkpt>
  <trkpt lat="37.02551576" lon="35.34390232"><ele>62.674</ele><time>2026-09-26T12:30:38Z</time><speed>0.000</speed><sat>32</sat></trkpt>
  <trkpt lat="37.02551569" lon="35.34390227"><ele>62.679</ele><time>2026-09-26T12:30:39Z</time><speed>0.000</speed><sat>32</sat></trkpt>
  <trkpt lat="37.02551564" lon="35.34390224"><ele>62.683</ele><time>2026-09-26T12:30:40Z</time><speed>0.000</speed><sat>32</sat></trkpt>
  <trkpt lat="37.02551562" lon="35.34390223"><ele>62.686</ele><time>2026-09-26T12:30:41Z</time><speed>0.000</speed><sat>32</sat></trkpt>
  <trkpt lat="37.02551561" lon="35.34390222"><ele>62.690</ele><time>2026-09-26T12:30:42Z</time><speed>0.000</speed><sat>32</sat></trkpt>
  <trkpt lat="37.02551561" lon="35.34390221"><ele>62.691</ele><time>2026-09-26T12:30:43Z</time><speed>0.000</speed><sat>32</sat></trkpt>
  <trkpt lat="37.02551562" lon="35.34390221"><ele>62.690</ele><time>2026-09-26T12:30:44Z</time><speed>0.000</speed><sat>32</sat></trkpt>
  <trkpt lat="37.02551565" lon="35.34390221"><ele>62.690</ele><time>2026-09-26T12:30:45Z</time><speed>0.000</speed><sat>32</sat></trkpt>
  <trkpt lat="37.02551566" lon="35.34390221"><ele>62.696</ele><time>2026-09-26T12:30:46Z</time><speed>0.000</speed><sat>32</sat></trkpt>
  <trkpt lat="37.02551568" lon="35.34390222"><ele>62.697</ele><time>2026-09-26T12:30:47Z</time><speed>0.000</speed><sat>32</sat></trkpt>
  <trkpt lat="37.02551570" lon="35.34390222"><ele>62.698</ele><time>2026-09-26T12:30:48Z</time><speed>0.000</speed><sat>32</sat></trkpt>
  <trkpt lat="37.02551573" lon="35.34390222"><ele>62.701</ele><time>2026-09-26T12:30:49Z</time><speed>0.000</speed><sat>32</sat></trkpt>
  <trkpt lat="37.02551575" lon="35.34390222"><ele>62.701</ele><time>2026-09-26T12:30:50Z</time><speed>0.000</speed><sat>32</sat></trkpt>
  <trkpt lat="37.02551577" lon="35.34390222"><ele>62.704</ele><time>2026-09-26T12:30:51Z</time><speed>0.000</speed><sat>32</sat></trkpt>
  <trkpt lat="37.02551579" lon="35.34390222"><ele>62.705</ele><time>2026-09-26T12:30:52Z</time><speed>0.000</speed><sat>32</sat></trkpt>
  <trkpt lat="37.02551581" lon="35.34390222"><ele>62.706</ele><time>2026-09-26T12:30:53Z</time><speed>0.000</speed><sat>32</sat></trkpt>
  <trkpt lat="37.02551582" lon="35.34390220"><ele>62.708</ele><time>2026-09-26T12:30:54Z</time><speed>0.000</speed><sat>32</sat></trkpt>
  <trkpt lat="37.02551633" lon="35.34390189"><ele>62.591</ele><time>2026-09-26T12:30:55Z</time><speed>0.000</speed><sat>32</sat></trkpt>
  <trkpt lat="37.02551673" lon="35.34390143"><ele>62.589</ele><time>2026-09-26T12:30:56Z</time><speed>0.000</speed><sat>31</sat></trkpt>
  <trkpt lat="37.02551682" lon="35.34390105"><ele>62.587</ele><time>2026-09-26T12:30:57Z</time><speed>0.000</speed><sat>31</sat></trkpt>
  <trkpt lat="37.02551687" lon="35.34390084"><ele>62.584</ele><time>2026-09-26T12:30:58Z</time><speed>0.000</speed><sat>32</sat></trkpt>
  <trkpt lat="37.02551690" lon="35.34390076"><ele>62.586</ele><time>2026-09-26T12:30:59Z</time><speed>0.000</speed><sat>32</sat></trkpt>
  <trkpt lat="37.02551691" lon="35.34390072"><ele>62.586</ele><time>2026-09-26T12:31:00Z</time><speed>0.000</speed><sat>32</sat></trkpt>
  <trkpt lat="37.02551712" lon="35.34390185"><ele>62.672</ele><time>2026-09-26T12:31:01Z</time><speed>0.000</speed><sat>31</sat></trkpt>
  <trkpt lat="37.02551715" lon="35.34390259"><ele>62.675</ele><time>2026-09-26T12:31:02Z</time><speed>0.000</speed><sat>32</sat></trkpt>
  <trkpt lat="37.02551698" lon="35.34390260"><ele>62.674</ele><time>2026-09-26T12:31:03Z</time><speed>0.000</speed><sat>32</sat></trkpt>
  <trkpt lat="37.02551690" lon="35.34390260"><ele>62.675</ele><time>2026-09-26T12:31:04Z</time><speed>0.000</speed><sat>32</sat></trkpt>
  <trkpt lat="37.02551687" lon="35.34390260"><ele>62.676</ele><time>2026-09-26T12:31:05Z</time><speed>0.000</speed><sat>32</sat></trkpt>
  <trkpt lat="37.02551687" lon="35.34390259"><ele>62.678</ele><time>2026-09-26T12:31:06Z</time><speed>0.000</speed><sat>31</sat></trkpt>
  <trkpt lat="37.02551601" lon="35.34390145"><ele>62.881</ele><time>2026-09-26T12:31:07Z</time><speed>0.300</speed><sat>32</sat></trkpt>
  <trkpt lat="37.02551172" lon="35.34390611"><ele>62.130</ele><time>2026-09-26T12:31:08Z</time><speed>0.850</speed><sat>33</sat></trkpt>
  <trkpt lat="37.02550775" lon="35.34391300"><ele>61.801</ele><time>2026-09-26T12:31:09Z</time><speed>0.650</speed><sat>32</sat></trkpt>
  <trkpt lat="37.02550784" lon="35.34392665"><ele>61.235</ele><time>2026-09-26T12:31:10Z</time><speed>1.530</speed><sat>32</sat></trkpt>
  <trkpt lat="37.02550875" lon="35.34394492"><ele>61.294</ele><time>2026-09-26T12:31:11Z</time><speed>1.490</speed><sat>32</sat></trkpt>
  <trkpt lat="37.02550643" lon="35.34396699"><ele>61.403</ele><time>2026-09-26T12:31:12Z</time><speed>2.290</speed><sat>32</sat></trkpt>
  <trkpt lat="37.02550283" lon="35.34398436"><ele>61.398</ele><time>2026-09-26T12:31:13Z</time><speed>1.160</speed><sat>30</sat></trkpt>
  <trkpt lat="37.02549644" lon="35.34399568"><ele>61.051</ele><time>2026-09-26T12:31:14Z</time><speed>1.490</speed><sat>32</sat></trkpt>
  <trkpt lat="37.02548694" lon="35.34400549"><ele>60.817</ele><time>2026-09-26T12:31:15Z</time><speed>1.400</speed><sat>32</sat></trkpt>
  <trkpt lat="37.02547660" lon="35.34400988"><ele>61.100</ele><time>2026-09-26T12:31:16Z</time><speed>1.280</speed><sat>32</sat></trkpt>
  <trkpt lat="37.02546734" lon="35.34401189"><ele>60.292</ele><time>2026-09-26T12:31:17Z</time><speed>1.260</speed><sat>32</sat></trkpt>
  <trkpt lat="37.02545933" lon="35.34401298"><ele>60.111</ele><time>2026-09-26T12:31:18Z</time><speed>0.870</speed><sat>30</sat></trkpt>
  <trkpt lat="37.02545084" lon="35.34401280"><ele>61.069</ele><time>2026-09-26T12:31:19Z</time><speed>1.180</speed><sat>30</sat></trkpt>
  <trkpt lat="37.02544208" lon="35.34401271"><ele>61.886</ele><time>2026-09-26T12:31:20Z</time><speed>1.040</speed><sat>31</sat></trkpt>
  <trkpt lat="37.02543310" lon="35.34401422"><ele>62.493</ele><time>2026-09-26T12:31:21Z</time><speed>1.310</speed><sat>30</sat></trkpt>
  <trkpt lat="37.02542538" lon="35.34401610"><ele>63.313</ele><time>2026-09-26T12:31:22Z</time><speed>0.710</speed><sat>30</sat></trkpt>
  <trkpt lat="37.02541809" lon="35.34401667"><ele>63.253</ele><time>2026-09-26T12:31:23Z</time><speed>1.070</speed><sat>30</sat></trkpt>
  <trkpt lat="37.02540829" lon="35.34401678"><ele>63.663</ele><time>2026-09-26T12:31:24Z</time><speed>1.230</speed><sat>30</sat></trkpt>
  <trkpt lat="37.02539687" lon="35.34401646"><ele>63.512</ele><time>2026-09-26T12:31:25Z</time><speed>1.410</speed><sat>29</sat></trkpt>
  <trkpt lat="37.02538314" lon="35.34401669"><ele>63.567</ele><time>2026-09-26T12:31:26Z</time><speed>1.660</speed><sat>29</sat></trkpt>
  <trkpt lat="37.02536415" lon="35.34401133"><ele>64.350</ele><time>2026-09-26T12:31:27Z</time><speed>1.970</speed><sat>29</sat></trkpt>
  <trkpt lat="37.02534551" lon="35.34400539"><ele>64.460</ele><time>2026-09-26T12:31:28Z</time><speed>1.970</speed><sat>32</sat></trkpt>
  <trkpt lat="37.02532761" lon="35.34399728"><ele>64.819</ele><time>2026-09-26T12:31:29Z</time><speed>2.000</speed><sat>32</sat></trkpt>
  <trkpt lat="37.02531141" lon="35.34398601"><ele>64.356</ele><time>2026-09-26T12:31:30Z</time><speed>1.960</speed><sat>32</sat></trkpt>
  <trkpt lat="37.02529641" lon="35.34397340"><ele>64.708</ele><time>2026-09-26T12:31:31Z</time><speed>1.930</speed><sat>32</sat></trkpt>
  <trkpt lat="37.02528567" lon="35.34396863"><ele>64.134</ele><time>2026-09-26T12:31:32Z</time><speed>1.440</speed><sat>32</sat></trkpt>
  <trkpt lat="37.02527761" lon="35.34396768"><ele>64.469</ele><time>2026-09-26T12:31:33Z</time><speed>1.300</speed><sat>32</sat></trkpt>
  <trkpt lat="37.02527064" lon="35.34396816"><ele>64.410</ele><time>2026-09-26T12:31:34Z</time><speed>1.040</speed><sat>32</sat></trkpt>
  <trkpt lat="37.02526163" lon="35.34396751"><ele>64.826</ele><time>2026-09-26T12:31:35Z</time><speed>1.370</speed><sat>32</sat></trkpt>
  <trkpt lat="37.02525173" lon="35.34396458"><ele>64.848</ele><time>2026-09-26T12:31:36Z</time><speed>1.310</speed><sat>32</sat></trkpt>
  <trkpt lat="37.02524045" lon="35.34396537"><ele>65.485</ele><time>2026-09-26T12:31:37Z</time><speed>1.450</speed><sat>32</sat></trkpt>
  <trkpt lat="37.02523060" lon="35.34396487"><ele>65.351</ele><time>2026-09-26T12:31:38Z</time><speed>1.250</speed><sat>32</sat></trkpt>
  <trkpt lat="37.02522028" lon="35.34396168"><ele>65.558</ele><time>2026-09-26T12:31:39Z</time><speed>1.360</speed><sat>32</sat></trkpt>
  <trkpt lat="37.02521273" lon="35.34395729"><ele>63.832</ele><time>2026-09-26T12:31:40Z</time><speed>0.920</speed><sat>31</sat></trkpt>
  <trkpt lat="37.02520582" lon="35.34395276"><ele>62.597</ele><time>2026-09-26T12:31:41Z</time><speed>1.080</speed><sat>30</sat></trkpt>
  <trkpt lat="37.02519857" lon="35.34394976"><ele>62.681</ele><time>2026-09-26T12:31:42Z</time><speed>0.960</speed><sat>30</sat></trkpt>
  <trkpt lat="37.02518810" lon="35.34394756"><ele>62.842</ele><time>2026-09-26T12:31:43Z</time><speed>1.600</speed><sat>31</sat></trkpt>
  <trkpt lat="37.02517726" lon="35.34394471"><ele>60.988</ele><time>2026-09-26T12:31:44Z</time><speed>1.220</speed><sat>30</sat></trkpt>
  <trkpt lat="37.02516736" lon="35.34394471"><ele>60.848</ele><time>2026-09-26T12:31:45Z</time><speed>1.310</speed><sat>31</sat></trkpt>
  <trkpt lat="37.02515587" lon="35.34394258"><ele>60.527</ele><time>2026-09-26T12:31:46Z</time><speed>1.510</speed><sat>31</sat></trkpt>
  <trkpt lat="37.02514514" lon="35.34393819"><ele>60.594</ele><time>2026-09-26T12:31:47Z</time><speed>1.260</speed><sat>30</sat></trkpt>
  <trkpt lat="37.02513560" lon="35.34393256"><ele>60.757</ele><time>2026-09-26T12:31:48Z</time><speed>1.260</speed><sat>30</sat></trkpt>
  <trkpt lat="37.02512574" lon="35.34392793"><ele>60.076</ele><time>2026-09-26T12:31:49Z</time><speed>1.320</speed><sat>28</sat></trkpt>
  <trkpt lat="37.02511732" lon="35.34392458"><ele>60.408</ele><time>2026-09-26T12:31:50Z</time><speed>1.180</speed><sat>28</sat></trkpt>
  <trkpt lat="37.02510897" lon="35.34391986"><ele>60.581</ele><time>2026-09-26T12:31:51Z</time><speed>1.260</speed><sat>27</sat></trkpt>
  <trkpt lat="37.02509924" lon="35.34391381"><ele>60.813</ele><time>2026-09-26T12:31:52Z</time><speed>1.420</speed><sat>27</sat></trkpt>
  <trkpt lat="37.02508960" lon="35.34390790"><ele>61.279</ele><time>2026-09-26T12:31:53Z</time><speed>1.390</speed><sat>29</sat></trkpt>
  <trkpt lat="37.02507932" lon="35.34390377"><ele>61.868</ele><time>2026-09-26T12:31:54Z</time><speed>1.420</speed><sat>29</sat></trkpt>
  <trkpt lat="37.02506918" lon="35.34390067"><ele>62.431</ele><time>2026-09-26T12:31:55Z</time><speed>1.360</speed><sat>30</sat></trkpt>
  <trkpt lat="37.02505930" lon="35.34389970"><ele>62.836</ele><time>2026-09-26T12:31:56Z</time><speed>1.330</speed><sat>30</sat></trkpt>
  <trkpt lat="37.02505110" lon="35.34390544"><ele>63.107</ele><time>2026-09-26T12:31:57Z</time><speed>1.360</speed><sat>28</sat></trkpt>
  <trkpt lat="37.02505120" lon="35.34391220"><ele>62.829</ele><time>2026-09-26T12:31:58Z</time><speed>0.000</speed><sat>28</sat></trkpt>
  <trkpt lat="37.02505584" lon="35.34391795"><ele>63.509</ele><time>2026-09-26T12:31:59Z</time><speed>0.000</speed><sat>27</sat></trkpt>
  <trkpt lat="37.02506577" lon="35.34392700"><ele>63.988</ele><time>2026-09-26T12:32:00Z</time><speed>0.000</speed><sat>27</sat></trkpt>
  <trkpt lat="37.02507091" lon="35.34393323"><ele>64.186</ele><time>2026-09-26T12:32:01Z</time><speed>0.000</speed><sat>26</sat></trkpt>
  <trkpt lat="37.02507348" lon="35.34393634"><ele>64.187</ele><time>2026-09-26T12:32:02Z</time><speed>0.000</speed><sat>26</sat></trkpt>
  <trkpt lat="37.02507477" lon="35.34393789"><ele>64.185</ele><time>2026-09-26T12:32:03Z</time><speed>0.000</speed><sat>24</sat></trkpt>
  <trkpt lat="37.02507519" lon="35.34393839"><ele>64.186</ele><time>2026-09-26T12:32:04Z</time><speed>0.000</speed><sat>23</sat></trkpt>
  <trkpt lat="37.02507194" lon="35.34393444"><ele>63.674</ele><time>2026-09-26T12:32:05Z</time><speed>0.520</speed><sat>21</sat></trkpt>
  <trkpt lat="37.02506534" lon="35.34393304"><ele>63.287</ele><time>2026-09-26T12:32:06Z</time><speed>0.660</speed><sat>21</sat></trkpt>
  <trkpt lat="37.02506085" lon="35.34392583"><ele>63.333</ele><time>2026-09-26T12:32:07Z</time><speed>0.000</speed><sat>23</sat></trkpt>
  <trkpt lat="37.02505558" lon="35.34392370"><ele>61.847</ele><time>2026-09-26T12:32:08Z</time><speed>0.160</speed><sat>26</sat></trkpt>
  <trkpt lat="37.02505068" lon="35.34392152"><ele>61.849</ele><time>2026-09-26T12:32:09Z</time><speed>0.000</speed><sat>27</sat></trkpt>
  <trkpt lat="37.02505017" lon="35.34392098"><ele>61.684</ele><time>2026-09-26T12:32:10Z</time><speed>0.000</speed><sat>28</sat></trkpt>
  <trkpt lat="37.02505150" lon="35.34391937"><ele>61.418</ele><time>2026-09-26T12:32:11Z</time><speed>0.000</speed><sat>29</sat></trkpt>
  <trkpt lat="37.02505317" lon="35.34391500"><ele>61.093</ele><time>2026-09-26T12:32:12Z</time><speed>0.000</speed><sat>30</sat></trkpt>
  <trkpt lat="37.02505407" lon="35.34391285"><ele>61.080</ele><time>2026-09-26T12:32:13Z</time><speed>0.000</speed><sat>30</sat></trkpt>
  <trkpt lat="37.02505457" lon="35.34391275"><ele>60.475</ele><time>2026-09-26T12:32:14Z</time><speed>0.000</speed><sat>29</sat></trkpt>
  <trkpt lat="37.02505518" lon="35.34391273"><ele>60.419</ele><time>2026-09-26T12:32:15Z</time><speed>0.000</speed><sat>28</sat></trkpt>
  <trkpt lat="37.02505552" lon="35.34391273"><ele>60.419</ele><time>2026-09-26T12:32:16Z</time><speed>0.000</speed><sat>28</sat></trkpt>
  <trkpt lat="37.02505567" lon="35.34391272"><ele>60.419</ele><time>2026-09-26T12:32:17Z</time><speed>0.000</speed><sat>28</sat></trkpt>
  <trkpt lat="37.02505577" lon="35.34391272"><ele>60.415</ele><time>2026-09-26T12:32:18Z</time><speed>0.000</speed><sat>28</sat></trkpt>
  <trkpt lat="37.02505583" lon="35.34391274"><ele>60.413</ele><time>2026-09-26T12:32:19Z</time><speed>0.000</speed><sat>28</sat></trkpt>
  <trkpt lat="37.02505892" lon="35.34391325"><ele>61.688</ele><time>2026-09-26T12:32:20Z</time><speed>0.420</speed><sat>27</sat></trkpt>
  <trkpt lat="37.02506492" lon="35.34391021"><ele>61.553</ele><time>2026-09-26T12:32:21Z</time><speed>0.840</speed><sat>28</sat></trkpt>
  <trkpt lat="37.02507167" lon="35.34390184"><ele>61.344</ele><time>2026-09-26T12:32:22Z</time><speed>1.180</speed><sat>28</sat></trkpt>
  <trkpt lat="37.02507101" lon="35.34390105"><ele>61.459</ele><time>2026-09-26T12:32:23Z</time><speed>0.000</speed><sat>28</sat></trkpt>
  <trkpt lat="37.02506884" lon="35.34390283"><ele>61.467</ele><time>2026-09-26T12:32:24Z</time><speed>0.000</speed><sat>28</sat></trkpt>
  <trkpt lat="37.02506780" lon="35.34390378"><ele>61.469</ele><time>2026-09-26T12:32:25Z</time><speed>0.000</speed><sat>29</sat></trkpt>
  <trkpt lat="37.02506727" lon="35.34390425"><ele>61.464</ele><time>2026-09-26T12:32:26Z</time><speed>0.000</speed><sat>29</sat></trkpt>
  <trkpt lat="37.02506699" lon="35.34390448"><ele>61.457</ele><time>2026-09-26T12:32:27Z</time><speed>0.000</speed><sat>28</sat></trkpt>
  <trkpt lat="37.02506786" lon="35.34390841"><ele>61.639</ele><time>2026-09-26T12:32:28Z</time><speed>0.000</speed><sat>28</sat></trkpt>
  <trkpt lat="37.02507678" lon="35.34390282"><ele>61.697</ele><time>2026-09-26T12:32:29Z</time><speed>1.450</speed><sat>31</sat></trkpt>
  <trkpt lat="37.02508430" lon="35.34390134"><ele>61.887</ele><time>2026-09-26T12:32:30Z</time><speed>0.000</speed><sat>31</sat></trkpt>
  <trkpt lat="37.02508828" lon="35.34390030"><ele>61.841</ele><time>2026-09-26T12:32:31Z</time><speed>0.000</speed><sat>31</sat></trkpt>
  <trkpt lat="37.02509039" lon="35.34389979"><ele>61.841</ele><time>2026-09-26T12:32:32Z</time><speed>0.000</speed><sat>31</sat></trkpt>
  <trkpt lat="37.02509146" lon="35.34389956"><ele>61.841</ele><time>2026-09-26T12:32:33Z</time><speed>0.000</speed><sat>31</sat></trkpt>
  <trkpt lat="37.02509199" lon="35.34389941"><ele>61.843</ele><time>2026-09-26T12:32:34Z</time><speed>0.000</speed><sat>31</sat></trkpt>
  <trkpt lat="37.02509225" lon="35.34389931"><ele>61.847</ele><time>2026-09-26T12:32:35Z</time><speed>0.000</speed><sat>21</sat></trkpt>
  <trkpt lat="37.02509238" lon="35.34389928"><ele>61.847</ele><time>2026-09-26T12:32:36Z</time><speed>0.000</speed><sat>19</sat></trkpt>
  <trkpt lat="37.02509243" lon="35.34389928"><ele>61.848</ele><time>2026-09-26T12:32:37Z</time><speed>0.000</speed><sat>20</sat></trkpt>
  <trkpt lat="37.02509244" lon="35.34389930"><ele>61.847</ele><time>2026-09-26T12:32:38Z</time><speed>0.000</speed><sat>21</sat></trkpt>
  <trkpt lat="37.02509244" lon="35.34389932"><ele>61.845</ele><time>2026-09-26T12:32:39Z</time><speed>0.000</speed><sat>21</sat></trkpt>
  <trkpt lat="37.02509244" lon="35.34389934"><ele>61.844</ele><time>2026-09-26T12:32:40Z</time><speed>0.000</speed><sat>22</sat></trkpt>
  <trkpt lat="37.02509242" lon="35.34389938"><ele>61.843</ele><time>2026-09-26T12:32:41Z</time><speed>0.000</speed><sat>22</sat></trkpt>
  <trkpt lat="37.02509240" lon="35.34389941"><ele>61.841</ele><time>2026-09-26T12:32:42Z</time><speed>0.000</speed><sat>22</sat></trkpt>
  <trkpt lat="37.02509239" lon="35.34389943"><ele>61.845</ele><time>2026-09-26T12:32:43Z</time><speed>0.000</speed><sat>22</sat></trkpt>
  <trkpt lat="37.02509238" lon="35.34389944"><ele>61.843</ele><time>2026-09-26T12:32:44Z</time><speed>0.000</speed><sat>23</sat></trkpt>
  <trkpt lat="37.02509237" lon="35.34389947"><ele>61.842</ele><time>2026-09-26T12:32:45Z</time><speed>0.000</speed><sat>23</sat></trkpt>
  <trkpt lat="37.02509235" lon="35.34389952"><ele>61.843</ele><time>2026-09-26T12:32:46Z</time><speed>0.000</speed><sat>22</sat></trkpt>
  <trkpt lat="37.02509233" lon="35.34389957"><ele>61.843</ele><time>2026-09-26T12:32:47Z</time><speed>0.000</speed><sat>23</sat></trkpt>
  <trkpt lat="37.02509232" lon="35.34389961"><ele>61.842</ele><time>2026-09-26T12:32:48Z</time><speed>0.000</speed><sat>24</sat></trkpt>
  <trkpt lat="37.02509230" lon="35.34389966"><ele>61.842</ele><time>2026-09-26T12:32:49Z</time><speed>0.000</speed><sat>23</sat></trkpt>
  <trkpt lat="37.02509228" lon="35.34389974"><ele>61.843</ele><time>2026-09-26T12:32:50Z</time><speed>0.000</speed><sat>23</sat></trkpt>
  <trkpt lat="37.02509226" lon="35.34389980"><ele>61.842</ele><time>2026-09-26T12:32:51Z</time><speed>0.000</speed><sat>22</sat></trkpt>
  <trkpt lat="37.02509224" lon="35.34389987"><ele>61.842</ele><time>2026-09-26T12:32:52Z</time><speed>0.000</speed><sat>23</sat></trkpt>
  <trkpt lat="37.02509367" lon="35.34390345"><ele>61.920</ele><time>2026-09-26T12:32:53Z</time><speed>0.720</speed><sat>23</sat></trkpt>
  <trkpt lat="37.02509136" lon="35.34391335"><ele>62.122</ele><time>2026-09-26T12:32:54Z</time><speed>0.000</speed><sat>26</sat></trkpt>
  <trkpt lat="37.02507931" lon="35.34393549"><ele>62.234</ele><time>2026-09-26T12:32:55Z</time><speed>2.180</speed><sat>28</sat></trkpt>
  <trkpt lat="37.02507316" lon="35.34394689"><ele>62.295</ele><time>2026-09-26T12:32:56Z</time><speed>0.000</speed><sat>26</sat></trkpt>
  <trkpt lat="37.02507153" lon="35.34394688"><ele>62.294</ele><time>2026-09-26T12:32:57Z</time><speed>0.000</speed><sat>25</sat></trkpt>
  <trkpt lat="37.02507070" lon="35.34394687"><ele>62.294</ele><time>2026-09-26T12:32:58Z</time><speed>0.000</speed><sat>25</sat></trkpt>
  <trkpt lat="37.02507030" lon="35.34394686"><ele>62.295</ele><time>2026-09-26T12:32:59Z</time><speed>0.000</speed><sat>28</sat></trkpt>
  <trkpt lat="37.02507010" lon="35.34394686"><ele>62.295</ele><time>2026-09-26T12:33:00Z</time><speed>0.000</speed><sat>28</sat></trkpt>
  <trkpt lat="37.02506998" lon="35.34394687"><ele>62.293</ele><time>2026-09-26T12:33:01Z</time><speed>0.000</speed><sat>27</sat></trkpt>
  <trkpt lat="37.02506989" lon="35.34394692"><ele>62.294</ele><time>2026-09-26T12:33:02Z</time><speed>0.000</speed><sat>23</sat></trkpt>
  <trkpt lat="37.02506984" lon="35.34394696"><ele>62.294</ele><time>2026-09-26T12:33:03Z</time><speed>0.000</speed><sat>24</sat></trkpt>
  <trkpt lat="37.02506979" lon="35.34394700"><ele>62.294</ele><time>2026-09-26T12:33:04Z</time><speed>0.000</speed><sat>24</sat></trkpt>
  <trkpt lat="37.02506977" lon="35.34394701"><ele>62.295</ele><time>2026-09-26T12:33:05Z</time><speed>0.000</speed><sat>25</sat></trkpt>
  <trkpt lat="37.02506976" lon="35.34394701"><ele>62.295</ele><time>2026-09-26T12:33:06Z</time><speed>0.000</speed><sat>25</sat></trkpt>
  <trkpt lat="37.02506974" lon="35.34394699"><ele>62.295</ele><time>2026-09-26T12:33:07Z</time><speed>0.000</speed><sat>25</sat></trkpt>
  <trkpt lat="37.02506973" lon="35.34394697"><ele>62.296</ele><time>2026-09-26T12:33:08Z</time><speed>0.000</speed><sat>27</sat></trkpt>
  <trkpt lat="37.02506974" lon="35.34394694"><ele>62.296</ele><time>2026-09-26T12:33:09Z</time><speed>0.000</speed><sat>26</sat></trkpt>
  <trkpt lat="37.02506976" lon="35.34394690"><ele>62.298</ele><time>2026-09-26T12:33:10Z</time><speed>0.000</speed><sat>25</sat></trkpt>
  <trkpt lat="37.02506978" lon="35.34394690"><ele>62.299</ele><time>2026-09-26T12:33:11Z</time><speed>0.000</speed><sat>25</sat></trkpt>
  <trkpt lat="37.02506978" lon="35.34394689"><ele>62.299</ele><time>2026-09-26T12:33:12Z</time><speed>0.000</speed><sat>25</sat></trkpt>
  <trkpt lat="37.02506979" lon="35.34394688"><ele>62.300</ele><time>2026-09-26T12:33:13Z</time><speed>0.000</speed><sat>25</sat></trkpt>
  <trkpt lat="37.02506980" lon="35.34394688"><ele>62.301</ele><time>2026-09-26T12:33:14Z</time><speed>0.000</speed><sat>24</sat></trkpt>
  <trkpt lat="37.02506979" lon="35.34394692"><ele>62.303</ele><time>2026-09-26T12:33:15Z</time><speed>0.000</speed><sat>24</sat></trkpt>
  <trkpt lat="37.02506979" lon="35.34394691"><ele>62.305</ele><time>2026-09-26T12:33:16Z</time><speed>0.000</speed><sat>24</sat></trkpt>
  <trkpt lat="37.02506977" lon="35.34394687"><ele>62.306</ele><time>2026-09-26T12:33:17Z</time><speed>0.000</speed><sat>23</sat></trkpt>
  <trkpt lat="37.02506976" lon="35.34394683"><ele>62.309</ele><time>2026-09-26T12:33:18Z</time><speed>0.000</speed><sat>23</sat></trkpt>
  <trkpt lat="37.02506974" lon="35.34394680"><ele>62.309</ele><time>2026-09-26T12:33:19Z</time><speed>0.000</speed><sat>23</sat></trkpt>
  <trkpt lat="37.02506961" lon="35.34394672"><ele>62.341</ele><time>2026-09-26T12:33:20Z</time><speed>0.000</speed><sat>24</sat></trkpt>
  <trkpt lat="37.02506947" lon="35.34394661"><ele>62.365</ele><time>2026-09-26T12:33:21Z</time><speed>0.000</speed><sat>25</sat></trkpt>
  <trkpt lat="37.02506938" lon="35.34394656"><ele>62.360</ele><time>2026-09-26T12:33:22Z</time><speed>0.000</speed><sat>25</sat></trkpt>
  <trkpt lat="37.02506932" lon="35.34394661"><ele>62.371</ele><time>2026-09-26T12:33:23Z</time><speed>0.000</speed><sat>26</sat></trkpt>
  <trkpt lat="37.02506932" lon="35.34394660"><ele>62.367</ele><time>2026-09-26T12:33:24Z</time><speed>0.000</speed><sat>26</sat></trkpt>
  <trkpt lat="37.02506746" lon="35.34394486"><ele>63.007</ele><time>2026-09-26T12:33:25Z</time><speed>0.200</speed><sat>25</sat></trkpt>
  <trkpt lat="37.02506730" lon="35.34394209"><ele>63.122</ele><time>2026-09-26T12:33:26Z</time><speed>0.000</speed><sat>28</sat></trkpt>
  <trkpt lat="37.02506754" lon="35.34394083"><ele>63.164</ele><time>2026-09-26T12:33:27Z</time><speed>0.000</speed><sat>28</sat></trkpt>
  <trkpt lat="37.02506767" lon="35.34394018"><ele>63.140</ele><time>2026-09-26T12:33:28Z</time><speed>0.000</speed><sat>29</sat></trkpt>
  <trkpt lat="37.02506772" lon="35.34393985"><ele>63.139</ele><time>2026-09-26T12:33:29Z</time><speed>0.000</speed><sat>32</sat></trkpt>
  <trkpt lat="37.02506774" lon="35.34393964"><ele>63.123</ele><time>2026-09-26T12:33:30Z</time><speed>0.000</speed><sat>32</sat></trkpt>
  <trkpt lat="37.02506652" lon="35.34394065"><ele>63.174</ele><time>2026-09-26T12:33:31Z</time><speed>0.220</speed><sat>32</sat></trkpt>
  <trkpt lat="37.02506611" lon="35.34394111"><ele>63.067</ele><time>2026-09-26T12:33:32Z</time><speed>0.000</speed><sat>29</sat></trkpt>
  <trkpt lat="37.02506659" lon="35.34394101"><ele>62.995</ele><time>2026-09-26T12:33:33Z</time><speed>0.000</speed><sat>30</sat></trkpt>
  <trkpt lat="37.02506684" lon="35.34394096"><ele>62.995</ele><time>2026-09-26T12:33:34Z</time><speed>0.000</speed><sat>30</sat></trkpt>
  <trkpt lat="37.02506696" lon="35.34394096"><ele>62.996</ele><time>2026-09-26T12:33:35Z</time><speed>0.000</speed><sat>28</sat></trkpt>
  <trkpt lat="37.02506702" lon="35.34394093"><ele>62.996</ele><time>2026-09-26T12:33:36Z</time><speed>0.000</speed><sat>28</sat></trkpt>
  <trkpt lat="37.02506706" lon="35.34394089"><ele>62.997</ele><time>2026-09-26T12:33:37Z</time><speed>0.000</speed><sat>23</sat></trkpt>
  <trkpt lat="37.02506710" lon="35.34394082"><ele>62.997</ele><time>2026-09-26T12:33:38Z</time><speed>0.000</speed><sat>23</sat></trkpt>
  <trkpt lat="37.02506712" lon="35.34394076"><ele>62.998</ele><time>2026-09-26T12:33:39Z</time><speed>0.000</speed><sat>24</sat></trkpt>
  <trkpt lat="37.02506715" lon="35.34394068"><ele>62.999</ele><time>2026-09-26T12:33:40Z</time><speed>0.000</speed><sat>24</sat></trkpt>
  <trkpt lat="37.02506717" lon="35.34394062"><ele>63.000</ele><time>2026-09-26T12:33:41Z</time><speed>0.000</speed><sat>24</sat></trkpt>
  <trkpt lat="37.02506718" lon="35.34394056"><ele>62.999</ele><time>2026-09-26T12:33:42Z</time><speed>0.000</speed><sat>24</sat></trkpt>
  <trkpt lat="37.02506720" lon="35.34394051"><ele>63.000</ele><time>2026-09-26T12:33:43Z</time><speed>0.000</speed><sat>25</sat></trkpt>
  <trkpt lat="37.02506720" lon="35.34394047"><ele>63.000</ele><time>2026-09-26T12:33:44Z</time><speed>0.000</speed><sat>25</sat></trkpt>
  <trkpt lat="37.02506719" lon="35.34394042"><ele>63.005</ele><time>2026-09-26T12:33:45Z</time><speed>0.000</speed><sat>23</sat></trkpt>
  <trkpt lat="37.02506715" lon="35.34394038"><ele>63.009</ele><time>2026-09-26T12:33:46Z</time><speed>0.000</speed><sat>23</sat></trkpt>
  <trkpt lat="37.02506712" lon="35.34394033"><ele>63.010</ele><time>2026-09-26T12:33:47Z</time><speed>0.000</speed><sat>24</sat></trkpt>
  <trkpt lat="37.02506709" lon="35.34394028"><ele>63.013</ele><time>2026-09-26T12:33:48Z</time><speed>0.000</speed><sat>24</sat></trkpt>
  <trkpt lat="37.02506707" lon="35.34394023"><ele>63.016</ele><time>2026-09-26T12:33:49Z</time><speed>0.000</speed><sat>24</sat></trkpt>
  <trkpt lat="37.02506602" lon="35.34393696"><ele>63.279</ele><time>2026-09-26T12:33:50Z</time><speed>0.240</speed><sat>25</sat></trkpt>
  <trkpt lat="37.02506398" lon="35.34393296"><ele>63.418</ele><time>2026-09-26T12:33:51Z</time><speed>0.330</speed><sat>26</sat></trkpt>
  <trkpt lat="37.02506098" lon="35.34393063"><ele>63.476</ele><time>2026-09-26T12:33:52Z</time><speed>0.580</speed><sat>29</sat></trkpt>
  <trkpt lat="37.02505173" lon="35.34392474"><ele>63.816</ele><time>2026-09-26T12:33:53Z</time><speed>1.330</speed><sat>27</sat></trkpt>
  <trkpt lat="37.02503843" lon="35.34391669"><ele>63.766</ele><time>2026-09-26T12:33:54Z</time><speed>1.600</speed><sat>28</sat></trkpt>
  <trkpt lat="37.02502358" lon="35.34389796"><ele>64.059</ele><time>2026-09-26T12:33:55Z</time><speed>1.710</speed><sat>28</sat></trkpt>
  <trkpt lat="37.02500921" lon="35.34388756"><ele>61.191</ele><time>2026-09-26T12:33:56Z</time><speed>1.180</speed><sat>28</sat></trkpt>
  <trkpt lat="37.02499679" lon="35.34388075"><ele>61.129</ele><time>2026-09-26T12:33:57Z</time><speed>1.250</speed><sat>29</sat></trkpt>
  <trkpt lat="37.02498572" lon="35.34387844"><ele>61.294</ele><time>2026-09-26T12:33:58Z</time><speed>1.000</speed><sat>28</sat></trkpt>
  <trkpt lat="37.02497168" lon="35.34387096"><ele>60.716</ele><time>2026-09-26T12:33:59Z</time><speed>1.630</speed><sat>28</sat></trkpt>
  <trkpt lat="37.02495758" lon="35.34386530"><ele>60.922</ele><time>2026-09-26T12:34:00Z</time><speed>1.420</speed><sat>28</sat></trkpt>
  <trkpt lat="37.02494409" lon="35.34385755"><ele>63.296</ele><time>2026-09-26T12:34:01Z</time><speed>1.750</speed><sat>28</sat></trkpt>
  <trkpt lat="37.02493116" lon="35.34384991"><ele>63.252</ele><time>2026-09-26T12:34:02Z</time><speed>1.420</speed><sat>28</sat></trkpt>
  <trkpt lat="37.02492023" lon="35.34384126"><ele>62.715</ele><time>2026-09-26T12:34:03Z</time><speed>1.290</speed><sat>28</sat></trkpt>
  <trkpt lat="37.02491074" lon="35.34383710"><ele>63.459</ele><time>2026-09-26T12:34:04Z</time><speed>1.170</speed><sat>29</sat></trkpt>
  <trkpt lat="37.02490404" lon="35.34383623"><ele>64.305</ele><time>2026-09-26T12:34:05Z</time><speed>0.940</speed><sat>30</sat></trkpt>
  <trkpt lat="37.02489907" lon="35.34383593"><ele>64.068</ele><time>2026-09-26T12:34:06Z</time><speed>0.710</speed><sat>30</sat></trkpt>
  <trkpt lat="37.02490359" lon="35.34383690"><ele>63.944</ele><time>2026-09-26T12:34:07Z</time><speed>0.000</speed><sat>30</sat></trkpt>
  <trkpt lat="37.02490745" lon="35.34383762"><ele>63.950</ele><time>2026-09-26T12:34:08Z</time><speed>0.000</speed><sat>30</sat></trkpt>
  <trkpt lat="37.02490952" lon="35.34383810"><ele>63.952</ele><time>2026-09-26T12:34:09Z</time><speed>0.000</speed><sat>31</sat></trkpt>
  <trkpt lat="37.02491064" lon="35.34383839"><ele>63.948</ele><time>2026-09-26T12:34:10Z</time><speed>0.000</speed><sat>32</sat></trkpt>
  <trkpt lat="37.02491118" lon="35.34383855"><ele>63.951</ele><time>2026-09-26T12:34:11Z</time><speed>0.000</speed><sat>32</sat></trkpt>
  <trkpt lat="37.02491144" lon="35.34383865"><ele>63.942</ele><time>2026-09-26T12:34:12Z</time><speed>0.000</speed><sat>32</sat></trkpt>
  <trkpt lat="37.02491154" lon="35.34383867"><ele>63.944</ele><time>2026-09-26T12:34:13Z</time><speed>0.000</speed><sat>32</sat></trkpt>
  <trkpt lat="37.02491163" lon="35.34383873"><ele>63.954</ele><time>2026-09-26T12:34:14Z</time><speed>0.000</speed><sat>33</sat></trkpt>
  <trkpt lat="37.02491168" lon="35.34383878"><ele>63.956</ele><time>2026-09-26T12:34:15Z</time><speed>0.000</speed><sat>31</sat></trkpt>
  <trkpt lat="37.02491188" lon="35.34383891"><ele>63.950</ele><time>2026-09-26T12:34:16Z</time><speed>0.000</speed><sat>31</sat></trkpt>
  <trkpt lat="37.02491195" lon="35.34383897"><ele>63.936</ele><time>2026-09-26T12:34:17Z</time><speed>0.000</speed><sat>30</sat></trkpt>
  <trkpt lat="37.02491199" lon="35.34383898"><ele>63.937</ele><time>2026-09-26T12:34:18Z</time><speed>0.000</speed><sat>32</sat></trkpt>
  <trkpt lat="37.02491198" lon="35.34383900"><ele>63.932</ele><time>2026-09-26T12:34:19Z</time><speed>0.000</speed><sat>32</sat></trkpt>
  <trkpt lat="37.02491195" lon="35.34383897"><ele>63.931</ele><time>2026-09-26T12:34:20Z</time><speed>0.000</speed><sat>30</sat></trkpt>
  <trkpt lat="37.02491193" lon="35.34383895"><ele>63.924</ele><time>2026-09-26T12:34:21Z</time><speed>0.000</speed><sat>30</sat></trkpt>
  <trkpt lat="37.02491196" lon="35.34383894"><ele>63.919</ele><time>2026-09-26T12:34:22Z</time><speed>0.000</speed><sat>30</sat></trkpt>
  <trkpt lat="37.02491205" lon="35.34383899"><ele>63.912</ele><time>2026-09-26T12:34:23Z</time><speed>0.000</speed><sat>29</sat></trkpt>
  <trkpt lat="37.02491216" lon="35.34383903"><ele>63.905</ele><time>2026-09-26T12:34:24Z</time><speed>0.000</speed><sat>29</sat></trkpt>
  <trkpt lat="37.02491161" lon="35.34384024"><ele>63.929</ele><time>2026-09-26T12:34:25Z</time><speed>0.190</speed><sat>30</sat></trkpt>
  <trkpt lat="37.02491031" lon="35.34384279"><ele>63.486</ele><time>2026-09-26T12:34:26Z</time><speed>0.290</speed><sat>31</sat></trkpt>
  <trkpt lat="37.02490826" lon="35.34384694"><ele>63.837</ele><time>2026-09-26T12:34:27Z</time><speed>0.370</speed><sat>31</sat></trkpt>
  <trkpt lat="37.02489945" lon="35.34385185"><ele>64.472</ele><time>2026-09-26T12:34:28Z</time><speed>1.040</speed><sat>32</sat></trkpt>
  <trkpt lat="37.02488982" lon="35.34385969"><ele>64.463</ele><time>2026-09-26T12:34:29Z</time><speed>1.060</speed><sat>34</sat></trkpt>
  <trkpt lat="37.02488211" lon="35.34387097"><ele>64.433</ele><time>2026-09-26T12:34:30Z</time><speed>1.300</speed><sat>34</sat></trkpt>
  <trkpt lat="37.02487198" lon="35.34388961"><ele>65.425</ele><time>2026-09-26T12:34:31Z</time><speed>1.900</speed><sat>34</sat></trkpt>
  <trkpt lat="37.02486272" lon="35.34391161"><ele>64.806</ele><time>2026-09-26T12:34:32Z</time><speed>1.690</speed><sat>36</sat></trkpt>
  <trkpt lat="37.02485460" lon="35.34393228"><ele>64.572</ele><time>2026-09-26T12:34:33Z</time><speed>1.760</speed><sat>36</sat></trkpt>
  <trkpt lat="37.02484775" lon="35.34395153"><ele>65.018</ele><time>2026-09-26T12:34:34Z</time><speed>1.580</speed><sat>36</sat></trkpt>
  <trkpt lat="37.02484218" lon="35.34396302"><ele>65.537</ele><time>2026-09-26T12:34:35Z</time><speed>0.550</speed><sat>36</sat></trkpt>
  <trkpt lat="37.02483653" lon="35.34396783"><ele>64.289</ele><time>2026-09-26T12:34:36Z</time><speed>0.680</speed><sat>36</sat></trkpt>
  <trkpt lat="37.02482566" lon="35.34396607"><ele>63.767</ele><time>2026-09-26T12:34:37Z</time><speed>1.550</speed><sat>36</sat></trkpt>
  <trkpt lat="37.02481103" lon="35.34396108"><ele>63.678</ele><time>2026-09-26T12:34:38Z</time><speed>1.380</speed><sat>36</sat></trkpt>
  <trkpt lat="37.02479727" lon="35.34395558"><ele>63.113</ele><time>2026-09-26T12:34:39Z</time><speed>1.410</speed><sat>36</sat></trkpt>
  <trkpt lat="37.02478273" lon="35.34395091"><ele>63.683</ele><time>2026-09-26T12:34:40Z</time><speed>1.420</speed><sat>36</sat></trkpt>
  <trkpt lat="37.02477004" lon="35.34394562"><ele>64.804</ele><time>2026-09-26T12:34:41Z</time><speed>1.030</speed><sat>36</sat></trkpt>
  <trkpt lat="37.02476014" lon="35.34394092"><ele>64.670</ele><time>2026-09-26T12:34:42Z</time><speed>0.900</speed><sat>36</sat></trkpt>
  <trkpt lat="37.02475258" lon="35.34393820"><ele>63.747</ele><time>2026-09-26T12:34:43Z</time><speed>0.560</speed><sat>36</sat></trkpt>
  <trkpt lat="37.02474720" lon="35.34393820"><ele>64.583</ele><time>2026-09-26T12:34:44Z</time><speed>0.420</speed><sat>36</sat></trkpt>
  <trkpt lat="37.02474208" lon="35.34394088"><ele>63.755</ele><time>2026-09-26T12:34:45Z</time><speed>0.550</speed><sat>34</sat></trkpt>
  <trkpt lat="37.02473886" lon="35.34394325"><ele>63.779</ele><time>2026-09-26T12:34:46Z</time><speed>0.000</speed><sat>33</sat></trkpt>
  <trkpt lat="37.02473829" lon="35.34394357"><ele>63.776</ele><time>2026-09-26T12:34:47Z</time><speed>0.000</speed><sat>32</sat></trkpt>
  <trkpt lat="37.02473802" lon="35.34394375"><ele>63.775</ele><time>2026-09-26T12:34:48Z</time><speed>0.000</speed><sat>32</sat></trkpt>
  <trkpt lat="37.02473799" lon="35.34394431"><ele>63.869</ele><time>2026-09-26T12:34:49Z</time><speed>0.000</speed><sat>32</sat></trkpt>
  <trkpt lat="37.02473807" lon="35.34394476"><ele>63.872</ele><time>2026-09-26T12:34:50Z</time><speed>0.000</speed><sat>32</sat></trkpt>
  <trkpt lat="37.02473820" lon="35.34394486"><ele>63.871</ele><time>2026-09-26T12:34:51Z</time><speed>0.000</speed><sat>31</sat></trkpt>
  <trkpt lat="37.02473828" lon="35.34394491"><ele>63.870</ele><time>2026-09-26T12:34:52Z</time><speed>0.000</speed><sat>28</sat></trkpt>
  <trkpt lat="37.02473831" lon="35.34394494"><ele>63.871</ele><time>2026-09-26T12:34:53Z</time><speed>0.000</speed><sat>28</sat></trkpt>
  <trkpt lat="37.02473833" lon="35.34394497"><ele>63.873</ele><time>2026-09-26T12:34:54Z</time><speed>0.000</speed><sat>28</sat></trkpt>
  <trkpt lat="37.02473834" lon="35.34394497"><ele>63.873</ele><time>2026-09-26T12:34:55Z</time><speed>0.000</speed><sat>28</sat></trkpt>
  <trkpt lat="37.02473834" lon="35.34394496"><ele>63.877</ele><time>2026-09-26T12:34:56Z</time><speed>0.000</speed><sat>28</sat></trkpt>
  <trkpt lat="37.02473833" lon="35.34394497"><ele>63.882</ele><time>2026-09-26T12:34:57Z</time><speed>0.000</speed><sat>28</sat></trkpt>
  <trkpt lat="37.02473832" lon="35.34394496"><ele>63.884</ele><time>2026-09-26T12:34:58Z</time><speed>0.000</speed><sat>27</sat></trkpt>
  <trkpt lat="37.02473709" lon="35.34394220"><ele>64.826</ele><time>2026-09-26T12:34:59Z</time><speed>0.360</speed><sat>26</sat></trkpt>
  <trkpt lat="37.02473596" lon="35.34393996"><ele>64.837</ele><time>2026-09-26T12:35:00Z</time><speed>0.000</speed><sat>31</sat></trkpt>
  <trkpt lat="37.02473573" lon="35.34393973"><ele>64.839</ele><time>2026-09-26T12:35:01Z</time><speed>0.000</speed><sat>34</sat></trkpt>
  <trkpt lat="37.02473561" lon="35.34393959"><ele>64.845</ele><time>2026-09-26T12:35:02Z</time><speed>0.000</speed><sat>35</sat></trkpt>
  <trkpt lat="37.02473552" lon="35.34393947"><ele>64.860</ele><time>2026-09-26T12:35:03Z</time><speed>0.000</speed><sat>35</sat></trkpt>
  <trkpt lat="37.02473548" lon="35.34393937"><ele>64.862</ele><time>2026-09-26T12:35:04Z</time><speed>0.000</speed><sat>35</sat></trkpt>
  <trkpt lat="37.02473546" lon="35.34393926"><ele>64.869</ele><time>2026-09-26T12:35:05Z</time><speed>0.000</speed><sat>34</sat></trkpt>
 </trkseg>
</trk>

</gpx>
 