<?xml version="1.0" encoding="UTF-8"?>
<!-- Created with BasicAirData GPS Logger for Android - ver. 3.3.0 -->
<!-- Track 68 = 586 TrackPoints + 0 Placemarks -->

<!-- Track Statistics (based on Total Time | Time in Movement): -->
<!--  Distance = 11.2 km -->
<!--  Duration = 10:37 | 09:25 -->
<!--  Altitude Gap = 116 m -->
<!--  Max Speed = 115 km/h -->
<!--  Avg Speed = 63.4 | 71.5 km/h -->
<!--  Direction = NE -->
<!--  Activity = car -->
<!--  Altitudes = Raw -->

<gpx version="1.0"
     creator="BasicAirData GPS Logger 3.3.0"
     xmlns="http://www.topografix.com/GPX/1/0"
     xmlns:xsi="http://www.w3.org/2001/XMLSchema-instance"
     xsi:schemaLocation="http://www.topografix.com/GPX/1/0 http://www.topografix.com/GPX/1/0/gpx.xsd">
<name>GPS Logger 20260929-151021</name>
<time>2026-10-03T09:09:40Z</time>
<keywords>car</keywords>
<bounds minlat="39.78620794" minlon="32.75103745" maxlat="39.84909875" maxlon="32.81132494" />

<trk>
 <name>Track 20260929-151021</name>
 <trkseg>
  <trkpt lat="39.78685201" lon="32.75103745"><ele>1067.133</ele><time>2026-09-29T12:10:21Z</time><speed>23.900</speed><sat>34</sat></trkpt>
  <trkpt lat="39.78686050" lon="32.75131505"><ele>1066.046</ele><time>2026-09-29T12:10:22Z</time><speed>23.870</speed><sat>34</sat></trkpt>
  <trkpt lat="39.78685770" lon="32.75159339"><ele>1065.847</ele><time>2026-09-29T12:10:23Z</time><speed>24.020</speed><sat>34</sat></trkpt>
  <trkpt lat="39.78684854" lon="32.75187678"><ele>1065.992</ele><time>2026-09-29T12:10:24Z</time><speed>24.190</speed><sat>34</sat></trkpt>
  <trkpt lat="39.78683948" lon="32.75217361"><ele>1064.516</ele><time>2026-09-29T12:10:25Z</time><speed>25.390</speed><sat>34</sat></trkpt>
  <trkpt lat="39.78684046" lon="32.75244951"><ele>1063.647</ele><time>2026-09-29T12:10:26Z</time><speed>23.770</speed><sat>34</sat></trkpt>
  <trkpt lat="39.78681482" lon="32.75274204"><ele>1063.341</ele><time>2026-09-29T12:10:27Z</time><speed>24.980</speed><sat>34</sat></trkpt>
  <trkpt lat="39.78678356" lon="32.75300301"><ele>1061.702</ele><time>2026-09-29T12:10:28Z</time><speed>23.050</speed><sat>34</sat></trkpt>
  <trkpt lat="39.78678857" lon="32.75327147"><ele>1062.258</ele><time>2026-09-29T12:10:29Z</time><speed>22.450</speed><sat>33</sat></trkpt>
  <trkpt lat="39.78676792" lon="32.75354494"><ele>1061.716</ele><time>2026-09-29T12:10:30Z</time><speed>22.740</speed><sat>33</sat></trkpt>
  <trkpt lat="39.78674491" lon="32.75394079"><ele>1062.079</ele><time>2026-09-29T12:10:31Z</time><speed>27.400</speed><sat>33</sat></trkpt>
  <trkpt lat="39.78672842" lon="32.75424139"><ele>1061.597</ele><time>2026-09-29T12:10:32Z</time><speed>25.370</speed><sat>33</sat></trkpt>
  <trkpt lat="39.78669887" lon="32.75452761"><ele>1061.546</ele><time>2026-09-29T12:10:33Z</time><speed>25.330</speed><sat>33</sat></trkpt>
  <trkpt lat="39.78667830" lon="32.75483408"><ele>1060.149</ele><time>2026-09-29T12:10:34Z</time><speed>25.480</speed><sat>33</sat></trkpt>
  <trkpt lat="39.78667822" lon="32.75513946"><ele>1061.723</ele><time>2026-09-29T12:10:35Z</time><speed>25.590</speed><sat>34</sat></trkpt>
  <trkpt lat="39.78666830" lon="32.75544627"><ele>1062.984</ele><time>2026-09-29T12:10:36Z</time><speed>26.100</speed><sat>34</sat></trkpt>
  <trkpt lat="39.78666521" lon="32.75574807"><ele>1064.181</ele><time>2026-09-29T12:10:37Z</time><speed>25.830</speed><sat>34</sat></trkpt>
  <trkpt lat="39.78665551" lon="32.75605406"><ele>1065.013</ele><time>2026-09-29T12:10:38Z</time><speed>26.380</speed><sat>34</sat></trkpt>
  <trkpt lat="39.78665026" lon="32.75635856"><ele>1065.311</ele><time>2026-09-29T12:10:39Z</time><speed>26.050</speed><sat>34</sat></trkpt>
  <trkpt lat="39.78664283" lon="32.75666480"><ele>1065.822</ele><time>2026-09-29T12:10:40Z</time><speed>25.950</speed><sat>34</sat></trkpt>
  <trkpt lat="39.78662884" lon="32.75696964"><ele>1066.204</ele><time>2026-09-29T12:10:41Z</time><speed>25.940</speed><sat>33</sat></trkpt>
  <trkpt lat="39.78660973" lon="32.75726678"><ele>1066.450</ele><time>2026-09-29T12:10:42Z</time><speed>25.780</speed><sat>33</sat></trkpt>
  <trkpt lat="39.78659513" lon="32.75756737"><ele>1066.724</ele><time>2026-09-29T12:10:43Z</time><speed>25.890</speed><sat>33</sat></trkpt>
  <trkpt lat="39.78657979" lon="32.75786709"><ele>1066.833</ele><time>2026-09-29T12:10:44Z</time><speed>25.440</speed><sat>33</sat></trkpt>
  <trkpt lat="39.78656301" lon="32.75816347"><ele>1067.240</ele><time>2026-09-29T12:10:45Z</time><speed>25.420</speed><sat>32</sat></trkpt>
  <trkpt lat="39.78654448" lon="32.75846102"><ele>1067.672</ele><time>2026-09-29T12:10:46Z</time><speed>25.700</speed><sat>31</sat></trkpt>
  <trkpt lat="39.78652786" lon="32.75875329"><ele>1067.639</ele><time>2026-09-29T12:10:47Z</time><speed>24.900</speed><sat>30</sat></trkpt>
  <trkpt lat="39.78651126" lon="32.75905007"><ele>1068.278</ele><time>2026-09-29T12:10:48Z</time><speed>25.100</speed><sat>29</sat></trkpt>
  <trkpt lat="39.78649163" lon="32.75934209"><ele>1068.580</ele><time>2026-09-29T12:10:49Z</time><speed>25.100</speed><sat>29</sat></trkpt>
  <trkpt lat="39.78647439" lon="32.75963410"><ele>1068.782</ele><time>2026-09-29T12:10:50Z</time><speed>24.940</speed><sat>29</sat></trkpt>
  <trkpt lat="39.78645661" lon="32.75992349"><ele>1069.101</ele><time>2026-09-29T12:10:51Z</time><speed>24.800</speed><sat>29</sat></trkpt>
  <trkpt lat="39.78644337" lon="32.76021123"><ele>1069.424</ele><time>2026-09-29T12:10:52Z</time><speed>24.700</speed><sat>29</sat></trkpt>
  <trkpt lat="39.78643015" lon="32.76049975"><ele>1069.695</ele><time>2026-09-29T12:10:53Z</time><speed>24.750</speed><sat>29</sat></trkpt>
  <trkpt lat="39.78641508" lon="32.76078909"><ele>1069.516</ele><time>2026-09-29T12:10:54Z</time><speed>24.740</speed><sat>30</sat></trkpt>
  <trkpt lat="39.78639977" lon="32.76107672"><ele>1069.649</ele><time>2026-09-29T12:10:55Z</time><speed>24.720</speed><sat>30</sat></trkpt>
  <trkpt lat="39.78638437" lon="32.76136382"><ele>1070.034</ele><time>2026-09-29T12:10:56Z</time><speed>24.680</speed><sat>30</sat></trkpt>
  <trkpt lat="39.78636724" lon="32.76165044"><ele>1070.078</ele><time>2026-09-29T12:10:57Z</time><speed>24.560</speed><sat>30</sat></trkpt>
  <trkpt lat="39.78634929" lon="32.76193521"><ele>1070.266</ele><time>2026-09-29T12:10:58Z</time><speed>24.540</speed><sat>30</sat></trkpt>
  <trkpt lat="39.78632793" lon="32.76222045"><ele>1070.521</ele><time>2026-09-29T12:10:59Z</time><speed>24.820</speed><sat>30</sat></trkpt>
  <trkpt lat="39.78631483" lon="32.76250328"><ele>1070.389</ele><time>2026-09-29T12:11:00Z</time><speed>24.360</speed><sat>30</sat></trkpt>
  <trkpt lat="39.78630284" lon="32.76279729"><ele>1070.978</ele><time>2026-09-29T12:11:01Z</time><speed>24.800</speed><sat>31</sat></trkpt>
  <trkpt lat="39.78628854" lon="32.76308374"><ele>1070.624</ele><time>2026-09-29T12:11:02Z</time><speed>24.640</speed><sat>32</sat></trkpt>
  <trkpt lat="39.78627135" lon="32.76337574"><ele>1070.747</ele><time>2026-09-29T12:11:03Z</time><speed>24.690</speed><sat>32</sat></trkpt>
  <trkpt lat="39.78625627" lon="32.76366910"><ele>1071.014</ele><time>2026-09-29T12:11:04Z</time><speed>24.890</speed><sat>31</sat></trkpt>
  <trkpt lat="39.78625747" lon="32.76393977"><ele>1071.278</ele><time>2026-09-29T12:11:05Z</time><speed>23.890</speed><sat>31</sat></trkpt>
  <trkpt lat="39.78624854" lon="32.76423205"><ele>1071.146</ele><time>2026-09-29T12:11:06Z</time><speed>25.840</speed><sat>34</sat></trkpt>
  <trkpt lat="39.78623686" lon="32.76451681"><ele>1070.245</ele><time>2026-09-29T12:11:07Z</time><speed>25.350</speed><sat>35</sat></trkpt>
  <trkpt lat="39.78623565" lon="32.76480053"><ele>1068.660</ele><time>2026-09-29T12:11:08Z</time><speed>24.430</speed><sat>35</sat></trkpt>
  <trkpt lat="39.78622449" lon="32.76510477"><ele>1068.440</ele><time>2026-09-29T12:11:09Z</time><speed>26.100</speed><sat>35</sat></trkpt>
  <trkpt lat="39.78621872" lon="32.76541313"><ele>1070.134</ele><time>2026-09-29T12:11:10Z</time><speed>25.880</speed><sat>35</sat></trkpt>
  <trkpt lat="39.78620794" lon="32.76571738"><ele>1070.474</ele><time>2026-09-29T12:11:11Z</time><speed>26.110</speed><sat>35</sat></trkpt>
  <trkpt lat="39.78620872" lon="32.76601233"><ele>1069.957</ele><time>2026-09-29T12:11:12Z</time><speed>25.480</speed><sat>35</sat></trkpt>
  <trkpt lat="39.78623748" lon="32.76630891"><ele>1070.160</ele><time>2026-09-29T12:11:13Z</time><speed>25.800</speed><sat>35</sat></trkpt>
  <trkpt lat="39.78623617" lon="32.76663466"><ele>1070.211</ele><time>2026-09-29T12:11:14Z</time><speed>27.120</speed><sat>35</sat></trkpt>
  <trkpt lat="39.78624919" lon="32.76694121"><ele>1070.042</ele><time>2026-09-29T12:11:15Z</time><speed>26.520</speed><sat>33</sat></trkpt>
  <trkpt lat="39.78628022" lon="32.76724237"><ele>1069.934</ele><time>2026-09-29T12:11:16Z</time><speed>26.300</speed><sat>33</sat></trkpt>
  <trkpt lat="39.78633202" lon="32.76755507"><ele>1069.389</ele><time>2026-09-29T12:11:17Z</time><speed>26.740</speed><sat>18</sat></trkpt>
  <trkpt lat="39.78639009" lon="32.76787614"><ele>1069.968</ele><time>2026-09-29T12:11:18Z</time><speed>27.470</speed><sat>15</sat></trkpt>
  <trkpt lat="39.78641060" lon="32.76813393"><ele>1069.945</ele><time>2026-09-29T12:11:19Z</time><speed>25.840</speed><sat>15</sat></trkpt>
  <trkpt lat="39.78635422" lon="32.76842685"><ele>1069.946</ele><time>2026-09-29T12:11:20Z</time><speed>25.250</speed><sat>13</sat></trkpt>
  <trkpt lat="39.78637922" lon="32.76872815"><ele>1069.278</ele><time>2026-09-29T12:11:21Z</time><speed>25.970</speed><sat>12</sat></trkpt>
  <trkpt lat="39.78643387" lon="32.76913743"><ele>1067.880</ele><time>2026-09-29T12:11:22Z</time><speed>28.290</speed><sat>13</sat></trkpt>
  <trkpt lat="39.78648853" lon="32.76953082"><ele>1068.956</ele><time>2026-09-29T12:11:23Z</time><speed>28.100</speed><sat>21</sat></trkpt>
  <trkpt lat="39.78653116" lon="32.76986680"><ele>1070.433</ele><time>2026-09-29T12:11:24Z</time><speed>28.630</speed><sat>22</sat></trkpt>
  <trkpt lat="39.78657977" lon="32.77024257"><ele>1067.792</ele><time>2026-09-29T12:11:25Z</time><speed>30.020</speed><sat>22</sat></trkpt>
  <trkpt lat="39.78661161" lon="32.77057108"><ele>1068.185</ele><time>2026-09-29T12:11:26Z</time><speed>29.170</speed><sat>23</sat></trkpt>
  <trkpt lat="39.78665186" lon="32.77089366"><ele>1067.804</ele><time>2026-09-29T12:11:27Z</time><speed>28.650</speed><sat>21</sat></trkpt>
  <trkpt lat="39.78672707" lon="32.77128672"><ele>1069.226</ele><time>2026-09-29T12:11:28Z</time><speed>30.830</speed><sat>20</sat></trkpt>
  <trkpt lat="39.78677481" lon="32.77163681"><ele>1069.169</ele><time>2026-09-29T12:11:29Z</time><speed>30.220</speed><sat>13</sat></trkpt>
  <trkpt lat="39.78679066" lon="32.77200211"><ele>1068.802</ele><time>2026-09-29T12:11:30Z</time><speed>30.440</speed><sat>8</sat></trkpt>
  <trkpt lat="39.78685845" lon="32.77214951"><ele>1068.600</ele><time>2026-09-29T12:11:31Z</time><speed>27.810</speed><sat>8</sat></trkpt>
  <trkpt lat="39.78691252" lon="32.77228038"><ele>1069.634</ele><time>2026-09-29T12:11:32Z</time><speed>25.500</speed><sat>6</sat></trkpt>
  <trkpt lat="39.78698246" lon="32.77261458"><ele>1070.536</ele><time>2026-09-29T12:11:33Z</time><speed>28.430</speed><sat>9</sat></trkpt>
  <trkpt lat="39.78701640" lon="32.77279793"><ele>1070.084</ele><time>2026-09-29T12:11:34Z</time><speed>26.020</speed><sat>9</sat></trkpt>
  <trkpt lat="39.78708685" lon="32.77308680"><ele>1070.215</ele><time>2026-09-29T12:11:35Z</time><speed>26.310</speed><sat>11</sat></trkpt>
  <trkpt lat="39.78716478" lon="32.77340821"><ele>1069.028</ele><time>2026-09-29T12:11:36Z</time><speed>26.420</speed><sat>11</sat></trkpt>
  <trkpt lat="39.78725556" lon="32.77370123"><ele>1069.291</ele><time>2026-09-29T12:11:37Z</time><speed>26.240</speed><sat>13</sat></trkpt>
  <trkpt lat="39.78734164" lon="32.77406323"><ele>1070.507</ele><time>2026-09-29T12:11:38Z</time><speed>27.940</speed><sat>15</sat></trkpt>
  <trkpt lat="39.78743346" lon="32.77438543"><ele>1070.903</ele><time>2026-09-29T12:11:39Z</time><speed>28.210</speed><sat>15</sat></trkpt>
  <trkpt lat="39.78751589" lon="32.77469761"><ele>1071.004</ele><time>2026-09-29T12:11:40Z</time><speed>28.300</speed><sat>14</sat></trkpt>
  <trkpt lat="39.78760031" lon="32.77500211"><ele>1070.989</ele><time>2026-09-29T12:11:41Z</time><speed>27.280</speed><sat>14</sat></trkpt>
  <trkpt lat="39.78768909" lon="32.77534594"><ele>1070.451</ele><time>2026-09-29T12:11:42Z</time><speed>28.740</speed><sat>17</sat></trkpt>
  <trkpt lat="39.78777324" lon="32.77567661"><ele>1069.664</ele><time>2026-09-29T12:11:43Z</time><speed>28.930</speed><sat>16</sat></trkpt>
  <trkpt lat="39.78788162" lon="32.77595113"><ele>1069.030</ele><time>2026-09-29T12:11:44Z</time><speed>27.890</speed><sat>16</sat></trkpt>
  <trkpt lat="39.78798166" lon="32.77624117"><ele>1068.986</ele><time>2026-09-29T12:11:45Z</time><speed>27.620</speed><sat>16</sat></trkpt>
  <trkpt lat="39.78808565" lon="32.77656566"><ele>1070.445</ele><time>2026-09-29T12:11:46Z</time><speed>28.450</speed><sat>16</sat></trkpt>
  <trkpt lat="39.78821591" lon="32.77692039"><ele>1070.407</ele><time>2026-09-29T12:11:47Z</time><speed>30.200</speed><sat>14</sat></trkpt>
  <trkpt lat="39.78831079" lon="32.77724687"><ele>1070.066</ele><time>2026-09-29T12:11:48Z</time><speed>29.650</speed><sat>14</sat></trkpt>
  <trkpt lat="39.78839359" lon="32.77751269"><ele>1069.441</ele><time>2026-09-29T12:11:49Z</time><speed>27.570</speed><sat>12</sat></trkpt>
  <trkpt lat="39.78850015" lon="32.77783495"><ele>1069.574</ele><time>2026-09-29T12:11:50Z</time><speed>28.740</speed><sat>16</sat></trkpt>
  <trkpt lat="39.78863785" lon="32.77814747"><ele>1072.909</ele><time>2026-09-29T12:11:51Z</time><speed>28.130</speed><sat>21</sat></trkpt>
  <trkpt lat="39.78874220" lon="32.77845760"><ele>1072.178</ele><time>2026-09-29T12:11:52Z</time><speed>28.420</speed><sat>21</sat></trkpt>
  <trkpt lat="39.78881765" lon="32.77874139"><ele>1072.745</ele><time>2026-09-29T12:11:53Z</time><speed>27.060</speed><sat>21</sat></trkpt>
  <trkpt lat="39.78893859" lon="32.77895967"><ele>1070.871</ele><time>2026-09-29T12:11:54Z</time><speed>26.110</speed><sat>20</sat></trkpt>
  <trkpt lat="39.78909486" lon="32.77917920"><ele>1069.207</ele><time>2026-09-29T12:11:55Z</time><speed>26.530</speed><sat>19</sat></trkpt>
  <trkpt lat="39.78920854" lon="32.77950583"><ele>1069.792</ele><time>2026-09-29T12:11:56Z</time><speed>27.330</speed><sat>16</sat></trkpt>
  <trkpt lat="39.78931758" lon="32.77982875"><ele>1071.173</ele><time>2026-09-29T12:11:57Z</time><speed>27.860</speed><sat>11</sat></trkpt>
  <trkpt lat="39.78951844" lon="32.78003603"><ele>1069.185</ele><time>2026-09-29T12:11:58Z</time><speed>27.390</speed><sat>11</sat></trkpt>
  <trkpt lat="39.78967250" lon="32.78036638"><ele>1066.614</ele><time>2026-09-29T12:11:59Z</time><speed>28.220</speed><sat>11</sat></trkpt>
  <trkpt lat="39.78985557" lon="32.78060952"><ele>1064.406</ele><time>2026-09-29T12:12:00Z</time><speed>27.520</speed><sat>12</sat></trkpt>
  <trkpt lat="39.78998314" lon="32.78084317"><ele>1064.634</ele><time>2026-09-29T12:12:01Z</time><speed>26.750</speed><sat>12</sat></trkpt>
  <trkpt lat="39.79013295" lon="32.78111183"><ele>1062.689</ele><time>2026-09-29T12:12:02Z</time><speed>27.160</speed><sat>13</sat></trkpt>
  <trkpt lat="39.79028084" lon="32.78134873"><ele>1066.708</ele><time>2026-09-29T12:12:03Z</time><speed>26.950</speed><sat>13</sat></trkpt>
  <trkpt lat="39.79042890" lon="32.78162347"><ele>1067.018</ele><time>2026-09-29T12:12:04Z</time><speed>27.810</speed><sat>13</sat></trkpt>
  <trkpt lat="39.79056561" lon="32.78193131"><ele>1068.031</ele><time>2026-09-29T12:12:05Z</time><speed>28.310</speed><sat>14</sat></trkpt>
  <trkpt lat="39.79075588" lon="32.78217155"><ele>1068.121</ele><time>2026-09-29T12:12:06Z</time><speed>28.540</speed><sat>11</sat></trkpt>
  <trkpt lat="39.79089204" lon="32.78231192"><ele>1066.223</ele><time>2026-09-29T12:12:07Z</time><speed>25.840</speed><sat>12</sat></trkpt>
  <trkpt lat="39.79101886" lon="32.78259676"><ele>1064.814</ele><time>2026-09-29T12:12:08Z</time><speed>27.830</speed><sat>13</sat></trkpt>
  <trkpt lat="39.79120796" lon="32.78284089"><ele>1065.304</ele><time>2026-09-29T12:12:09Z</time><speed>27.370</speed><sat>12</sat></trkpt>
  <trkpt lat="39.79136785" lon="32.78307325"><ele>1065.512</ele><time>2026-09-29T12:12:10Z</time><speed>27.720</speed><sat>11</sat></trkpt>
  <trkpt lat="39.79152986" lon="32.78332005"><ele>1065.385</ele><time>2026-09-29T12:12:11Z</time><speed>27.670</speed><sat>11</sat></trkpt>
  <trkpt lat="39.79347398" lon="32.78582751"><ele>1065.571</ele><time>2026-09-29T12:12:23Z</time><speed>25.200</speed><sat>7</sat></trkpt>
  <trkpt lat="39.79356415" lon="32.78614216"><ele>1065.536</ele><time>2026-09-29T12:12:24Z</time><speed>25.410</speed><sat>7</sat></trkpt>
  <trkpt lat="39.79378811" lon="32.78622645"><ele>1065.563</ele><time>2026-09-29T12:12:25Z</time><speed>25.010</speed><sat>8</sat></trkpt>
  <trkpt lat="39.79402161" lon="32.78630700"><ele>1065.277</ele><time>2026-09-29T12:12:26Z</time><speed>24.130</speed><sat>7</sat></trkpt>
  <trkpt lat="39.79411683" lon="32.78640975"><ele>1069.429</ele><time>2026-09-29T12:12:27Z</time><speed>25.220</speed><sat>11</sat></trkpt>
  <trkpt lat="39.79427689" lon="32.78658888"><ele>1069.402</ele><time>2026-09-29T12:12:28Z</time><speed>24.940</speed><sat>11</sat></trkpt>
  <trkpt lat="39.79445707" lon="32.78672268"><ele>1069.909</ele><time>2026-09-29T12:12:29Z</time><speed>25.080</speed><sat>11</sat></trkpt>
  <trkpt lat="39.79463375" lon="32.78691387"><ele>1069.489</ele><time>2026-09-29T12:12:30Z</time><speed>25.260</speed><sat>11</sat></trkpt>
  <trkpt lat="39.79483016" lon="32.78709794"><ele>1069.553</ele><time>2026-09-29T12:12:31Z</time><speed>26.470</speed><sat>12</sat></trkpt>
  <trkpt lat="39.79503132" lon="32.78730696"><ele>1069.455</ele><time>2026-09-29T12:12:32Z</time><speed>26.890</speed><sat>12</sat></trkpt>
  <trkpt lat="39.79522031" lon="32.78751014"><ele>1069.302</ele><time>2026-09-29T12:12:33Z</time><speed>26.030</speed><sat>11</sat></trkpt>
  <trkpt lat="39.79541820" lon="32.78775008"><ele>1069.023</ele><time>2026-09-29T12:12:34Z</time><speed>27.520</speed><sat>9</sat></trkpt>
  <trkpt lat="39.79562811" lon="32.78795060"><ele>1069.572</ele><time>2026-09-29T12:12:35Z</time><speed>27.830</speed><sat>9</sat></trkpt>
  <trkpt lat="39.79583529" lon="32.78809225"><ele>1070.473</ele><time>2026-09-29T12:12:36Z</time><speed>28.570</speed><sat>9</sat></trkpt>
  <trkpt lat="39.79606148" lon="32.78831592"><ele>1069.922</ele><time>2026-09-29T12:12:37Z</time><speed>28.350</speed><sat>8</sat></trkpt>
  <trkpt lat="39.79631796" lon="32.78856010"><ele>1070.450</ele><time>2026-09-29T12:12:38Z</time><speed>29.840</speed><sat>9</sat></trkpt>
  <trkpt lat="39.79648622" lon="32.78874998"><ele>1067.984</ele><time>2026-09-29T12:12:39Z</time><speed>28.910</speed><sat>13</sat></trkpt>
  <trkpt lat="39.79670828" lon="32.78893374"><ele>1068.357</ele><time>2026-09-29T12:12:40Z</time><speed>29.360</speed><sat>15</sat></trkpt>
  <trkpt lat="39.79691322" lon="32.78911304"><ele>1068.528</ele><time>2026-09-29T12:12:41Z</time><speed>29.130</speed><sat>16</sat></trkpt>
  <trkpt lat="39.79715334" lon="32.78930291"><ele>1068.654</ele><time>2026-09-29T12:12:42Z</time><speed>30.100</speed><sat>16</sat></trkpt>
  <trkpt lat="39.79736525" lon="32.78947815"><ele>1069.287</ele><time>2026-09-29T12:12:43Z</time><speed>29.770</speed><sat>19</sat></trkpt>
  <trkpt lat="39.79760635" lon="32.78965492"><ele>1068.761</ele><time>2026-09-29T12:12:44Z</time><speed>30.380</speed><sat>19</sat></trkpt>
  <trkpt lat="39.79780544" lon="32.78984635"><ele>1069.198</ele><time>2026-09-29T12:12:45Z</time><speed>30.310</speed><sat>18</sat></trkpt>
  <trkpt lat="39.79803604" lon="32.79004318"><ele>1068.992</ele><time>2026-09-29T12:12:46Z</time><speed>30.410</speed><sat>18</sat></trkpt>
  <trkpt lat="39.79824916" lon="32.79024761"><ele>1068.859</ele><time>2026-09-29T12:12:47Z</time><speed>30.060</speed><sat>18</sat></trkpt>
  <trkpt lat="39.79845195" lon="32.79030324"><ele>1068.398</ele><time>2026-09-29T12:12:48Z</time><speed>26.890</speed><sat>17</sat></trkpt>
  <trkpt lat="39.79869476" lon="32.79050671"><ele>1069.712</ele><time>2026-09-29T12:12:49Z</time><speed>28.950</speed><sat>11</sat></trkpt>
  <trkpt lat="39.79890393" lon="32.79069996"><ele>1069.594</ele><time>2026-09-29T12:12:50Z</time><speed>28.120</speed><sat>10</sat></trkpt>
  <trkpt lat="39.79905170" lon="32.79094392"><ele>1068.879</ele><time>2026-09-29T12:12:51Z</time><speed>27.560</speed><sat>9</sat></trkpt>
  <trkpt lat="39.79930775" lon="32.79106217"><ele>1070.933</ele><time>2026-09-29T12:12:52Z</time><speed>27.460</speed><sat>10</sat></trkpt>
  <trkpt lat="39.79977820" lon="32.79131960"><ele>1064.784</ele><time>2026-09-29T12:12:53Z</time><speed>31.990</speed><sat>14</sat></trkpt>
  <trkpt lat="39.79995403" lon="32.79148377"><ele>1067.776</ele><time>2026-09-29T12:12:54Z</time><speed>30.470</speed><sat>17</sat></trkpt>
  <trkpt lat="39.80020720" lon="32.79165052"><ele>1068.174</ele><time>2026-09-29T12:12:55Z</time><speed>30.330</speed><sat>17</sat></trkpt>
  <trkpt lat="39.80047085" lon="32.79181058"><ele>1068.401</ele><time>2026-09-29T12:12:56Z</time><speed>31.310</speed><sat>17</sat></trkpt>
  <trkpt lat="39.80671158" lon="32.79772258"><ele>1074.298</ele><time>2026-09-29T12:13:38Z</time><speed>15.060</speed><sat>9</sat></trkpt>
  <trkpt lat="39.80669219" lon="32.79795085"><ele>1073.951</ele><time>2026-09-29T12:13:39Z</time><speed>17.400</speed><sat>10</sat></trkpt>
  <trkpt lat="39.80664209" lon="32.79803581"><ele>1074.987</ele><time>2026-09-29T12:13:40Z</time><speed>14.760</speed><sat>10</sat></trkpt>
  <trkpt lat="39.80653940" lon="32.79821884"><ele>1075.017</ele><time>2026-09-29T12:13:41Z</time><speed>16.110</speed><sat>8</sat></trkpt>
  <trkpt lat="39.80646070" lon="32.79842427"><ele>1074.946</ele><time>2026-09-29T12:13:42Z</time><speed>16.050</speed><sat>10</sat></trkpt>
  <trkpt lat="39.80640865" lon="32.79863058"><ele>1074.634</ele><time>2026-09-29T12:13:43Z</time><speed>16.250</speed><sat>11</sat></trkpt>
  <trkpt lat="39.80630623" lon="32.79875634"><ele>1075.278</ele><time>2026-09-29T12:13:44Z</time><speed>15.390</speed><sat>12</sat></trkpt>
  <trkpt lat="39.80628420" lon="32.79891625"><ele>1075.504</ele><time>2026-09-29T12:13:45Z</time><speed>16.370</speed><sat>12</sat></trkpt>
  <trkpt lat="39.80624681" lon="32.79921196"><ele>1077.156</ele><time>2026-09-29T12:13:46Z</time><speed>19.830</speed><sat>15</sat></trkpt>
  <trkpt lat="39.80623186" lon="32.79937856"><ele>1077.524</ele><time>2026-09-29T12:13:47Z</time><speed>17.680</speed><sat>16</sat></trkpt>
  <trkpt lat="39.80623776" lon="32.79959958"><ele>1076.899</ele><time>2026-09-29T12:13:48Z</time><speed>18.560</speed><sat>16</sat></trkpt>
  <trkpt lat="39.80636108" lon="32.79971662"><ele>1078.077</ele><time>2026-09-29T12:13:49Z</time><speed>17.100</speed><sat>15</sat></trkpt>
  <trkpt lat="39.80648661" lon="32.79981741"><ele>1078.793</ele><time>2026-09-29T12:13:50Z</time><speed>15.880</speed><sat>16</sat></trkpt>
  <trkpt lat="39.80655196" lon="32.80002206"><ele>1077.510</ele><time>2026-09-29T12:13:51Z</time><speed>16.850</speed><sat>16</sat></trkpt>
  <trkpt lat="39.80669335" lon="32.80022556"><ele>1076.690</ele><time>2026-09-29T12:13:52Z</time><speed>20.190</speed><sat>15</sat></trkpt>
  <trkpt lat="39.80683038" lon="32.80027318"><ele>1076.442</ele><time>2026-09-29T12:13:53Z</time><speed>16.950</speed><sat>12</sat></trkpt>
  <trkpt lat="39.80695666" lon="32.80039229"><ele>1071.003</ele><time>2026-09-29T12:13:54Z</time><speed>17.490</speed><sat>13</sat></trkpt>
  <trkpt lat="39.80706168" lon="32.80053301"><ele>1070.617</ele><time>2026-09-29T12:13:55Z</time><speed>16.480</speed><sat>17</sat></trkpt>
  <trkpt lat="39.80723003" lon="32.80073558"><ele>1068.291</ele><time>2026-09-29T12:13:56Z</time><speed>20.350</speed><sat>20</sat></trkpt>
  <trkpt lat="39.80740795" lon="32.80085612"><ele>1064.969</ele><time>2026-09-29T12:13:57Z</time><speed>20.170</speed><sat>19</sat></trkpt>
  <trkpt lat="39.80755540" lon="32.80096914"><ele>1060.654</ele><time>2026-09-29T12:13:58Z</time><speed>20.550</speed><sat>21</sat></trkpt>
  <trkpt lat="39.80768703" lon="32.80106880"><ele>1062.039</ele><time>2026-09-29T12:13:59Z</time><speed>20.190</speed><sat>32</sat></trkpt>
  <trkpt lat="39.80786984" lon="32.80115638"><ele>1060.087</ele><time>2026-09-29T12:14:00Z</time><speed>20.420</speed><sat>35</sat></trkpt>
  <trkpt lat="39.80805668" lon="32.80120172"><ele>1061.453</ele><time>2026-09-29T12:14:01Z</time><speed>20.870</speed><sat>34</sat></trkpt>
  <trkpt lat="39.80824073" lon="32.80121906"><ele>1061.349</ele><time>2026-09-29T12:14:02Z</time><speed>19.640</speed><sat>34</sat></trkpt>
  <trkpt lat="39.80841636" lon="32.80124402"><ele>1061.341</ele><time>2026-09-29T12:14:03Z</time><speed>20.220</speed><sat>34</sat></trkpt>
  <trkpt lat="39.80859576" lon="32.80123868"><ele>1061.187</ele><time>2026-09-29T12:14:04Z</time><speed>20.170</speed><sat>34</sat></trkpt>
  <trkpt lat="39.80877347" lon="32.80119176"><ele>1060.811</ele><time>2026-09-29T12:14:05Z</time><speed>19.730</speed><sat>34</sat></trkpt>
  <trkpt lat="39.80895718" lon="32.80110302"><ele>1062.171</ele><time>2026-09-29T12:14:06Z</time><speed>20.500</speed><sat>34</sat></trkpt>
  <trkpt lat="39.80912072" lon="32.80101160"><ele>1062.413</ele><time>2026-09-29T12:14:07Z</time><speed>19.800</speed><sat>34</sat></trkpt>
  <trkpt lat="39.80927637" lon="32.80090389"><ele>1062.900</ele><time>2026-09-29T12:14:08Z</time><speed>19.960</speed><sat>35</sat></trkpt>
  <trkpt lat="39.80943289" lon="32.80079810"><ele>1063.109</ele><time>2026-09-29T12:14:09Z</time><speed>19.780</speed><sat>35</sat></trkpt>
  <trkpt lat="39.80957832" lon="32.80067658"><ele>1062.046</ele><time>2026-09-29T12:14:10Z</time><speed>19.740</speed><sat>35</sat></trkpt>
  <trkpt lat="39.80972750" lon="32.80054594"><ele>1062.230</ele><time>2026-09-29T12:14:11Z</time><speed>19.760</speed><sat>35</sat></trkpt>
  <trkpt lat="39.80986816" lon="32.80043374"><ele>1061.878</ele><time>2026-09-29T12:14:12Z</time><speed>18.650</speed><sat>35</sat></trkpt>
  <trkpt lat="39.80995040" lon="32.80033283"><ele>1062.171</ele><time>2026-09-29T12:14:13Z</time><speed>15.510</speed><sat>35</sat></trkpt>
  <trkpt lat="39.81010092" lon="32.80025611"><ele>1061.486</ele><time>2026-09-29T12:14:14Z</time><speed>16.930</speed><sat>35</sat></trkpt>
  <trkpt lat="39.81029564" lon="32.80006929"><ele>1060.326</ele><time>2026-09-29T12:14:15Z</time><speed>21.390</speed><sat>34</sat></trkpt>
  <trkpt lat="39.81043714" lon="32.79994476"><ele>1059.805</ele><time>2026-09-29T12:14:16Z</time><speed>19.420</speed><sat>33</sat></trkpt>
  <trkpt lat="39.81059979" lon="32.79983396"><ele>1060.075</ele><time>2026-09-29T12:14:17Z</time><speed>19.730</speed><sat>31</sat></trkpt>
  <trkpt lat="39.81074073" lon="32.79971731"><ele>1061.571</ele><time>2026-09-29T12:14:18Z</time><speed>19.840</speed><sat>29</sat></trkpt>
  <trkpt lat="39.81089941" lon="32.79958812"><ele>1061.839</ele><time>2026-09-29T12:14:19Z</time><speed>20.040</speed><sat>29</sat></trkpt>
  <trkpt lat="39.81104737" lon="32.79945292"><ele>1064.060</ele><time>2026-09-29T12:14:20Z</time><speed>20.500</speed><sat>29</sat></trkpt>
  <trkpt lat="39.81120456" lon="32.79932188"><ele>1064.690</ele><time>2026-09-29T12:14:21Z</time><speed>20.620</speed><sat>30</sat></trkpt>
  <trkpt lat="39.81135873" lon="32.79919370"><ele>1065.739</ele><time>2026-09-29T12:14:22Z</time><speed>20.490</speed><sat>30</sat></trkpt>
  <trkpt lat="39.81151125" lon="32.79907114"><ele>1067.525</ele><time>2026-09-29T12:14:23Z</time><speed>20.490</speed><sat>30</sat></trkpt>
  <trkpt lat="39.81167367" lon="32.79894060"><ele>1068.426</ele><time>2026-09-29T12:14:24Z</time><speed>20.470</speed><sat>30</sat></trkpt>
  <trkpt lat="39.81182738" lon="32.79881896"><ele>1068.760</ele><time>2026-09-29T12:14:25Z</time><speed>20.360</speed><sat>31</sat></trkpt>
  <trkpt lat="39.81197347" lon="32.79872050"><ele>1069.373</ele><time>2026-09-29T12:14:26Z</time><speed>17.840</speed><sat>31</sat></trkpt>
  <trkpt lat="39.81210826" lon="32.79860580"><ele>1068.946</ele><time>2026-09-29T12:14:27Z</time><speed>17.970</speed><sat>31</sat></trkpt>
  <trkpt lat="39.81224305" lon="32.79851442"><ele>1069.848</ele><time>2026-09-29T12:14:28Z</time><speed>17.060</speed><sat>31</sat></trkpt>
  <trkpt lat="39.81236748" lon="32.79841941"><ele>1070.050</ele><time>2026-09-29T12:14:29Z</time><speed>15.560</speed><sat>31</sat></trkpt>
  <trkpt lat="39.81248969" lon="32.79833405"><ele>1071.226</ele><time>2026-09-29T12:14:30Z</time><speed>15.000</speed><sat>31</sat></trkpt>
  <trkpt lat="39.81260172" lon="32.79826307"><ele>1070.395</ele><time>2026-09-29T12:14:31Z</time><speed>13.890</speed><sat>29</sat></trkpt>
  <trkpt lat="39.81271495" lon="32.79819417"><ele>1071.502</ele><time>2026-09-29T12:14:32Z</time><speed>14.270</speed><sat>30</sat></trkpt>
  <trkpt lat="39.81283496" lon="32.79812549"><ele>1071.188</ele><time>2026-09-29T12:14:33Z</time><speed>14.510</speed><sat>31</sat></trkpt>
  <trkpt lat="39.81296343" lon="32.79807041"><ele>1069.342</ele><time>2026-09-29T12:14:34Z</time><speed>14.510</speed><sat>31</sat></trkpt>
  <trkpt lat="39.81309753" lon="32.79802023"><ele>1068.797</ele><time>2026-09-29T12:14:35Z</time><speed>14.780</speed><sat>31</sat></trkpt>
  <trkpt lat="39.81323197" lon="32.79799930"><ele>1068.869</ele><time>2026-09-29T12:14:36Z</time><speed>15.240</speed><sat>32</sat></trkpt>
  <trkpt lat="39.81337816" lon="32.79799193"><ele>1067.738</ele><time>2026-09-29T12:14:37Z</time><speed>15.530</speed><sat>32</sat></trkpt>
  <trkpt lat="39.81351132" lon="32.79800735"><ele>1066.102</ele><time>2026-09-29T12:14:38Z</time><speed>15.640</speed><sat>32</sat></trkpt>
  <trkpt lat="39.81365235" lon="32.79804452"><ele>1065.545</ele><time>2026-09-29T12:14:39Z</time><speed>15.930</speed><sat>33</sat></trkpt>
  <trkpt lat="39.81379007" lon="32.79808994"><ele>1065.038</ele><time>2026-09-29T12:14:40Z</time><speed>15.770</speed><sat>33</sat></trkpt>
  <trkpt lat="39.81392273" lon="32.79816863"><ele>1064.137</ele><time>2026-09-29T12:14:41Z</time><speed>16.630</speed><sat>33</sat></trkpt>
  <trkpt lat="39.81404808" lon="32.79826725"><ele>1062.567</ele><time>2026-09-29T12:14:42Z</time><speed>16.870</speed><sat>33</sat></trkpt>
  <trkpt lat="39.81416535" lon="32.79839233"><ele>1061.427</ele><time>2026-09-29T12:14:43Z</time><speed>17.030</speed><sat>33</sat></trkpt>
  <trkpt lat="39.81427156" lon="32.79853152"><ele>1060.784</ele><time>2026-09-29T12:14:44Z</time><speed>17.070</speed><sat>33</sat></trkpt>
  <trkpt lat="39.81437253" lon="32.79867121"><ele>1059.737</ele><time>2026-09-29T12:14:45Z</time><speed>16.600</speed><sat>33</sat></trkpt>
  <trkpt lat="39.81446266" lon="32.79882070"><ele>1059.652</ele><time>2026-09-29T12:14:46Z</time><speed>16.240</speed><sat>33</sat></trkpt>
  <trkpt lat="39.81454566" lon="32.79896723"><ele>1059.756</ele><time>2026-09-29T12:14:47Z</time><speed>15.700</speed><sat>33</sat></trkpt>
  <trkpt lat="39.81463182" lon="32.79913381"><ele>1059.606</ele><time>2026-09-29T12:14:48Z</time><speed>16.490</speed><sat>32</sat></trkpt>
  <trkpt lat="39.81471011" lon="32.79929381"><ele>1059.711</ele><time>2026-09-29T12:14:49Z</time><speed>16.390</speed><sat>32</sat></trkpt>
  <trkpt lat="39.81477159" lon="32.79942356"><ele>1059.262</ele><time>2026-09-29T12:14:50Z</time><speed>14.330</speed><sat>32</sat></trkpt>
  <trkpt lat="39.81483739" lon="32.79956189"><ele>1058.844</ele><time>2026-09-29T12:14:51Z</time><speed>13.910</speed><sat>32</sat></trkpt>
  <trkpt lat="39.81489837" lon="32.79976421"><ele>1057.198</ele><time>2026-09-29T12:14:52Z</time><speed>16.190</speed><sat>32</sat></trkpt>
  <trkpt lat="39.81495019" lon="32.79993847"><ele>1055.482</ele><time>2026-09-29T12:14:53Z</time><speed>16.130</speed><sat>32</sat></trkpt>
  <trkpt lat="39.81498825" lon="32.80013038"><ele>1052.641</ele><time>2026-09-29T12:14:54Z</time><speed>16.170</speed><sat>32</sat></trkpt>
  <trkpt lat="39.81502024" lon="32.80030224"><ele>1052.308</ele><time>2026-09-29T12:14:55Z</time><speed>15.970</speed><sat>31</sat></trkpt>
  <trkpt lat="39.81503743" lon="32.80047500"><ele>1050.849</ele><time>2026-09-29T12:14:56Z</time><speed>16.150</speed><sat>30</sat></trkpt>
  <trkpt lat="39.81503939" lon="32.80066809"><ele>1050.435</ele><time>2026-09-29T12:14:57Z</time><speed>16.470</speed><sat>30</sat></trkpt>
  <trkpt lat="39.81504325" lon="32.80086551"><ele>1048.939</ele><time>2026-09-29T12:14:58Z</time><speed>17.040</speed><sat>30</sat></trkpt>
  <trkpt lat="39.81504779" lon="32.80107054"><ele>1048.937</ele><time>2026-09-29T12:14:59Z</time><speed>17.220</speed><sat>30</sat></trkpt>
  <trkpt lat="39.81501208" lon="32.80123246"><ele>1048.614</ele><time>2026-09-29T12:15:00Z</time><speed>15.130</speed><sat>30</sat></trkpt>
  <trkpt lat="39.81487747" lon="32.80139090"><ele>1047.281</ele><time>2026-09-29T12:15:01Z</time><speed>16.650</speed><sat>30</sat></trkpt>
  <trkpt lat="39.81478941" lon="32.80153174"><ele>1048.355</ele><time>2026-09-29T12:15:02Z</time><speed>15.970</speed><sat>30</sat></trkpt>
  <trkpt lat="39.81468123" lon="32.80165041"><ele>1048.794</ele><time>2026-09-29T12:15:03Z</time><speed>15.280</speed><sat>29</sat></trkpt>
  <trkpt lat="39.81456644" lon="32.80171811"><ele>1048.055</ele><time>2026-09-29T12:15:04Z</time><speed>14.490</speed><sat>29</sat></trkpt>
  <trkpt lat="39.81444117" lon="32.80176013"><ele>1047.927</ele><time>2026-09-29T12:15:05Z</time><speed>14.790</speed><sat>29</sat></trkpt>
  <trkpt lat="39.81431291" lon="32.80176834"><ele>1047.431</ele><time>2026-09-29T12:15:06Z</time><speed>14.460</speed><sat>29</sat></trkpt>
  <trkpt lat="39.81417541" lon="32.80176850"><ele>1048.966</ele><time>2026-09-29T12:15:07Z</time><speed>15.560</speed><sat>30</sat></trkpt>
  <trkpt lat="39.81404068" lon="32.80174382"><ele>1049.265</ele><time>2026-09-29T12:15:08Z</time><speed>15.710</speed><sat>30</sat></trkpt>
  <trkpt lat="39.81393343" lon="32.80166950"><ele>1049.726</ele><time>2026-09-29T12:15:09Z</time><speed>13.520</speed><sat>31</sat></trkpt>
  <trkpt lat="39.81384377" lon="32.80151536"><ele>1048.437</ele><time>2026-09-29T12:15:10Z</time><speed>15.130</speed><sat>31</sat></trkpt>
  <trkpt lat="39.81378016" lon="32.80134448"><ele>1046.799</ele><time>2026-09-29T12:15:11Z</time><speed>15.500</speed><sat>32</sat></trkpt>
  <trkpt lat="39.81372321" lon="32.80119980"><ele>1046.745</ele><time>2026-09-29T12:15:12Z</time><speed>13.560</speed><sat>33</sat></trkpt>
  <trkpt lat="39.81372698" lon="32.80100216"><ele>1046.464</ele><time>2026-09-29T12:15:13Z</time><speed>15.340</speed><sat>33</sat></trkpt>
  <trkpt lat="39.81372531" lon="32.80082113"><ele>1046.157</ele><time>2026-09-29T12:15:14Z</time><speed>15.930</speed><sat>33</sat></trkpt>
  <trkpt lat="39.81374894" lon="32.80062683"><ele>1047.490</ele><time>2026-09-29T12:15:15Z</time><speed>16.240</speed><sat>33</sat></trkpt>
  <trkpt lat="39.81378897" lon="32.80042375"><ele>1047.438</ele><time>2026-09-29T12:15:16Z</time><speed>16.770</speed><sat>33</sat></trkpt>
  <trkpt lat="39.81395181" lon="32.80032247"><ele>1046.794</ele><time>2026-09-29T12:15:17Z</time><speed>16.390</speed><sat>33</sat></trkpt>
  <trkpt lat="39.81406743" lon="32.80018551"><ele>1046.536</ele><time>2026-09-29T12:15:18Z</time><speed>16.700</speed><sat>32</sat></trkpt>
  <trkpt lat="39.81419108" lon="32.80006561"><ele>1047.055</ele><time>2026-09-29T12:15:19Z</time><speed>17.100</speed><sat>29</sat></trkpt>
  <trkpt lat="39.81430173" lon="32.79993354"><ele>1047.717</ele><time>2026-09-29T12:15:20Z</time><speed>17.290</speed><sat>29</sat></trkpt>
  <trkpt lat="39.81442855" lon="32.79979896"><ele>1048.875</ele><time>2026-09-29T12:15:21Z</time><speed>17.580</speed><sat>28</sat></trkpt>
  <trkpt lat="39.81454332" lon="32.79966933"><ele>1049.045</ele><time>2026-09-29T12:15:22Z</time><speed>17.430</speed><sat>27</sat></trkpt>
  <trkpt lat="39.81466462" lon="32.79954141"><ele>1049.877</ele><time>2026-09-29T12:15:23Z</time><speed>16.990</speed><sat>27</sat></trkpt>
  <trkpt lat="39.81477997" lon="32.79942179"><ele>1049.691</ele><time>2026-09-29T12:15:24Z</time><speed>16.520</speed><sat>26</sat></trkpt>
  <trkpt lat="39.81490224" lon="32.79929914"><ele>1050.160</ele><time>2026-09-29T12:15:25Z</time><speed>16.950</speed><sat>26</sat></trkpt>
  <trkpt lat="39.81503015" lon="32.79919074"><ele>1050.948</ele><time>2026-09-29T12:15:26Z</time><speed>16.540</speed><sat>26</sat></trkpt>
  <trkpt lat="39.81515322" lon="32.79906684"><ele>1050.686</ele><time>2026-09-29T12:15:27Z</time><speed>16.480</speed><sat>26</sat></trkpt>
  <trkpt lat="39.81528529" lon="32.79896484"><ele>1052.045</ele><time>2026-09-29T12:15:28Z</time><speed>16.870</speed><sat>26</sat></trkpt>
  <trkpt lat="39.81540393" lon="32.79886393"><ele>1051.178</ele><time>2026-09-29T12:15:29Z</time><speed>17.120</speed><sat>26</sat></trkpt>
  <trkpt lat="39.81553422" lon="32.79874476"><ele>1053.048</ele><time>2026-09-29T12:15:30Z</time><speed>17.390</speed><sat>25</sat></trkpt>
  <trkpt lat="39.81566514" lon="32.79863387"><ele>1054.623</ele><time>2026-09-29T12:15:31Z</time><speed>17.560</speed><sat>26</sat></trkpt>
  <trkpt lat="39.81580101" lon="32.79851612"><ele>1055.765</ele><time>2026-09-29T12:15:32Z</time><speed>17.750</speed><sat>26</sat></trkpt>
  <trkpt lat="39.81593661" lon="32.79840258"><ele>1056.101</ele><time>2026-09-29T12:15:33Z</time><speed>18.040</speed><sat>26</sat></trkpt>
  <trkpt lat="39.81607804" lon="32.79829541"><ele>1057.401</ele><time>2026-09-29T12:15:34Z</time><speed>18.300</speed><sat>26</sat></trkpt>
  <trkpt lat="39.81621996" lon="32.79818872"><ele>1057.966</ele><time>2026-09-29T12:15:35Z</time><speed>18.570</speed><sat>26</sat></trkpt>
  <trkpt lat="39.81637063" lon="32.79807689"><ele>1058.679</ele><time>2026-09-29T12:15:36Z</time><speed>18.880</speed><sat>27</sat></trkpt>
  <trkpt lat="39.81652011" lon="32.79797243"><ele>1059.247</ele><time>2026-09-29T12:15:37Z</time><speed>19.080</speed><sat>27</sat></trkpt>
  <trkpt lat="39.81667007" lon="32.79787336"><ele>1059.143</ele><time>2026-09-29T12:15:38Z</time><speed>19.150</speed><sat>27</sat></trkpt>
  <trkpt lat="39.81682371" lon="32.79777445"><ele>1060.358</ele><time>2026-09-29T12:15:39Z</time><speed>19.150</speed><sat>27</sat></trkpt>
  <trkpt lat="39.81698038" lon="32.79769038"><ele>1060.713</ele><time>2026-09-29T12:15:40Z</time><speed>19.080</speed><sat>27</sat></trkpt>
  <trkpt lat="39.81713740" lon="32.79760646"><ele>1061.387</ele><time>2026-09-29T12:15:41Z</time><speed>19.080</speed><sat>26</sat></trkpt>
  <trkpt lat="39.81730121" lon="32.79752711"><ele>1062.139</ele><time>2026-09-29T12:15:42Z</time><speed>19.160</speed><sat>26</sat></trkpt>
  <trkpt lat="39.81746860" lon="32.79744885"><ele>1062.731</ele><time>2026-09-29T12:15:43Z</time><speed>19.350</speed><sat>27</sat></trkpt>
  <trkpt lat="39.81763317" lon="32.79737586"><ele>1063.410</ele><time>2026-09-29T12:15:44Z</time><speed>19.590</speed><sat>28</sat></trkpt>
  <trkpt lat="39.81780146" lon="32.79730793"><ele>1064.057</ele><time>2026-09-29T12:15:45Z</time><speed>19.740</speed><sat>29</sat></trkpt>
  <trkpt lat="39.81797221" lon="32.79723801"><ele>1064.822</ele><time>2026-09-29T12:15:46Z</time><speed>19.890</speed><sat>29</sat></trkpt>
  <trkpt lat="39.81814806" lon="32.79717954"><ele>1065.029</ele><time>2026-09-29T12:15:47Z</time><speed>19.970</speed><sat>29</sat></trkpt>
  <trkpt lat="39.81832068" lon="32.79712031"><ele>1065.810</ele><time>2026-09-29T12:15:48Z</time><speed>19.900</speed><sat>29</sat></trkpt>
  <trkpt lat="39.81849755" lon="32.79707398"><ele>1066.536</ele><time>2026-09-29T12:15:49Z</time><speed>20.000</speed><sat>30</sat></trkpt>
  <trkpt lat="39.81867826" lon="32.79702602"><ele>1067.088</ele><time>2026-09-29T12:15:50Z</time><speed>20.130</speed><sat>30</sat></trkpt>
  <trkpt lat="39.81885764" lon="32.79698203"><ele>1067.933</ele><time>2026-09-29T12:15:51Z</time><speed>20.290</speed><sat>30</sat></trkpt>
  <trkpt lat="39.81903532" lon="32.79694835"><ele>1068.720</ele><time>2026-09-29T12:15:52Z</time><speed>20.320</speed><sat>29</sat></trkpt>
  <trkpt lat="39.81921757" lon="32.79691946"><ele>1069.452</ele><time>2026-09-29T12:15:53Z</time><speed>20.280</speed><sat>30</sat></trkpt>
  <trkpt lat="39.81940021" lon="32.79689489"><ele>1069.931</ele><time>2026-09-29T12:15:54Z</time><speed>20.390</speed><sat>30</sat></trkpt>
  <trkpt lat="39.81958399" lon="32.79686573"><ele>1070.866</ele><time>2026-09-29T12:15:55Z</time><speed>20.570</speed><sat>30</sat></trkpt>
  <trkpt lat="39.81977305" lon="32.79683338"><ele>1072.047</ele><time>2026-09-29T12:15:56Z</time><speed>20.740</speed><sat>30</sat></trkpt>
  <trkpt lat="39.81995702" lon="32.79680989"><ele>1072.101</ele><time>2026-09-29T12:15:57Z</time><speed>20.570</speed><sat>30</sat></trkpt>
  <trkpt lat="39.82013270" lon="32.79678045"><ele>1071.950</ele><time>2026-09-29T12:15:58Z</time><speed>19.990</speed><sat>31</sat></trkpt>
  <trkpt lat="39.82033887" lon="32.79675374"><ele>1073.685</ele><time>2026-09-29T12:15:59Z</time><speed>21.480</speed><sat>31</sat></trkpt>
  <trkpt lat="39.82052943" lon="32.79672981"><ele>1074.056</ele><time>2026-09-29T12:16:00Z</time><speed>21.620</speed><sat>30</sat></trkpt>
  <trkpt lat="39.82072757" lon="32.79670887"><ele>1073.711</ele><time>2026-09-29T12:16:01Z</time><speed>21.830</speed><sat>28</sat></trkpt>
  <trkpt lat="39.82092302" lon="32.79669203"><ele>1074.453</ele><time>2026-09-29T12:16:02Z</time><speed>22.040</speed><sat>29</sat></trkpt>
  <trkpt lat="39.82112643" lon="32.79667524"><ele>1075.087</ele><time>2026-09-29T12:16:03Z</time><speed>22.260</speed><sat>28</sat></trkpt>
  <trkpt lat="39.82132824" lon="32.79665017"><ele>1076.035</ele><time>2026-09-29T12:16:04Z</time><speed>22.410</speed><sat>27</sat></trkpt>
  <trkpt lat="39.82152498" lon="32.79662096"><ele>1077.436</ele><time>2026-09-29T12:16:05Z</time><speed>22.210</speed><sat>27</sat></trkpt>
  <trkpt lat="39.82173319" lon="32.79658775"><ele>1077.270</ele><time>2026-09-29T12:16:06Z</time><speed>22.470</speed><sat>28</sat></trkpt>
  <trkpt lat="39.82193380" lon="32.79655205"><ele>1077.073</ele><time>2026-09-29T12:16:07Z</time><speed>22.560</speed><sat>28</sat></trkpt>
  <trkpt lat="39.82212277" lon="32.79652349"><ele>1079.087</ele><time>2026-09-29T12:16:08Z</time><speed>21.870</speed><sat>27</sat></trkpt>
  <trkpt lat="39.82233941" lon="32.79648876"><ele>1078.806</ele><time>2026-09-29T12:16:09Z</time><speed>22.560</speed><sat>27</sat></trkpt>
  <trkpt lat="39.82254819" lon="32.79644634"><ele>1080.802</ele><time>2026-09-29T12:16:10Z</time><speed>22.400</speed><sat>27</sat></trkpt>
  <trkpt lat="39.82271102" lon="32.79646381"><ele>1082.805</ele><time>2026-09-29T12:16:11Z</time><speed>21.060</speed><sat>25</sat></trkpt>
  <trkpt lat="39.82290209" lon="32.79644638"><ele>1084.247</ele><time>2026-09-29T12:16:12Z</time><speed>21.370</speed><sat>23</sat></trkpt>
  <trkpt lat="39.82308832" lon="32.79643717"><ele>1084.543</ele><time>2026-09-29T12:16:13Z</time><speed>21.670</speed><sat>22</sat></trkpt>
  <trkpt lat="39.82329073" lon="32.79642383"><ele>1083.705</ele><time>2026-09-29T12:16:14Z</time><speed>21.910</speed><sat>22</sat></trkpt>
  <trkpt lat="39.82348889" lon="32.79641405"><ele>1086.561</ele><time>2026-09-29T12:16:15Z</time><speed>22.060</speed><sat>23</sat></trkpt>
  <trkpt lat="39.82368300" lon="32.79639788"><ele>1086.813</ele><time>2026-09-29T12:16:16Z</time><speed>22.270</speed><sat>23</sat></trkpt>
  <trkpt lat="39.82387245" lon="32.79637818"><ele>1088.161</ele><time>2026-09-29T12:16:17Z</time><speed>22.270</speed><sat>23</sat></trkpt>
  <trkpt lat="39.82408203" lon="32.79634435"><ele>1087.690</ele><time>2026-09-29T12:16:18Z</time><speed>22.450</speed><sat>23</sat></trkpt>
  <trkpt lat="39.82428536" lon="32.79632872"><ele>1088.317</ele><time>2026-09-29T12:16:19Z</time><speed>22.550</speed><sat>25</sat></trkpt>
  <trkpt lat="39.82449156" lon="32.79631330"><ele>1090.795</ele><time>2026-09-29T12:16:20Z</time><speed>22.710</speed><sat>25</sat></trkpt>
  <trkpt lat="39.82470314" lon="32.79628526"><ele>1091.352</ele><time>2026-09-29T12:16:21Z</time><speed>22.750</speed><sat>24</sat></trkpt>
  <trkpt lat="39.82490900" lon="32.79626126"><ele>1091.875</ele><time>2026-09-29T12:16:22Z</time><speed>22.830</speed><sat>24</sat></trkpt>
  <trkpt lat="39.82511770" lon="32.79623478"><ele>1093.020</ele><time>2026-09-29T12:16:23Z</time><speed>22.950</speed><sat>25</sat></trkpt>
  <trkpt lat="39.82532767" lon="32.79621971"><ele>1093.682</ele><time>2026-09-29T12:16:24Z</time><speed>22.990</speed><sat>26</sat></trkpt>
  <trkpt lat="39.82553442" lon="32.79618879"><ele>1095.273</ele><time>2026-09-29T12:16:25Z</time><speed>23.200</speed><sat>25</sat></trkpt>
  <trkpt lat="39.82573933" lon="32.79616418"><ele>1096.366</ele><time>2026-09-29T12:16:26Z</time><speed>23.240</speed><sat>25</sat></trkpt>
  <trkpt lat="39.82593668" lon="32.79614315"><ele>1097.550</ele><time>2026-09-29T12:16:27Z</time><speed>22.750</speed><sat>27</sat></trkpt>
  <trkpt lat="39.82615080" lon="32.79612067"><ele>1099.161</ele><time>2026-09-29T12:16:28Z</time><speed>23.270</speed><sat>27</sat></trkpt>
  <trkpt lat="39.82635072" lon="32.79609050"><ele>1099.024</ele><time>2026-09-29T12:16:29Z</time><speed>23.130</speed><sat>26</sat></trkpt>
  <trkpt lat="39.82655756" lon="32.79607207"><ele>1099.914</ele><time>2026-09-29T12:16:30Z</time><speed>23.240</speed><sat>25</sat></trkpt>
  <trkpt lat="39.82677154" lon="32.79605438"><ele>1100.253</ele><time>2026-09-29T12:16:31Z</time><speed>23.340</speed><sat>26</sat></trkpt>
  <trkpt lat="39.82697596" lon="32.79604923"><ele>1101.945</ele><time>2026-09-29T12:16:32Z</time><speed>22.770</speed><sat>26</sat></trkpt>
  <trkpt lat="39.82717345" lon="32.79602668"><ele>1102.187</ele><time>2026-09-29T12:16:33Z</time><speed>21.820</speed><sat>25</sat></trkpt>
  <trkpt lat="39.82737736" lon="32.79603545"><ele>1102.595</ele><time>2026-09-29T12:16:34Z</time><speed>22.600</speed><sat>25</sat></trkpt>
  <trkpt lat="39.82758608" lon="32.79608662"><ele>1105.143</ele><time>2026-09-29T12:16:35Z</time><speed>22.840</speed><sat>27</sat></trkpt>
  <trkpt lat="39.82779250" lon="32.79613121"><ele>1105.460</ele><time>2026-09-29T12:16:36Z</time><speed>22.980</speed><sat>29</sat></trkpt>
  <trkpt lat="39.82799036" lon="32.79618382"><ele>1106.165</ele><time>2026-09-29T12:16:37Z</time><speed>22.770</speed><sat>30</sat></trkpt>
  <trkpt lat="39.82818461" lon="32.79625521"><ele>1106.862</ele><time>2026-09-29T12:16:38Z</time><speed>22.380</speed><sat>29</sat></trkpt>
  <trkpt lat="39.82838468" lon="32.79631480"><ele>1106.588</ele><time>2026-09-29T12:16:39Z</time><speed>22.330</speed><sat>29</sat></trkpt>
  <trkpt lat="39.82858342" lon="32.79641267"><ele>1109.039</ele><time>2026-09-29T12:16:40Z</time><speed>22.350</speed><sat>30</sat></trkpt>
  <trkpt lat="39.82877096" lon="32.79650380"><ele>1110.672</ele><time>2026-09-29T12:16:41Z</time><speed>22.050</speed><sat>30</sat></trkpt>
  <trkpt lat="39.82894224" lon="32.79660343"><ele>1110.985</ele><time>2026-09-29T12:16:42Z</time><speed>21.820</speed><sat>30</sat></trkpt>
  <trkpt lat="39.82912804" lon="32.79669803"><ele>1112.146</ele><time>2026-09-29T12:16:43Z</time><speed>21.930</speed><sat>30</sat></trkpt>
  <trkpt lat="39.82930597" lon="32.79679166"><ele>1113.929</ele><time>2026-09-29T12:16:44Z</time><speed>21.670</speed><sat>30</sat></trkpt>
  <trkpt lat="39.82948867" lon="32.79689101"><ele>1115.523</ele><time>2026-09-29T12:16:45Z</time><speed>21.470</speed><sat>30</sat></trkpt>
  <trkpt lat="39.82966562" lon="32.79698603"><ele>1116.458</ele><time>2026-09-29T12:16:46Z</time><speed>21.170</speed><sat>28</sat></trkpt>
  <trkpt lat="39.82984191" lon="32.79708686"><ele>1117.452</ele><time>2026-09-29T12:16:47Z</time><speed>20.770</speed><sat>28</sat></trkpt>
  <trkpt lat="39.83001737" lon="32.79717313"><ele>1119.287</ele><time>2026-09-29T12:16:48Z</time><speed>20.440</speed><sat>30</sat></trkpt>
  <trkpt lat="39.83018806" lon="32.79726502"><ele>1120.588</ele><time>2026-09-29T12:16:49Z</time><speed>20.360</speed><sat>30</sat></trkpt>
  <trkpt lat="39.83036313" lon="32.79734023"><ele>1122.000</ele><time>2026-09-29T12:16:50Z</time><speed>20.190</speed><sat>30</sat></trkpt>
  <trkpt lat="39.83053337" lon="32.79741213"><ele>1123.071</ele><time>2026-09-29T12:16:51Z</time><speed>20.270</speed><sat>29</sat></trkpt>
  <trkpt lat="39.83070930" lon="32.79748152"><ele>1124.265</ele><time>2026-09-29T12:16:52Z</time><speed>20.320</speed><sat>30</sat></trkpt>
  <trkpt lat="39.83090720" lon="32.79752156"><ele>1124.607</ele><time>2026-09-29T12:16:53Z</time><speed>21.070</speed><sat>30</sat></trkpt>
  <trkpt lat="39.83109317" lon="32.79754478"><ele>1124.827</ele><time>2026-09-29T12:16:54Z</time><speed>20.650</speed><sat>28</sat></trkpt>
  <trkpt lat="39.83121394" lon="32.79761195"><ele>1123.514</ele><time>2026-09-29T12:16:55Z</time><speed>18.240</speed><sat>28</sat></trkpt>
  <trkpt lat="39.83141074" lon="32.79764175"><ele>1124.287</ele><time>2026-09-29T12:16:56Z</time><speed>20.720</speed><sat>30</sat></trkpt>
  <trkpt lat="39.83161048" lon="32.79765556"><ele>1124.541</ele><time>2026-09-29T12:16:57Z</time><speed>21.890</speed><sat>31</sat></trkpt>
  <trkpt lat="39.83175863" lon="32.79761866"><ele>1126.219</ele><time>2026-09-29T12:16:58Z</time><speed>18.080</speed><sat>30</sat></trkpt>
  <trkpt lat="39.83192320" lon="32.79762064"><ele>1127.210</ele><time>2026-09-29T12:16:59Z</time><speed>18.880</speed><sat>30</sat></trkpt>
  <trkpt lat="39.83209570" lon="32.79759640"><ele>1128.988</ele><time>2026-09-29T12:17:00Z</time><speed>19.060</speed><sat>30</sat></trkpt>
  <trkpt lat="39.83226738" lon="32.79757806"><ele>1129.568</ele><time>2026-09-29T12:17:01Z</time><speed>19.610</speed><sat>30</sat></trkpt>
  <trkpt lat="39.83244157" lon="32.79754783"><ele>1130.528</ele><time>2026-09-29T12:17:02Z</time><speed>20.280</speed><sat>29</sat></trkpt>
  <trkpt lat="39.83262311" lon="32.79749294"><ele>1131.875</ele><time>2026-09-29T12:17:03Z</time><speed>21.000</speed><sat>30</sat></trkpt>
  <trkpt lat="39.83281047" lon="32.79742969"><ele>1132.266</ele><time>2026-09-29T12:17:04Z</time><speed>21.530</speed><sat>30</sat></trkpt>
  <trkpt lat="39.83300122" lon="32.79736089"><ele>1132.737</ele><time>2026-09-29T12:17:05Z</time><speed>22.220</speed><sat>30</sat></trkpt>
  <trkpt lat="39.83319695" lon="32.79729159"><ele>1134.640</ele><time>2026-09-29T12:17:06Z</time><speed>22.800</speed><sat>30</sat></trkpt>
  <trkpt lat="39.83339867" lon="32.79722489"><ele>1134.993</ele><time>2026-09-29T12:17:07Z</time><speed>23.370</speed><sat>30</sat></trkpt>
  <trkpt lat="39.83360575" lon="32.79716574"><ele>1135.414</ele><time>2026-09-29T12:17:08Z</time><speed>23.860</speed><sat>30</sat></trkpt>
  <trkpt lat="39.83381746" lon="32.79710709"><ele>1136.310</ele><time>2026-09-29T12:17:09Z</time><speed>24.440</speed><sat>30</sat></trkpt>
  <trkpt lat="39.83403542" lon="32.79707073"><ele>1137.359</ele><time>2026-09-29T12:17:10Z</time><speed>24.640</speed><sat>30</sat></trkpt>
  <trkpt lat="39.83426014" lon="32.79704632"><ele>1137.657</ele><time>2026-09-29T12:17:11Z</time><speed>25.020</speed><sat>30</sat></trkpt>
  <trkpt lat="39.83448329" lon="32.79704400"><ele>1138.828</ele><time>2026-09-29T12:17:12Z</time><speed>25.020</speed><sat>30</sat></trkpt>
  <trkpt lat="39.83470864" lon="32.79706004"><ele>1141.108</ele><time>2026-09-29T12:17:13Z</time><speed>25.110</speed><sat>30</sat></trkpt>
  <trkpt lat="39.83493506" lon="32.79709158"><ele>1142.337</ele><time>2026-09-29T12:17:14Z</time><speed>25.400</speed><sat>31</sat></trkpt>
  <trkpt lat="39.83515888" lon="32.79713982"><ele>1143.852</ele><time>2026-09-29T12:17:15Z</time><speed>25.100</speed><sat>31</sat></trkpt>
  <trkpt lat="39.83537694" lon="32.79720869"><ele>1145.323</ele><time>2026-09-29T12:17:16Z</time><speed>24.650</speed><sat>31</sat></trkpt>
  <trkpt lat="39.83558683" lon="32.79729041"><ele>1146.895</ele><time>2026-09-29T12:17:17Z</time><speed>24.120</speed><sat>31</sat></trkpt>
  <trkpt lat="39.83578575" lon="32.79738866"><ele>1147.979</ele><time>2026-09-29T12:17:18Z</time><speed>23.700</speed><sat>32</sat></trkpt>
  <trkpt lat="39.83598110" lon="32.79749889"><ele>1148.674</ele><time>2026-09-29T12:17:19Z</time><speed>23.730</speed><sat>32</sat></trkpt>
  <trkpt lat="39.83616216" lon="32.79763525"><ele>1150.011</ele><time>2026-09-29T12:17:20Z</time><speed>23.430</speed><sat>32</sat></trkpt>
  <trkpt lat="39.83633782" lon="32.79778112"><ele>1150.418</ele><time>2026-09-29T12:17:21Z</time><speed>23.170</speed><sat>32</sat></trkpt>
  <trkpt lat="39.83650516" lon="32.79793537"><ele>1150.916</ele><time>2026-09-29T12:17:22Z</time><speed>22.900</speed><sat>32</sat></trkpt>
  <trkpt lat="39.83667334" lon="32.79811669"><ele>1153.279</ele><time>2026-09-29T12:17:23Z</time><speed>23.410</speed><sat>33</sat></trkpt>
  <trkpt lat="39.83683323" lon="32.79829704"><ele>1154.396</ele><time>2026-09-29T12:17:24Z</time><speed>23.520</speed><sat>32</sat></trkpt>
  <trkpt lat="39.83698762" lon="32.79849700"><ele>1157.145</ele><time>2026-09-29T12:17:25Z</time><speed>23.650</speed><sat>30</sat></trkpt>
  <trkpt lat="39.83713741" lon="32.79869412"><ele>1158.943</ele><time>2026-09-29T12:17:26Z</time><speed>23.660</speed><sat>31</sat></trkpt>
  <trkpt lat="39.83728029" lon="32.79889025"><ele>1160.659</ele><time>2026-09-29T12:17:27Z</time><speed>23.670</speed><sat>32</sat></trkpt>
  <trkpt lat="39.83742624" lon="32.79909883"><ele>1162.723</ele><time>2026-09-29T12:17:28Z</time><speed>23.720</speed><sat>32</sat></trkpt>
  <trkpt lat="39.83757062" lon="32.79930133"><ele>1164.622</ele><time>2026-09-29T12:17:29Z</time><speed>23.770</speed><sat>31</sat></trkpt>
  <trkpt lat="39.83771504" lon="32.79950492"><ele>1165.550</ele><time>2026-09-29T12:17:30Z</time><speed>23.760</speed><sat>31</sat></trkpt>
  <trkpt lat="39.83786573" lon="32.79970664"><ele>1167.471</ele><time>2026-09-29T12:17:31Z</time><speed>23.740</speed><sat>31</sat></trkpt>
  <trkpt lat="39.83801258" lon="32.79990637"><ele>1169.156</ele><time>2026-09-29T12:17:32Z</time><speed>23.650</speed><sat>29</sat></trkpt>
  <trkpt lat="39.83816327" lon="32.80010435"><ele>1171.057</ele><time>2026-09-29T12:17:33Z</time><speed>23.610</speed><sat>27</sat></trkpt>
  <trkpt lat="39.83831205" lon="32.80030248"><ele>1172.341</ele><time>2026-09-29T12:17:34Z</time><speed>23.590</speed><sat>27</sat></trkpt>
  <trkpt lat="39.83846026" lon="32.80050177"><ele>1173.798</ele><time>2026-09-29T12:17:35Z</time><speed>23.560</speed><sat>28</sat></trkpt>
  <trkpt lat="39.83860724" lon="32.80069824"><ele>1175.271</ele><time>2026-09-29T12:17:36Z</time><speed>23.480</speed><sat>27</sat></trkpt>
  <trkpt lat="39.83875375" lon="32.80089189"><ele>1177.047</ele><time>2026-09-29T12:17:37Z</time><speed>23.440</speed><sat>27</sat></trkpt>
  <trkpt lat="39.83890499" lon="32.80108910"><ele>1178.707</ele><time>2026-09-29T12:17:38Z</time><speed>23.450</speed><sat>27</sat></trkpt>
  <trkpt lat="39.83905117" lon="32.80128204"><ele>1180.307</ele><time>2026-09-29T12:17:39Z</time><speed>23.410</speed><sat>26</sat></trkpt>
  <trkpt lat="39.83919910" lon="32.80147867"><ele>1181.894</ele><time>2026-09-29T12:17:40Z</time><speed>23.380</speed><sat>24</sat></trkpt>
  <trkpt lat="39.83934756" lon="32.80167490"><ele>1183.406</ele><time>2026-09-29T12:17:41Z</time><speed>23.400</speed><sat>24</sat></trkpt>
  <trkpt lat="39.83949578" lon="32.80187001"><ele>1185.042</ele><time>2026-09-29T12:17:42Z</time><speed>23.450</speed><sat>23</sat></trkpt>
  <trkpt lat="39.83964083" lon="32.80205540"><ele>1187.539</ele><time>2026-09-29T12:17:43Z</time><speed>23.430</speed><sat>24</sat></trkpt>
  <trkpt lat="39.83979036" lon="32.80224827"><ele>1190.078</ele><time>2026-09-29T12:17:44Z</time><speed>23.450</speed><sat>26</sat></trkpt>
  <trkpt lat="39.83994000" lon="32.80244769"><ele>1191.901</ele><time>2026-09-29T12:17:45Z</time><speed>23.410</speed><sat>26</sat></trkpt>
  <trkpt lat="39.84008612" lon="32.80263866"><ele>1193.314</ele><time>2026-09-29T12:17:46Z</time><speed>23.140</speed><sat>29</sat></trkpt>
  <trkpt lat="39.84022755" lon="32.80282899"><ele>1194.684</ele><time>2026-09-29T12:17:47Z</time><speed>22.690</speed><sat>27</sat></trkpt>
  <trkpt lat="39.84036477" lon="32.80301535"><ele>1195.420</ele><time>2026-09-29T12:17:48Z</time><speed>22.140</speed><sat>27</sat></trkpt>
  <trkpt lat="39.84049563" lon="32.80320006"><ele>1195.939</ele><time>2026-09-29T12:17:49Z</time><speed>21.520</speed><sat>27</sat></trkpt>
  <trkpt lat="39.84062412" lon="32.80337573"><ele>1197.153</ele><time>2026-09-29T12:17:50Z</time><speed>20.950</speed><sat>27</sat></trkpt>
  <trkpt lat="39.84074927" lon="32.80355439"><ele>1198.111</ele><time>2026-09-29T12:17:51Z</time><speed>20.580</speed><sat>25</sat></trkpt>
  <trkpt lat="39.84087255" lon="32.80373291"><ele>1198.841</ele><time>2026-09-29T12:17:52Z</time><speed>20.420</speed><sat>21</sat></trkpt>
  <trkpt lat="39.84099815" lon="32.80391101"><ele>1199.869</ele><time>2026-09-29T12:17:53Z</time><speed>20.540</speed><sat>23</sat></trkpt>
  <trkpt lat="39.84112296" lon="32.80408608"><ele>1200.609</ele><time>2026-09-29T12:17:54Z</time><speed>20.680</speed><sat>26</sat></trkpt>
  <trkpt lat="39.84125215" lon="32.80425986"><ele>1201.716</ele><time>2026-09-29T12:17:55Z</time><speed>20.790</speed><sat>27</sat></trkpt>
  <trkpt lat="39.84138397" lon="32.80443656"><ele>1202.680</ele><time>2026-09-29T12:17:56Z</time><speed>20.940</speed><sat>27</sat></trkpt>
  <trkpt lat="39.84151742" lon="32.80461152"><ele>1203.503</ele><time>2026-09-29T12:17:57Z</time><speed>20.880</speed><sat>28</sat></trkpt>
  <trkpt lat="39.84164009" lon="32.80478500"><ele>1203.218</ele><time>2026-09-29T12:17:58Z</time><speed>20.350</speed><sat>29</sat></trkpt>
  <trkpt lat="39.84176221" lon="32.80495246"><ele>1202.995</ele><time>2026-09-29T12:17:59Z</time><speed>19.860</speed><sat>31</sat></trkpt>
  <trkpt lat="39.84188778" lon="32.80511403"><ele>1203.450</ele><time>2026-09-29T12:18:00Z</time><speed>19.670</speed><sat>30</sat></trkpt>
  <trkpt lat="39.84201221" lon="32.80527732"><ele>1203.720</ele><time>2026-09-29T12:18:01Z</time><speed>19.550</speed><sat>29</sat></trkpt>
  <trkpt lat="39.84213484" lon="32.80543516"><ele>1203.799</ele><time>2026-09-29T12:18:02Z</time><speed>19.190</speed><sat>26</sat></trkpt>
  <trkpt lat="39.84225530" lon="32.80559378"><ele>1203.885</ele><time>2026-09-29T12:18:03Z</time><speed>18.970</speed><sat>27</sat></trkpt>
  <trkpt lat="39.84237176" lon="32.80574400"><ele>1203.893</ele><time>2026-09-29T12:18:04Z</time><speed>18.490</speed><sat>28</sat></trkpt>
  <trkpt lat="39.84248649" lon="32.80589662"><ele>1203.987</ele><time>2026-09-29T12:18:05Z</time><speed>18.240</speed><sat>27</sat></trkpt>
  <trkpt lat="39.84260216" lon="32.80604741"><ele>1203.945</ele><time>2026-09-29T12:18:06Z</time><speed>18.220</speed><sat>27</sat></trkpt>
  <trkpt lat="39.84271676" lon="32.80619218"><ele>1204.221</ele><time>2026-09-29T12:18:07Z</time><speed>18.040</speed><sat>27</sat></trkpt>
  <trkpt lat="39.84283204" lon="32.80634276"><ele>1204.135</ele><time>2026-09-29T12:18:08Z</time><speed>18.020</speed><sat>28</sat></trkpt>
  <trkpt lat="39.84293803" lon="32.80649613"><ele>1204.148</ele><time>2026-09-29T12:18:09Z</time><speed>17.840</speed><sat>29</sat></trkpt>
  <trkpt lat="39.84304989" lon="32.80663747"><ele>1203.565</ele><time>2026-09-29T12:18:10Z</time><speed>17.710</speed><sat>27</sat></trkpt>
  <trkpt lat="39.84315638" lon="32.80679273"><ele>1203.069</ele><time>2026-09-29T12:18:11Z</time><speed>17.680</speed><sat>29</sat></trkpt>
  <trkpt lat="39.84325918" lon="32.80694304"><ele>1202.898</ele><time>2026-09-29T12:18:12Z</time><speed>17.640</speed><sat>29</sat></trkpt>
  <trkpt lat="39.84336306" lon="32.80709508"><ele>1202.474</ele><time>2026-09-29T12:18:13Z</time><speed>17.620</speed><sat>29</sat></trkpt>
  <trkpt lat="39.84347341" lon="32.80724346"><ele>1202.100</ele><time>2026-09-29T12:18:14Z</time><speed>17.610</speed><sat>30</sat></trkpt>
  <trkpt lat="39.84358286" lon="32.80739402"><ele>1202.451</ele><time>2026-09-29T12:18:15Z</time><speed>17.650</speed><sat>29</sat></trkpt>
  <trkpt lat="39.84369140" lon="32.80754279"><ele>1202.380</ele><time>2026-09-29T12:18:16Z</time><speed>17.610</speed><sat>29</sat></trkpt>
  <trkpt lat="39.84380287" lon="32.80769144"><ele>1201.444</ele><time>2026-09-29T12:18:17Z</time><speed>17.630</speed><sat>29</sat></trkpt>
  <trkpt lat="39.84391560" lon="32.80783783"><ele>1201.051</ele><time>2026-09-29T12:18:18Z</time><speed>17.710</speed><sat>30</sat></trkpt>
  <trkpt lat="39.84403149" lon="32.80798666"><ele>1200.905</ele><time>2026-09-29T12:18:19Z</time><speed>17.960</speed><sat>31</sat></trkpt>
  <trkpt lat="39.84414748" lon="32.80813586"><ele>1200.619</ele><time>2026-09-29T12:18:20Z</time><speed>18.080</speed><sat>32</sat></trkpt>
  <trkpt lat="39.84426275" lon="32.80828978"><ele>1200.392</ele><time>2026-09-29T12:18:21Z</time><speed>18.330</speed><sat>32</sat></trkpt>
  <trkpt lat="39.84437998" lon="32.80844534"><ele>1200.689</ele><time>2026-09-29T12:18:22Z</time><speed>18.450</speed><sat>30</sat></trkpt>
  <trkpt lat="39.84449658" lon="32.80859759"><ele>1200.261</ele><time>2026-09-29T12:18:23Z</time><speed>18.490</speed><sat>31</sat></trkpt>
  <trkpt lat="39.84461298" lon="32.80874917"><ele>1199.850</ele><time>2026-09-29T12:18:24Z</time><speed>18.380</speed><sat>30</sat></trkpt>
  <trkpt lat="39.84472516" lon="32.80888445"><ele>1198.969</ele><time>2026-09-29T12:18:25Z</time><speed>17.430</speed><sat>30</sat></trkpt>
  <trkpt lat="39.84483383" lon="32.80901200"><ele>1198.233</ele><time>2026-09-29T12:18:26Z</time><speed>16.240</speed><sat>30</sat></trkpt>
  <trkpt lat="39.84493991" lon="32.80913774"><ele>1198.186</ele><time>2026-09-29T12:18:27Z</time><speed>16.080</speed><sat>30</sat></trkpt>
  <trkpt lat="39.84503907" lon="32.80923545"><ele>1197.457</ele><time>2026-09-29T12:18:28Z</time><speed>14.570</speed><sat>29</sat></trkpt>
  <trkpt lat="39.84514181" lon="32.80933443"><ele>1196.697</ele><time>2026-09-29T12:18:29Z</time><speed>13.990</speed><sat>28</sat></trkpt>
  <trkpt lat="39.84524150" lon="32.80943329"><ele>1196.080</ele><time>2026-09-29T12:18:30Z</time><speed>13.980</speed><sat>30</sat></trkpt>
  <trkpt lat="39.84533849" lon="32.80952462"><ele>1195.156</ele><time>2026-09-29T12:18:31Z</time><speed>13.560</speed><sat>30</sat></trkpt>
  <trkpt lat="39.84543675" lon="32.80961655"><ele>1194.329</ele><time>2026-09-29T12:18:32Z</time><speed>13.390</speed><sat>29</sat></trkpt>
  <trkpt lat="39.84553466" lon="32.80969865"><ele>1194.044</ele><time>2026-09-29T12:18:33Z</time><speed>13.270</speed><sat>28</sat></trkpt>
  <trkpt lat="39.84563597" lon="32.80978181"><ele>1194.144</ele><time>2026-09-29T12:18:34Z</time><speed>13.270</speed><sat>28</sat></trkpt>
  <trkpt lat="39.84574360" lon="32.80987036"><ele>1193.449</ele><time>2026-09-29T12:18:35Z</time><speed>13.910</speed><sat>30</sat></trkpt>
  <trkpt lat="39.84585574" lon="32.80996378"><ele>1193.566</ele><time>2026-09-29T12:18:36Z</time><speed>14.290</speed><sat>29</sat></trkpt>
  <trkpt lat="39.84597572" lon="32.81005697"><ele>1192.644</ele><time>2026-09-29T12:18:37Z</time><speed>14.640</speed><sat>30</sat></trkpt>
  <trkpt lat="39.84609731" lon="32.81014577"><ele>1191.904</ele><time>2026-09-29T12:18:38Z</time><speed>14.910</speed><sat>29</sat></trkpt>
  <trkpt lat="39.84622159" lon="32.81023255"><ele>1190.816</ele><time>2026-09-29T12:18:39Z</time><speed>15.110</speed><sat>29</sat></trkpt>
  <trkpt lat="39.84634762" lon="32.81030990"><ele>1190.276</ele><time>2026-09-29T12:18:40Z</time><speed>15.380</speed><sat>31</sat></trkpt>
  <trkpt lat="39.84647601" lon="32.81038607"><ele>1190.130</ele><time>2026-09-29T12:18:41Z</time><speed>15.700</speed><sat>32</sat></trkpt>
  <trkpt lat="39.84660798" lon="32.81046492"><ele>1189.522</ele><time>2026-09-29T12:18:42Z</time><speed>15.880</speed><sat>32</sat></trkpt>
  <trkpt lat="39.84674346" lon="32.81052819"><ele>1188.673</ele><time>2026-09-29T12:18:43Z</time><speed>16.090</speed><sat>31</sat></trkpt>
  <trkpt lat="39.84687912" lon="32.81058929"><ele>1188.475</ele><time>2026-09-29T12:18:44Z</time><speed>16.190</speed><sat>31</sat></trkpt>
  <trkpt lat="39.84701649" lon="32.81065165"><ele>1188.281</ele><time>2026-09-29T12:18:45Z</time><speed>16.230</speed><sat>32</sat></trkpt>
  <trkpt lat="39.84715320" lon="32.81070835"><ele>1188.258</ele><time>2026-09-29T12:18:46Z</time><speed>16.340</speed><sat>33</sat></trkpt>
  <trkpt lat="39.84729647" lon="32.81077162"><ele>1187.795</ele><time>2026-09-29T12:18:47Z</time><speed>16.300</speed><sat>32</sat></trkpt>
  <trkpt lat="39.84743611" lon="32.81083232"><ele>1187.214</ele><time>2026-09-29T12:18:48Z</time><speed>16.370</speed><sat>32</sat></trkpt>
  <trkpt lat="39.84757394" lon="32.81087932"><ele>1186.949</ele><time>2026-09-29T12:18:49Z</time><speed>16.160</speed><sat>31</sat></trkpt>
  <trkpt lat="39.84772008" lon="32.81091636"><ele>1187.098</ele><time>2026-09-29T12:18:50Z</time><speed>16.180</speed><sat>32</sat></trkpt>
  <trkpt lat="39.84785081" lon="32.81094949"><ele>1186.759</ele><time>2026-09-29T12:18:51Z</time><speed>14.530</speed><sat>33</sat></trkpt>
  <trkpt lat="39.84798349" lon="32.81097449"><ele>1186.765</ele><time>2026-09-29T12:18:52Z</time><speed>14.490</speed><sat>33</sat></trkpt>
  <trkpt lat="39.84810041" lon="32.81100718"><ele>1188.318</ele><time>2026-09-29T12:18:53Z</time><speed>13.540</speed><sat>33</sat></trkpt>
  <trkpt lat="39.84821456" lon="32.81103203"><ele>1186.872</ele><time>2026-09-29T12:18:54Z</time><speed>12.370</speed><sat>33</sat></trkpt>
  <trkpt lat="39.84830688" lon="32.81104777"><ele>1185.696</ele><time>2026-09-29T12:18:55Z</time><speed>10.220</speed><sat>34</sat></trkpt>
  <trkpt lat="39.84841607" lon="32.81108536"><ele>1184.748</ele><time>2026-09-29T12:18:56Z</time><speed>11.020</speed><sat>33</sat></trkpt>
  <trkpt lat="39.84850340" lon="32.81110556"><ele>1185.366</ele><time>2026-09-29T12:18:57Z</time><speed>9.470</speed><sat>32</sat></trkpt>
  <trkpt lat="39.84857546" lon="32.81111230"><ele>1185.300</ele><time>2026-09-29T12:18:58Z</time><speed>7.250</speed><sat>30</sat></trkpt>
  <trkpt lat="39.84862643" lon="32.81113348"><ele>1185.812</ele><time>2026-09-29T12:18:59Z</time><speed>5.930</speed><sat>31</sat></trkpt>
  <trkpt lat="39.84868169" lon="32.81116322"><ele>1184.980</ele><time>2026-09-29T12:19:00Z</time><speed>6.320</speed><sat>31</sat></trkpt>
  <trkpt lat="39.84872035" lon="32.81117452"><ele>1185.418</ele><time>2026-09-29T12:19:01Z</time><speed>4.180</speed><sat>28</sat></trkpt>
  <trkpt lat="39.84874034" lon="32.81120465"><ele>1181.559</ele><time>2026-09-29T12:19:02Z</time><speed>4.270</speed><sat>28</sat></trkpt>
  <trkpt lat="39.84878371" lon="32.81122333"><ele>1182.175</ele><time>2026-09-29T12:19:03Z</time><speed>5.250</speed><sat>30</sat></trkpt>
  <trkpt lat="39.84880531" lon="32.81123135"><ele>1182.212</ele><time>2026-09-29T12:19:04Z</time><speed>2.710</speed><sat>30</sat></trkpt>
  <trkpt lat="39.84882346" lon="32.81122187"><ele>1182.955</ele><time>2026-09-29T12:19:05Z</time><speed>2.190</speed><sat>30</sat></trkpt>
  <trkpt lat="39.84883269" lon="32.81121115"><ele>1184.059</ele><time>2026-09-29T12:19:06Z</time><speed>1.510</speed><sat>29</sat></trkpt>
  <trkpt lat="39.84882264" lon="32.81125391"><ele>1183.873</ele><time>2026-09-29T12:19:07Z</time><speed>1.480</speed><sat>29</sat></trkpt>
  <trkpt lat="39.84886475" lon="32.81126200"><ele>1184.642</ele><time>2026-09-29T12:19:08Z</time><speed>1.660</speed><sat>29</sat></trkpt>
  <trkpt lat="39.84890192" lon="32.81130374"><ele>1185.035</ele><time>2026-09-29T12:19:09Z</time><speed>2.080</speed><sat>21</sat></trkpt>
  <trkpt lat="39.84885673" lon="32.81127834"><ele>1185.288</ele><time>2026-09-29T12:19:10Z</time><speed>0.850</speed><sat>23</sat></trkpt>
  <trkpt lat="39.84884018" lon="32.81124826"><ele>1183.979</ele><time>2026-09-29T12:19:11Z</time><speed>0.690</speed><sat>27</sat></trkpt>
  <trkpt lat="39.84882787" lon="32.81127587"><ele>1183.642</ele><time>2026-09-29T12:19:12Z</time><speed>0.750</speed><sat>27</sat></trkpt>
  <trkpt lat="39.84882171" lon="32.81127401"><ele>1185.285</ele><time>2026-09-29T12:19:13Z</time><speed>0.000</speed><sat>27</sat></trkpt>
  <trkpt lat="39.84882765" lon="32.81126408"><ele>1185.665</ele><time>2026-09-29T12:19:14Z</time><speed>0.340</speed><sat>27</sat></trkpt>
  <trkpt lat="39.84882974" lon="32.81125859"><ele>1186.396</ele><time>2026-09-29T12:19:15Z</time><speed>0.000</speed><sat>28</sat></trkpt>
  <trkpt lat="39.84883094" lon="32.81125700"><ele>1188.285</ele><time>2026-09-29T12:19:16Z</time><speed>0.000</speed><sat>28</sat></trkpt>
  <trkpt lat="39.84883313" lon="32.81125654"><ele>1188.322</ele><time>2026-09-29T12:19:17Z</time><speed>0.000</speed><sat>28</sat></trkpt>
  <trkpt lat="39.84883387" lon="32.81125454"><ele>1188.990</ele><time>2026-09-29T12:19:18Z</time><speed>0.000</speed><sat>28</sat></trkpt>
  <trkpt lat="39.84883354" lon="32.81125330"><ele>1188.689</ele><time>2026-09-29T12:19:19Z</time><speed>0.000</speed><sat>28</sat></trkpt>
  <trkpt lat="39.84883354" lon="32.81125207"><ele>1188.396</ele><time>2026-09-29T12:19:20Z</time><speed>0.000</speed><sat>28</sat></trkpt>
  <trkpt lat="39.84883272" lon="32.81125079"><ele>1188.771</ele><time>2026-09-29T12:19:21Z</time><speed>0.000</speed><sat>28</sat></trkpt>
  <trkpt lat="39.84883244" lon="32.81124955"><ele>1188.108</ele><time>2026-09-29T12:19:22Z</time><speed>0.000</speed><sat>28</sat></trkpt>
  <trkpt lat="39.84883228" lon="32.81124863"><ele>1188.172</ele><time>2026-09-29T12:19:23Z</time><speed>0.000</speed><sat>29</sat></trkpt>
  <trkpt lat="39.84883131" lon="32.81124810"><ele>1188.480</ele><time>2026-09-29T12:19:24Z</time><speed>0.000</speed><sat>29</sat></trkpt>
  <trkpt lat="39.84883075" lon="32.81124788"><ele>1188.410</ele><time>2026-09-29T12:19:25Z</time><speed>0.000</speed><sat>29</sat></trkpt>
  <trkpt lat="39.84883077" lon="32.81124741"><ele>1188.344</ele><time>2026-09-29T12:19:26Z</time><speed>0.000</speed><sat>30</sat></trkpt>
  <trkpt lat="39.84883104" lon="32.81124640"><ele>1188.088</ele><time>2026-09-29T12:19:27Z</time><speed>0.000</speed><sat>30</sat></trkpt>
  <trkpt lat="39.84883142" lon="32.81124578"><ele>1188.124</ele><time>2026-09-29T12:19:28Z</time><speed>0.000</speed><sat>30</sat></trkpt>
  <trkpt lat="39.84883177" lon="32.81124509"><ele>1188.146</ele><time>2026-09-29T12:19:29Z</time><speed>0.000</speed><sat>30</sat></trkpt>
  <trkpt lat="39.84883179" lon="32.81124464"><ele>1188.130</ele><time>2026-09-29T12:19:30Z</time><speed>0.000</speed><sat>30</sat></trkpt>
  <trkpt lat="39.84883193" lon="32.81124454"><ele>1188.132</ele><time>2026-09-29T12:19:31Z</time><speed>0.000</speed><sat>30</sat></trkpt>
  <trkpt lat="39.84883198" lon="32.81124573"><ele>1187.797</ele><time>2026-09-29T12:19:32Z</time><speed>0.000</speed><sat>30</sat></trkpt>
  <trkpt lat="39.84883237" lon="32.81124635"><ele>1187.624</ele><time>2026-09-29T12:19:33Z</time><speed>0.000</speed><sat>30</sat></trkpt>
  <trkpt lat="39.84883352" lon="32.81124632"><ele>1187.484</ele><time>2026-09-29T12:19:34Z</time><speed>0.000</speed><sat>30</sat></trkpt>
  <trkpt lat="39.84883401" lon="32.81124491"><ele>1187.153</ele><time>2026-09-29T12:19:35Z</time><speed>0.000</speed><sat>29</sat></trkpt>
  <trkpt lat="39.84883241" lon="32.81124234"><ele>1186.383</ele><time>2026-09-29T12:19:36Z</time><speed>0.170</speed><sat>26</sat></trkpt>
  <trkpt lat="39.84882296" lon="32.81124025"><ele>1186.850</ele><time>2026-09-29T12:19:37Z</time><speed>1.630</speed><sat>26</sat></trkpt>
  <trkpt lat="39.84881746" lon="32.81124055"><ele>1186.318</ele><time>2026-09-29T12:19:38Z</time><speed>0.190</speed><sat>26</sat></trkpt>
  <trkpt lat="39.84882020" lon="32.81123879"><ele>1186.600</ele><time>2026-09-29T12:19:39Z</time><speed>0.000</speed><sat>25</sat></trkpt>
  <trkpt lat="39.84882255" lon="32.81123336"><ele>1186.532</ele><time>2026-09-29T12:19:40Z</time><speed>0.480</speed><sat>26</sat></trkpt>
  <trkpt lat="39.84882899" lon="32.81122820"><ele>1186.555</ele><time>2026-09-29T12:19:41Z</time><speed>0.000</speed><sat>26</sat></trkpt>
  <trkpt lat="39.84883014" lon="32.81122688"><ele>1186.377</ele><time>2026-09-29T12:19:42Z</time><speed>0.180</speed><sat>27</sat></trkpt>
  <trkpt lat="39.84882233" lon="32.81122759"><ele>1187.646</ele><time>2026-09-29T12:19:43Z</time><speed>1.530</speed><sat>27</sat></trkpt>
  <trkpt lat="39.84881940" lon="32.81122841"><ele>1188.587</ele><time>2026-09-29T12:19:44Z</time><speed>0.000</speed><sat>27</sat></trkpt>
  <trkpt lat="39.84882065" lon="32.81122783"><ele>1189.234</ele><time>2026-09-29T12:19:45Z</time><speed>0.000</speed><sat>27</sat></trkpt>
  <trkpt lat="39.84882093" lon="32.81122976"><ele>1190.059</ele><time>2026-09-29T12:19:46Z</time><speed>0.000</speed><sat>26</sat></trkpt>
  <trkpt lat="39.84882092" lon="32.81123163"><ele>1190.570</ele><time>2026-09-29T12:19:47Z</time><speed>0.000</speed><sat>27</sat></trkpt>
  <trkpt lat="39.84882045" lon="32.81123248"><ele>1190.886</ele><time>2026-09-29T12:19:48Z</time><speed>0.000</speed><sat>25</sat></trkpt>
  <trkpt lat="39.84881966" lon="32.81123310"><ele>1191.004</ele><time>2026-09-29T12:19:49Z</time><speed>0.000</speed><sat>25</sat></trkpt>
  <trkpt lat="39.84881932" lon="32.81123300"><ele>1191.170</ele><time>2026-09-29T12:19:50Z</time><speed>0.000</speed><sat>26</sat></trkpt>
  <trkpt lat="39.84881930" lon="32.81123236"><ele>1191.429</ele><time>2026-09-29T12:19:51Z</time><speed>0.000</speed><sat>26</sat></trkpt>
  <trkpt lat="39.84881850" lon="32.81123081"><ele>1191.432</ele><time>2026-09-29T12:19:52Z</time><speed>0.000</speed><sat>27</sat></trkpt>
  <trkpt lat="39.84881769" lon="32.81122890"><ele>1191.312</ele><time>2026-09-29T12:19:53Z</time><speed>0.000</speed><sat>27</sat></trkpt>
  <trkpt lat="39.84881653" lon="32.81122926"><ele>1190.199</ele><time>2026-09-29T12:19:54Z</time><speed>0.000</speed><sat>27</sat></trkpt>
  <trkpt lat="39.84881870" lon="32.81123114"><ele>1190.932</ele><time>2026-09-29T12:19:55Z</time><speed>0.000</speed><sat>26</sat></trkpt>
  <trkpt lat="39.84882101" lon="32.81123116"><ele>1191.092</ele><time>2026-09-29T12:19:56Z</time><speed>0.000</speed><sat>26</sat></trkpt>
  <trkpt lat="39.84882180" lon="32.81123094"><ele>1190.880</ele><time>2026-09-29T12:19:57Z</time><speed>0.000</speed><sat>26</sat></trkpt>
  <trkpt lat="39.84882257" lon="32.81123221"><ele>1190.466</ele><time>2026-09-29T12:19:58Z</time><speed>0.000</speed><sat>25</sat></trkpt>
  <trkpt lat="39.84882306" lon="32.81123359"><ele>1190.051</ele><time>2026-09-29T12:19:59Z</time><speed>0.000</speed><sat>27</sat></trkpt>
  <trkpt lat="39.84882321" lon="32.81123461"><ele>1189.760</ele><time>2026-09-29T12:20:00Z</time><speed>0.000</speed><sat>26</sat></trkpt>
  <trkpt lat="39.84882332" lon="32.81123533"><ele>1189.483</ele><time>2026-09-29T12:20:01Z</time><speed>0.000</speed><sat>26</sat></trkpt>
  <trkpt lat="39.84882502" lon="32.81123643"><ele>1189.946</ele><time>2026-09-29T12:20:02Z</time><speed>0.000</speed><sat>26</sat></trkpt>
  <trkpt lat="39.84882579" lon="32.81123681"><ele>1189.802</ele><time>2026-09-29T12:20:03Z</time><speed>0.000</speed><sat>26</sat></trkpt>
  <trkpt lat="39.84882514" lon="32.81123681"><ele>1189.493</ele><time>2026-09-29T12:20:04Z</time><speed>0.000</speed><sat>26</sat></trkpt>
  <trkpt lat="39.84882524" lon="32.81123572"><ele>1189.519</ele><time>2026-09-29T12:20:05Z</time><speed>0.000</speed><sat>25</sat></trkpt>
  <trkpt lat="39.84882518" lon="32.81123550"><ele>1189.500</ele><time>2026-09-29T12:20:06Z</time><speed>0.000</speed><sat>27</sat></trkpt>
  <trkpt lat="39.84882548" lon="32.81123514"><ele>1189.548</ele><time>2026-09-29T12:20:07Z</time><speed>0.000</speed><sat>27</sat></trkpt>
  <trkpt lat="39.84882575" lon="32.81123492"><ele>1189.532</ele><time>2026-09-29T12:20:08Z</time><speed>0.000</speed><sat>26</sat></trkpt>
  <trkpt lat="39.84882585" lon="32.81123476"><ele>1189.494</ele><time>2026-09-29T12:20:09Z</time><speed>0.000</speed><sat>26</sat></trkpt>
  <trkpt lat="39.84882587" lon="32.81123464"><ele>1189.474</ele><time>2026-09-29T12:20:10Z</time><speed>0.000</speed><sat>26</sat></trkpt>
  <trkpt lat="39.84882597" lon="32.81123449"><ele>1189.460</ele><time>2026-09-29T12:20:11Z</time><speed>0.000</speed><sat>27</sat></trkpt>
  <trkpt lat="39.84882616" lon="32.81123435"><ele>1189.490</ele><time>2026-09-29T12:20:12Z</time><speed>0.000</speed><sat>26</sat></trkpt>
  <trkpt lat="39.84882628" lon="32.81123420"><ele>1189.516</ele><time>2026-09-29T12:20:13Z</time><speed>0.000</speed><sat>26</sat></trkpt>
  <trkpt lat="39.84882634" lon="32.81123411"><ele>1189.515</ele><time>2026-09-29T12:20:14Z</time><speed>0.000</speed><sat>27</sat></trkpt>
  <trkpt lat="39.84882609" lon="32.81123356"><ele>1189.104</ele><time>2026-09-29T12:20:15Z</time><speed>0.000</speed><sat>27</sat></trkpt>
  <trkpt lat="39.84882732" lon="32.81123233"><ele>1188.991</ele><time>2026-09-29T12:20:16Z</time><speed>0.000</speed><sat>27</sat></trkpt>
  <trkpt lat="39.84882881" lon="32.81123164"><ele>1188.717</ele><time>2026-09-29T12:20:17Z</time><speed>0.000</speed><sat>26</sat></trkpt>
  <trkpt lat="39.84882991" lon="32.81123122"><ele>1188.638</ele><time>2026-09-29T12:20:18Z</time><speed>0.000</speed><sat>25</sat></trkpt>
  <trkpt lat="39.84882994" lon="32.81123154"><ele>1187.268</ele><time>2026-09-29T12:20:19Z</time><speed>0.460</speed><sat>25</sat></trkpt>
  <trkpt lat="39.84882923" lon="32.81123453"><ele>1188.347</ele><time>2026-09-29T12:20:20Z</time><speed>0.000</speed><sat>23</sat></trkpt>
  <trkpt lat="39.84882803" lon="32.81123613"><ele>1188.305</ele><time>2026-09-29T12:20:21Z</time><speed>0.000</speed><sat>22</sat></trkpt>
  <trkpt lat="39.84882825" lon="32.81123742"><ele>1188.188</ele><time>2026-09-29T12:20:22Z</time><speed>0.000</speed><sat>22</sat></trkpt>
  <trkpt lat="39.84882851" lon="32.81123840"><ele>1187.980</ele><time>2026-09-29T12:20:23Z</time><speed>0.000</speed><sat>22</sat></trkpt>
  <trkpt lat="39.84882886" lon="32.81123849"><ele>1187.657</ele><time>2026-09-29T12:20:24Z</time><speed>0.000</speed><sat>22</sat></trkpt>
  <trkpt lat="39.84882945" lon="32.81124293"><ele>1186.832</ele><time>2026-09-29T12:20:25Z</time><speed>0.000</speed><sat>22</sat></trkpt>
  <trkpt lat="39.84883488" lon="32.81124949"><ele>1186.641</ele><time>2026-09-29T12:20:26Z</time><speed>0.680</speed><sat>25</sat></trkpt>
  <trkpt lat="39.84884731" lon="32.81125366"><ele>1184.966</ele><time>2026-09-29T12:20:27Z</time><speed>1.560</speed><sat>26</sat></trkpt>
  <trkpt lat="39.84886124" lon="32.81125966"><ele>1184.380</ele><time>2026-09-29T12:20:28Z</time><speed>1.210</speed><sat>26</sat></trkpt>
  <trkpt lat="39.84887973" lon="32.81126797"><ele>1185.578</ele><time>2026-09-29T12:20:29Z</time><speed>2.540</speed><sat>27</sat></trkpt>
  <trkpt lat="39.84889699" lon="32.81127824"><ele>1184.567</ele><time>2026-09-29T12:20:30Z</time><speed>1.580</speed><sat>27</sat></trkpt>
  <trkpt lat="39.84890891" lon="32.81128629"><ele>1184.026</ele><time>2026-09-29T12:20:31Z</time><speed>1.450</speed><sat>27</sat></trkpt>
  <trkpt lat="39.84892190" lon="32.81129818"><ele>1183.332</ele><time>2026-09-29T12:20:32Z</time><speed>1.750</speed><sat>28</sat></trkpt>
  <trkpt lat="39.84893180" lon="32.81130830"><ele>1185.576</ele><time>2026-09-29T12:20:33Z</time><speed>0.930</speed><sat>29</sat></trkpt>
  <trkpt lat="39.84893734" lon="32.81131402"><ele>1185.922</ele><time>2026-09-29T12:20:34Z</time><speed>0.710</speed><sat>29</sat></trkpt>
  <trkpt lat="39.84894314" lon="32.81131760"><ele>1184.445</ele><time>2026-09-29T12:20:35Z</time><speed>0.710</speed><sat>29</sat></trkpt>
  <trkpt lat="39.84895049" lon="32.81132164"><ele>1184.781</ele><time>2026-09-29T12:20:36Z</time><speed>0.880</speed><sat>30</sat></trkpt>
  <trkpt lat="39.84895790" lon="32.81132494"><ele>1183.897</ele><time>2026-09-29T12:20:37Z</time><speed>0.770</speed><sat>30</sat></trkpt>
  <trkpt lat="39.84896609" lon="32.81132131"><ele>1183.456</ele><time>2026-09-29T12:20:38Z</time><speed>1.480</speed><sat>31</sat></trkpt>
  <trkpt lat="39.84897846" lon="32.81130813"><ele>1183.332</ele><time>2026-09-29T12:20:39Z</time><speed>1.980</speed><sat>30</sat></trkpt>
  <trkpt lat="39.84898925" lon="32.81128767"><ele>1183.221</ele><time>2026-09-29T12:20:40Z</time><speed>1.950</speed><sat>30</sat></trkpt>
  <trkpt lat="39.84899550" lon="32.81126934"><ele>1183.876</ele><time>2026-09-29T12:20:41Z</time><speed>1.390</speed><sat>30</sat></trkpt>
  <trkpt lat="39.84899917" lon="32.81125358"><ele>1185.787</ele><time>2026-09-29T12:20:42Z</time><speed>1.310</speed><sat>29</sat></trkpt>
  <trkpt lat="39.84900431" lon="32.81123638"><ele>1185.396</ele><time>2026-09-29T12:20:43Z</time><speed>1.450</speed><sat>29</sat></trkpt>
  <trkpt lat="39.84901048" lon="32.81121985"><ele>1184.967</ele><time>2026-09-29T12:20:44Z</time><speed>1.400</speed><sat>29</sat></trkpt>
  <trkpt lat="39.84901824" lon="32.81120645"><ele>1184.455</ele><time>2026-09-29T12:20:45Z</time><speed>1.320</speed><sat>31</sat></trkpt>
  <trkpt lat="39.84902662" lon="32.81119511"><ele>1184.000</ele><time>2026-09-29T12:20:46Z</time><speed>1.240</speed><sat>31</sat></trkpt>
  <trkpt lat="39.84903577" lon="32.81118889"><ele>1184.760</ele><time>2026-09-29T12:20:47Z</time><speed>1.060</speed><sat>31</sat></trkpt>
  <trkpt lat="39.84904537" lon="32.81118707"><ele>1183.555</ele><time>2026-09-29T12:20:48Z</time><speed>1.190</speed><sat>31</sat></trkpt>
  <trkpt lat="39.84905554" lon="32.81118586"><ele>1183.899</ele><time>2026-09-29T12:20:49Z</time><speed>1.170</speed><sat>31</sat></trkpt>
  <trkpt lat="39.84906256" lon="32.81118538"><ele>1182.858</ele><time>2026-09-29T12:20:50Z</time><speed>0.890</speed><sat>32</sat></trkpt>
  <trkpt lat="39.84906774" lon="32.81118642"><ele>1182.881</ele><time>2026-09-29T12:20:51Z</time><speed>0.780</speed><sat>31</sat></trkpt>
  <trkpt lat="39.84907299" lon="32.81118769"><ele>1182.961</ele><time>2026-09-29T12:20:52Z</time><speed>0.720</speed><sat>31</sat></trkpt>
  <trkpt lat="39.84907817" lon="32.81118877"><ele>1183.068</ele><time>2026-09-29T12:20:53Z</time><speed>0.750</speed><sat>32</sat></trkpt>
  <trkpt lat="39.84908219" lon="32.81118895"><ele>1182.967</ele><time>2026-09-29T12:20:54Z</time><speed>0.550</speed><sat>32</sat></trkpt>
  <trkpt lat="39.84908621" lon="32.81118880"><ele>1183.260</ele><time>2026-09-29T12:20:55Z</time><speed>0.520</speed><sat>32</sat></trkpt>
  <trkpt lat="39.84908986" lon="32.81118820"><ele>1183.169</ele><time>2026-09-29T12:20:56Z</time><speed>0.540</speed><sat>32</sat></trkpt>
  <trkpt lat="39.84909391" lon="32.81118812"><ele>1183.126</ele><time>2026-09-29T12:20:57Z</time><speed>0.480</speed><sat>32</sat></trkpt>
  <trkpt lat="39.84909875" lon="32.81118826"><ele>1182.924</ele><time>2026-09-29T12:20:58Z</time><speed>0.540</speed><sat>32</sat></trkpt>
 </trkseg>
</trk>

</gpx>
 