<?xml version="1.0" encoding="UTF-8"?>
<!-- Created with BasicAirData GPS Logger for Android - ver. 3.3.0 -->
<!-- Track 6 = 419 TrackPoints + 0 Placemarks -->

<!-- Track Statistics (based on Total Time | Time in Movement): -->
<!--  Distance = 7.18 km -->
<!--  Duration = 06:58 | 05:48 -->
<!--  Altitude Gap = 78 m -->
<!--  Max Speed = 91 km/h -->
<!--  Avg Speed = 61.9 | 74.3 km/h -->
<!--  Direction = SSE -->
<!--  Activity = car -->
<!--  Altitudes = Raw -->

<gpx version="1.0"
     creator="BasicAirData GPS Logger 3.3.0"
     xmlns="http://www.topografix.com/GPX/1/0"
     xmlns:xsi="http://www.w3.org/2001/XMLSchema-instance"
     xsi:schemaLocation="http://www.topografix.com/GPX/1/0 http://www.topografix.com/GPX/1/0/gpx.xsd">
<name>Day 2: hithhike #1</name>
<desc>Hitchhike 1 - 10 September</desc>
<time>2026-09-10T16:37:14Z</time>
<keywords>car</keywords>
<bounds minlat="39.45478746" minlon="43.98634363" maxlat="39.51551316" maxlon="44.00997240" />

<trk>
 <name>Track 20260910-085458</name>
 <trkseg>
  <trkpt lat="39.51551316" lon="43.98634363"><ele>1737.017</ele><time>2026-09-10T05:54:58Z</time><speed>19.850</speed><sat>34</sat></trkpt>
  <trkpt lat="39.51534424" lon="43.98642176"><ele>1737.448</ele><time>2026-09-10T05:54:59Z</time><speed>20.160</speed><sat>35</sat></trkpt>
  <trkpt lat="39.51517290" lon="43.98650322"><ele>1737.836</ele><time>2026-09-10T05:55:00Z</time><speed>20.510</speed><sat>35</sat></trkpt>
  <trkpt lat="39.51500106" lon="43.98658702"><ele>1737.882</ele><time>2026-09-10T05:55:01Z</time><speed>20.380</speed><sat>35</sat></trkpt>
  <trkpt lat="39.51483267" lon="43.98667596"><ele>1738.886</ele><time>2026-09-10T05:55:02Z</time><speed>21.030</speed><sat>35</sat></trkpt>
  <trkpt lat="39.51465786" lon="43.98676703"><ele>1738.963</ele><time>2026-09-10T05:55:03Z</time><speed>21.130</speed><sat>35</sat></trkpt>
  <trkpt lat="39.51448918" lon="43.98685688"><ele>1739.108</ele><time>2026-09-10T05:55:04Z</time><speed>21.140</speed><sat>35</sat></trkpt>
  <trkpt lat="39.51431074" lon="43.98694486"><ele>1739.419</ele><time>2026-09-10T05:55:05Z</time><speed>21.430</speed><sat>35</sat></trkpt>
  <trkpt lat="39.51413912" lon="43.98703274"><ele>1739.684</ele><time>2026-09-10T05:55:06Z</time><speed>20.460</speed><sat>35</sat></trkpt>
  <trkpt lat="39.51396425" lon="43.98712654"><ele>1739.928</ele><time>2026-09-10T05:55:07Z</time><speed>20.720</speed><sat>35</sat></trkpt>
  <trkpt lat="39.51377473" lon="43.98721287"><ele>1740.456</ele><time>2026-09-10T05:55:08Z</time><speed>21.770</speed><sat>27</sat></trkpt>
  <trkpt lat="39.51358447" lon="43.98729743"><ele>1741.368</ele><time>2026-09-10T05:55:09Z</time><speed>21.620</speed><sat>28</sat></trkpt>
  <trkpt lat="39.51340389" lon="43.98739637"><ele>1742.271</ele><time>2026-09-10T05:55:10Z</time><speed>21.690</speed><sat>27</sat></trkpt>
  <trkpt lat="39.51321975" lon="43.98748740"><ele>1742.878</ele><time>2026-09-10T05:55:11Z</time><speed>21.790</speed><sat>28</sat></trkpt>
  <trkpt lat="39.51304155" lon="43.98759551"><ele>1744.159</ele><time>2026-09-10T05:55:12Z</time><speed>22.010</speed><sat>26</sat></trkpt>
  <trkpt lat="39.51286397" lon="43.98769460"><ele>1745.811</ele><time>2026-09-10T05:55:13Z</time><speed>22.080</speed><sat>27</sat></trkpt>
  <trkpt lat="39.51267641" lon="43.98779777"><ele>1746.598</ele><time>2026-09-10T05:55:14Z</time><speed>22.130</speed><sat>29</sat></trkpt>
  <trkpt lat="39.51249294" lon="43.98788642"><ele>1747.285</ele><time>2026-09-10T05:55:15Z</time><speed>22.130</speed><sat>28</sat></trkpt>
  <trkpt lat="39.51230514" lon="43.98798778"><ele>1748.138</ele><time>2026-09-10T05:55:16Z</time><speed>22.220</speed><sat>28</sat></trkpt>
  <trkpt lat="39.51212165" lon="43.98809298"><ele>1749.462</ele><time>2026-09-10T05:55:17Z</time><speed>22.230</speed><sat>27</sat></trkpt>
  <trkpt lat="39.51193746" lon="43.98818891"><ele>1750.587</ele><time>2026-09-10T05:55:18Z</time><speed>22.350</speed><sat>29</sat></trkpt>
  <trkpt lat="39.51175424" lon="43.98829121"><ele>1751.490</ele><time>2026-09-10T05:55:19Z</time><speed>22.290</speed><sat>29</sat></trkpt>
  <trkpt lat="39.51157316" lon="43.98839531"><ele>1751.822</ele><time>2026-09-10T05:55:20Z</time><speed>22.320</speed><sat>28</sat></trkpt>
  <trkpt lat="39.51138522" lon="43.98849890"><ele>1752.507</ele><time>2026-09-10T05:55:21Z</time><speed>22.330</speed><sat>28</sat></trkpt>
  <trkpt lat="39.51119810" lon="43.98860357"><ele>1752.779</ele><time>2026-09-10T05:55:22Z</time><speed>22.290</speed><sat>30</sat></trkpt>
  <trkpt lat="39.51101452" lon="43.98870417"><ele>1752.877</ele><time>2026-09-10T05:55:23Z</time><speed>22.220</speed><sat>30</sat></trkpt>
  <trkpt lat="39.51082723" lon="43.98880302"><ele>1753.656</ele><time>2026-09-10T05:55:24Z</time><speed>22.150</speed><sat>28</sat></trkpt>
  <trkpt lat="39.51064903" lon="43.98890874"><ele>1753.844</ele><time>2026-09-10T05:55:25Z</time><speed>22.030</speed><sat>27</sat></trkpt>
  <trkpt lat="39.51046630" lon="43.98901138"><ele>1753.974</ele><time>2026-09-10T05:55:26Z</time><speed>21.980</speed><sat>25</sat></trkpt>
  <trkpt lat="39.51028414" lon="43.98912169"><ele>1754.161</ele><time>2026-09-10T05:55:27Z</time><speed>22.020</speed><sat>25</sat></trkpt>
  <trkpt lat="39.51010739" lon="43.98922529"><ele>1754.494</ele><time>2026-09-10T05:55:28Z</time><speed>22.030</speed><sat>26</sat></trkpt>
  <trkpt lat="39.50992680" lon="43.98933533"><ele>1754.932</ele><time>2026-09-10T05:55:29Z</time><speed>22.070</speed><sat>26</sat></trkpt>
  <trkpt lat="39.50974592" lon="43.98944695"><ele>1755.612</ele><time>2026-09-10T05:55:30Z</time><speed>22.050</speed><sat>26</sat></trkpt>
  <trkpt lat="39.50956608" lon="43.98956288"><ele>1756.608</ele><time>2026-09-10T05:55:31Z</time><speed>22.120</speed><sat>27</sat></trkpt>
  <trkpt lat="39.50938691" lon="43.98968235"><ele>1756.777</ele><time>2026-09-10T05:55:32Z</time><speed>22.180</speed><sat>27</sat></trkpt>
  <trkpt lat="39.50920543" lon="43.98979741"><ele>1757.216</ele><time>2026-09-10T05:55:33Z</time><speed>22.250</speed><sat>30</sat></trkpt>
  <trkpt lat="39.50903516" lon="43.98991048"><ele>1757.748</ele><time>2026-09-10T05:55:34Z</time><speed>22.270</speed><sat>31</sat></trkpt>
  <trkpt lat="39.50885756" lon="43.99003731"><ele>1758.391</ele><time>2026-09-10T05:55:35Z</time><speed>22.290</speed><sat>32</sat></trkpt>
  <trkpt lat="39.50868541" lon="43.99015230"><ele>1757.758</ele><time>2026-09-10T05:55:36Z</time><speed>22.320</speed><sat>31</sat></trkpt>
  <trkpt lat="39.50850880" lon="43.99028248"><ele>1758.493</ele><time>2026-09-10T05:55:37Z</time><speed>22.270</speed><sat>32</sat></trkpt>
  <trkpt lat="39.50833067" lon="43.99040866"><ele>1759.296</ele><time>2026-09-10T05:55:38Z</time><speed>22.210</speed><sat>33</sat></trkpt>
  <trkpt lat="39.50815953" lon="43.99053512"><ele>1759.483</ele><time>2026-09-10T05:55:39Z</time><speed>22.180</speed><sat>32</sat></trkpt>
  <trkpt lat="39.50798881" lon="43.99066303"><ele>1759.982</ele><time>2026-09-10T05:55:40Z</time><speed>22.160</speed><sat>32</sat></trkpt>
  <trkpt lat="39.50781421" lon="43.99079303"><ele>1760.382</ele><time>2026-09-10T05:55:41Z</time><speed>22.110</speed><sat>30</sat></trkpt>
  <trkpt lat="39.50763789" lon="43.99091990"><ele>1760.530</ele><time>2026-09-10T05:55:42Z</time><speed>22.490</speed><sat>31</sat></trkpt>
  <trkpt lat="39.50746163" lon="43.99105606"><ele>1760.163</ele><time>2026-09-10T05:55:43Z</time><speed>22.500</speed><sat>32</sat></trkpt>
  <trkpt lat="39.50728650" lon="43.99119836"><ele>1761.822</ele><time>2026-09-10T05:55:44Z</time><speed>22.820</speed><sat>32</sat></trkpt>
  <trkpt lat="39.50711863" lon="43.99133482"><ele>1762.768</ele><time>2026-09-10T05:55:45Z</time><speed>22.370</speed><sat>32</sat></trkpt>
  <trkpt lat="39.50694662" lon="43.99147468"><ele>1764.290</ele><time>2026-09-10T05:55:46Z</time><speed>22.640</speed><sat>33</sat></trkpt>
  <trkpt lat="39.50677333" lon="43.99161469"><ele>1764.946</ele><time>2026-09-10T05:55:47Z</time><speed>22.790</speed><sat>34</sat></trkpt>
  <trkpt lat="39.50659717" lon="43.99175170"><ele>1765.606</ele><time>2026-09-10T05:55:48Z</time><speed>22.830</speed><sat>35</sat></trkpt>
  <trkpt lat="39.50642180" lon="43.99189041"><ele>1766.162</ele><time>2026-09-10T05:55:49Z</time><speed>22.980</speed><sat>35</sat></trkpt>
  <trkpt lat="39.50624073" lon="43.99202833"><ele>1767.816</ele><time>2026-09-10T05:55:50Z</time><speed>23.180</speed><sat>35</sat></trkpt>
  <trkpt lat="39.50606086" lon="43.99216120"><ele>1768.834</ele><time>2026-09-10T05:55:51Z</time><speed>23.290</speed><sat>34</sat></trkpt>
  <trkpt lat="39.50588407" lon="43.99229223"><ele>1768.522</ele><time>2026-09-10T05:55:52Z</time><speed>22.560</speed><sat>32</sat></trkpt>
  <trkpt lat="39.50570673" lon="43.99242884"><ele>1768.693</ele><time>2026-09-10T05:55:53Z</time><speed>22.620</speed><sat>32</sat></trkpt>
  <trkpt lat="39.50552774" lon="43.99255598"><ele>1768.573</ele><time>2026-09-10T05:55:54Z</time><speed>22.280</speed><sat>32</sat></trkpt>
  <trkpt lat="39.50534931" lon="43.99266025"><ele>1768.248</ele><time>2026-09-10T05:55:55Z</time><speed>21.550</speed><sat>32</sat></trkpt>
  <trkpt lat="39.50518390" lon="43.99277727"><ele>1767.808</ele><time>2026-09-10T05:55:56Z</time><speed>20.940</speed><sat>32</sat></trkpt>
  <trkpt lat="39.50499541" lon="43.99291525"><ele>1768.418</ele><time>2026-09-10T05:55:57Z</time><speed>21.840</speed><sat>29</sat></trkpt>
  <trkpt lat="39.50479011" lon="43.99305410"><ele>1769.438</ele><time>2026-09-10T05:55:58Z</time><speed>22.960</speed><sat>27</sat></trkpt>
  <trkpt lat="39.50460132" lon="43.99321078"><ele>1773.039</ele><time>2026-09-10T05:55:59Z</time><speed>23.460</speed><sat>27</sat></trkpt>
  <trkpt lat="39.50440390" lon="43.99333080"><ele>1774.021</ele><time>2026-09-10T05:56:00Z</time><speed>22.700</speed><sat>28</sat></trkpt>
  <trkpt lat="39.50421151" lon="43.99344423"><ele>1774.842</ele><time>2026-09-10T05:56:01Z</time><speed>22.270</speed><sat>28</sat></trkpt>
  <trkpt lat="39.50403143" lon="43.99355457"><ele>1775.714</ele><time>2026-09-10T05:56:02Z</time><speed>21.670</speed><sat>28</sat></trkpt>
  <trkpt lat="39.50385356" lon="43.99366112"><ele>1776.626</ele><time>2026-09-10T05:56:03Z</time><speed>21.080</speed><sat>28</sat></trkpt>
  <trkpt lat="39.50368863" lon="43.99377382"><ele>1777.791</ele><time>2026-09-10T05:56:04Z</time><speed>20.380</speed><sat>28</sat></trkpt>
  <trkpt lat="39.50352866" lon="43.99387412"><ele>1777.831</ele><time>2026-09-10T05:56:05Z</time><speed>19.310</speed><sat>29</sat></trkpt>
  <trkpt lat="39.50337686" lon="43.99402501"><ele>1779.875</ele><time>2026-09-10T05:56:06Z</time><speed>20.830</speed><sat>29</sat></trkpt>
  <trkpt lat="39.50322323" lon="43.99416927"><ele>1780.667</ele><time>2026-09-10T05:56:07Z</time><speed>20.630</speed><sat>29</sat></trkpt>
  <trkpt lat="39.50307460" lon="43.99431469"><ele>1781.019</ele><time>2026-09-10T05:56:08Z</time><speed>20.750</speed><sat>30</sat></trkpt>
  <trkpt lat="39.50292354" lon="43.99445585"><ele>1781.358</ele><time>2026-09-10T05:56:09Z</time><speed>20.800</speed><sat>30</sat></trkpt>
  <trkpt lat="39.50276889" lon="43.99459162"><ele>1782.599</ele><time>2026-09-10T05:56:10Z</time><speed>21.050</speed><sat>30</sat></trkpt>
  <trkpt lat="39.50260878" lon="43.99471939"><ele>1782.871</ele><time>2026-09-10T05:56:11Z</time><speed>21.180</speed><sat>30</sat></trkpt>
  <trkpt lat="39.50244169" lon="43.99483925"><ele>1783.017</ele><time>2026-09-10T05:56:12Z</time><speed>21.450</speed><sat>29</sat></trkpt>
  <trkpt lat="39.50227477" lon="43.99495808"><ele>1783.304</ele><time>2026-09-10T05:56:13Z</time><speed>21.710</speed><sat>31</sat></trkpt>
  <trkpt lat="39.50210098" lon="43.99507929"><ele>1783.422</ele><time>2026-09-10T05:56:14Z</time><speed>22.000</speed><sat>30</sat></trkpt>
  <trkpt lat="39.50192557" lon="43.99520470"><ele>1783.409</ele><time>2026-09-10T05:56:15Z</time><speed>22.230</speed><sat>30</sat></trkpt>
  <trkpt lat="39.50174768" lon="43.99533062"><ele>1783.188</ele><time>2026-09-10T05:56:16Z</time><speed>22.500</speed><sat>31</sat></trkpt>
  <trkpt lat="39.50156958" lon="43.99545801"><ele>1783.445</ele><time>2026-09-10T05:56:17Z</time><speed>22.660</speed><sat>31</sat></trkpt>
  <trkpt lat="39.50139050" lon="43.99558704"><ele>1783.347</ele><time>2026-09-10T05:56:18Z</time><speed>22.910</speed><sat>31</sat></trkpt>
  <trkpt lat="39.50120948" lon="43.99571662"><ele>1783.339</ele><time>2026-09-10T05:56:19Z</time><speed>23.100</speed><sat>32</sat></trkpt>
  <trkpt lat="39.50102730" lon="43.99584957"><ele>1783.621</ele><time>2026-09-10T05:56:20Z</time><speed>23.250</speed><sat>33</sat></trkpt>
  <trkpt lat="39.50084458" lon="43.99598310"><ele>1783.694</ele><time>2026-09-10T05:56:21Z</time><speed>23.320</speed><sat>32</sat></trkpt>
  <trkpt lat="39.50066039" lon="43.99611834"><ele>1783.813</ele><time>2026-09-10T05:56:22Z</time><speed>23.440</speed><sat>31</sat></trkpt>
  <trkpt lat="39.50047689" lon="43.99625558"><ele>1783.844</ele><time>2026-09-10T05:56:23Z</time><speed>23.530</speed><sat>31</sat></trkpt>
  <trkpt lat="39.50029257" lon="43.99639311"><ele>1783.969</ele><time>2026-09-10T05:56:24Z</time><speed>23.600</speed><sat>31</sat></trkpt>
  <trkpt lat="39.50010819" lon="43.99652894"><ele>1784.184</ele><time>2026-09-10T05:56:25Z</time><speed>23.700</speed><sat>31</sat></trkpt>
  <trkpt lat="39.49992220" lon="43.99666406"><ele>1784.086</ele><time>2026-09-10T05:56:26Z</time><speed>23.740</speed><sat>31</sat></trkpt>
  <trkpt lat="39.49973511" lon="43.99680120"><ele>1784.074</ele><time>2026-09-10T05:56:27Z</time><speed>23.750</speed><sat>31</sat></trkpt>
  <trkpt lat="39.49954937" lon="43.99694047"><ele>1784.313</ele><time>2026-09-10T05:56:28Z</time><speed>23.810</speed><sat>30</sat></trkpt>
  <trkpt lat="39.49936257" lon="43.99707831"><ele>1784.417</ele><time>2026-09-10T05:56:29Z</time><speed>23.870</speed><sat>30</sat></trkpt>
  <trkpt lat="39.49917536" lon="43.99721493"><ele>1784.699</ele><time>2026-09-10T05:56:30Z</time><speed>23.920</speed><sat>31</sat></trkpt>
  <trkpt lat="39.49898769" lon="43.99735239"><ele>1784.892</ele><time>2026-09-10T05:56:31Z</time><speed>23.960</speed><sat>31</sat></trkpt>
  <trkpt lat="39.49879843" lon="43.99748977"><ele>1784.952</ele><time>2026-09-10T05:56:32Z</time><speed>24.010</speed><sat>30</sat></trkpt>
  <trkpt lat="39.49861028" lon="43.99762922"><ele>1785.022</ele><time>2026-09-10T05:56:33Z</time><speed>24.040</speed><sat>30</sat></trkpt>
  <trkpt lat="39.49842319" lon="43.99776427"><ele>1785.251</ele><time>2026-09-10T05:56:34Z</time><speed>24.080</speed><sat>31</sat></trkpt>
  <trkpt lat="39.49823273" lon="43.99790058"><ele>1785.435</ele><time>2026-09-10T05:56:35Z</time><speed>24.100</speed><sat>31</sat></trkpt>
  <trkpt lat="39.49804562" lon="43.99803934"><ele>1785.627</ele><time>2026-09-10T05:56:36Z</time><speed>24.060</speed><sat>31</sat></trkpt>
  <trkpt lat="39.49785779" lon="43.99817683"><ele>1785.535</ele><time>2026-09-10T05:56:37Z</time><speed>23.970</speed><sat>31</sat></trkpt>
  <trkpt lat="39.49767212" lon="43.99831169"><ele>1785.648</ele><time>2026-09-10T05:56:38Z</time><speed>23.850</speed><sat>31</sat></trkpt>
  <trkpt lat="39.49748659" lon="43.99844760"><ele>1785.866</ele><time>2026-09-10T05:56:39Z</time><speed>23.750</speed><sat>30</sat></trkpt>
  <trkpt lat="39.49730174" lon="43.99858045"><ele>1786.493</ele><time>2026-09-10T05:56:40Z</time><speed>23.720</speed><sat>30</sat></trkpt>
  <trkpt lat="39.49711435" lon="43.99871026"><ele>1786.921</ele><time>2026-09-10T05:56:41Z</time><speed>23.740</speed><sat>30</sat></trkpt>
  <trkpt lat="39.49692678" lon="43.99884066"><ele>1787.500</ele><time>2026-09-10T05:56:42Z</time><speed>23.770</speed><sat>30</sat></trkpt>
  <trkpt lat="39.49673599" lon="43.99897221"><ele>1787.568</ele><time>2026-09-10T05:56:43Z</time><speed>23.790</speed><sat>29</sat></trkpt>
  <trkpt lat="39.49654648" lon="43.99910173"><ele>1787.658</ele><time>2026-09-10T05:56:44Z</time><speed>23.820</speed><sat>27</sat></trkpt>
  <trkpt lat="39.49635735" lon="43.99923088"><ele>1787.696</ele><time>2026-09-10T05:56:45Z</time><speed>23.850</speed><sat>28</sat></trkpt>
  <trkpt lat="39.49616526" lon="43.99935989"><ele>1787.543</ele><time>2026-09-10T05:56:46Z</time><speed>23.890</speed><sat>28</sat></trkpt>
  <trkpt lat="39.49597339" lon="43.99949000"><ele>1787.646</ele><time>2026-09-10T05:56:47Z</time><speed>24.000</speed><sat>27</sat></trkpt>
  <trkpt lat="39.49578023" lon="43.99961919"><ele>1787.797</ele><time>2026-09-10T05:56:48Z</time><speed>24.080</speed><sat>28</sat></trkpt>
  <trkpt lat="39.49558784" lon="43.99975179"><ele>1788.401</ele><time>2026-09-10T05:56:49Z</time><speed>24.150</speed><sat>28</sat></trkpt>
  <trkpt lat="39.49539423" lon="43.99988349"><ele>1788.255</ele><time>2026-09-10T05:56:50Z</time><speed>24.210</speed><sat>28</sat></trkpt>
  <trkpt lat="39.49519972" lon="44.00001831"><ele>1788.433</ele><time>2026-09-10T05:56:51Z</time><speed>24.300</speed><sat>28</sat></trkpt>
  <trkpt lat="39.49500730" lon="44.00015413"><ele>1788.371</ele><time>2026-09-10T05:56:52Z</time><speed>24.350</speed><sat>29</sat></trkpt>
  <trkpt lat="39.49481510" lon="44.00029253"><ele>1788.387</ele><time>2026-09-10T05:56:53Z</time><speed>24.440</speed><sat>30</sat></trkpt>
  <trkpt lat="39.49462287" lon="44.00043060"><ele>1788.267</ele><time>2026-09-10T05:56:54Z</time><speed>24.520</speed><sat>31</sat></trkpt>
  <trkpt lat="39.49442947" lon="44.00056891"><ele>1788.259</ele><time>2026-09-10T05:56:55Z</time><speed>24.590</speed><sat>31</sat></trkpt>
  <trkpt lat="39.49423602" lon="44.00070850"><ele>1788.107</ele><time>2026-09-10T05:56:56Z</time><speed>24.660</speed><sat>31</sat></trkpt>
  <trkpt lat="39.49404448" lon="44.00084955"><ele>1787.932</ele><time>2026-09-10T05:56:57Z</time><speed>24.700</speed><sat>32</sat></trkpt>
  <trkpt lat="39.49385173" lon="44.00099277"><ele>1787.785</ele><time>2026-09-10T05:56:58Z</time><speed>24.670</speed><sat>32</sat></trkpt>
  <trkpt lat="39.49365830" lon="44.00113525"><ele>1787.773</ele><time>2026-09-10T05:56:59Z</time><speed>24.710</speed><sat>32</sat></trkpt>
  <trkpt lat="39.49346514" lon="44.00127582"><ele>1787.557</ele><time>2026-09-10T05:57:00Z</time><speed>24.770</speed><sat>32</sat></trkpt>
  <trkpt lat="39.49326985" lon="44.00141823"><ele>1787.523</ele><time>2026-09-10T05:57:01Z</time><speed>24.760</speed><sat>31</sat></trkpt>
  <trkpt lat="39.49307328" lon="44.00156239"><ele>1787.329</ele><time>2026-09-10T05:57:02Z</time><speed>24.850</speed><sat>31</sat></trkpt>
  <trkpt lat="39.49287768" lon="44.00170643"><ele>1787.269</ele><time>2026-09-10T05:57:03Z</time><speed>24.850</speed><sat>31</sat></trkpt>
  <trkpt lat="39.49268245" lon="44.00184852"><ele>1787.338</ele><time>2026-09-10T05:57:04Z</time><speed>24.860</speed><sat>32</sat></trkpt>
  <trkpt lat="39.49248744" lon="44.00199267"><ele>1787.294</ele><time>2026-09-10T05:57:05Z</time><speed>24.920</speed><sat>32</sat></trkpt>
  <trkpt lat="39.49229236" lon="44.00213657"><ele>1787.229</ele><time>2026-09-10T05:57:06Z</time><speed>24.930</speed><sat>32</sat></trkpt>
  <trkpt lat="39.49209651" lon="44.00228029"><ele>1787.080</ele><time>2026-09-10T05:57:07Z</time><speed>24.990</speed><sat>32</sat></trkpt>
  <trkpt lat="39.49190123" lon="44.00242554"><ele>1786.917</ele><time>2026-09-10T05:57:08Z</time><speed>25.030</speed><sat>32</sat></trkpt>
  <trkpt lat="39.49170581" lon="44.00257042"><ele>1787.027</ele><time>2026-09-10T05:57:09Z</time><speed>25.110</speed><sat>32</sat></trkpt>
  <trkpt lat="39.49150885" lon="44.00271620"><ele>1786.981</ele><time>2026-09-10T05:57:10Z</time><speed>25.140</speed><sat>32</sat></trkpt>
  <trkpt lat="39.49131162" lon="44.00286125"><ele>1786.698</ele><time>2026-09-10T05:57:11Z</time><speed>25.100</speed><sat>32</sat></trkpt>
  <trkpt lat="39.49111593" lon="44.00300131"><ele>1786.509</ele><time>2026-09-10T05:57:12Z</time><speed>25.080</speed><sat>32</sat></trkpt>
  <trkpt lat="39.49091861" lon="44.00313981"><ele>1786.200</ele><time>2026-09-10T05:57:13Z</time><speed>25.120</speed><sat>33</sat></trkpt>
  <trkpt lat="39.49071979" lon="44.00327971"><ele>1786.208</ele><time>2026-09-10T05:57:14Z</time><speed>25.080</speed><sat>33</sat></trkpt>
  <trkpt lat="39.49052121" lon="44.00341474"><ele>1785.820</ele><time>2026-09-10T05:57:15Z</time><speed>24.890</speed><sat>33</sat></trkpt>
  <trkpt lat="39.49031918" lon="44.00353996"><ele>1785.441</ele><time>2026-09-10T05:57:16Z</time><speed>24.960</speed><sat>33</sat></trkpt>
  <trkpt lat="39.49011906" lon="44.00366425"><ele>1785.185</ele><time>2026-09-10T05:57:17Z</time><speed>24.680</speed><sat>34</sat></trkpt>
  <trkpt lat="39.48992051" lon="44.00378740"><ele>1784.994</ele><time>2026-09-10T05:57:18Z</time><speed>24.790</speed><sat>34</sat></trkpt>
  <trkpt lat="39.48972161" lon="44.00391450"><ele>1784.681</ele><time>2026-09-10T05:57:19Z</time><speed>24.560</speed><sat>34</sat></trkpt>
  <trkpt lat="39.48952424" lon="44.00404298"><ele>1784.685</ele><time>2026-09-10T05:57:20Z</time><speed>24.630</speed><sat>34</sat></trkpt>
  <trkpt lat="39.48933114" lon="44.00417212"><ele>1784.598</ele><time>2026-09-10T05:57:21Z</time><speed>24.030</speed><sat>34</sat></trkpt>
  <trkpt lat="39.48912563" lon="44.00429666"><ele>1784.330</ele><time>2026-09-10T05:57:22Z</time><speed>24.860</speed><sat>34</sat></trkpt>
  <trkpt lat="39.48893158" lon="44.00441223"><ele>1783.809</ele><time>2026-09-10T05:57:23Z</time><speed>23.620</speed><sat>34</sat></trkpt>
  <trkpt lat="39.48874329" lon="44.00455037"><ele>1784.811</ele><time>2026-09-10T05:57:24Z</time><speed>24.020</speed><sat>34</sat></trkpt>
  <trkpt lat="39.48855940" lon="44.00468706"><ele>1784.390</ele><time>2026-09-10T05:57:25Z</time><speed>23.430</speed><sat>34</sat></trkpt>
  <trkpt lat="39.48839479" lon="44.00482652"><ele>1785.040</ele><time>2026-09-10T05:57:26Z</time><speed>22.180</speed><sat>34</sat></trkpt>
  <trkpt lat="39.48820797" lon="44.00497359"><ele>1784.517</ele><time>2026-09-10T05:57:27Z</time><speed>23.100</speed><sat>35</sat></trkpt>
  <trkpt lat="39.48799810" lon="44.00508790"><ele>1785.543</ele><time>2026-09-10T05:57:28Z</time><speed>24.290</speed><sat>35</sat></trkpt>
  <trkpt lat="39.48779236" lon="44.00520209"><ele>1785.915</ele><time>2026-09-10T05:57:29Z</time><speed>24.170</speed><sat>35</sat></trkpt>
  <trkpt lat="39.48758657" lon="44.00531034"><ele>1786.272</ele><time>2026-09-10T05:57:30Z</time><speed>23.980</speed><sat>35</sat></trkpt>
  <trkpt lat="39.48738275" lon="44.00541013"><ele>1785.442</ele><time>2026-09-10T05:57:31Z</time><speed>23.930</speed><sat>35</sat></trkpt>
  <trkpt lat="39.48718192" lon="44.00550466"><ele>1785.470</ele><time>2026-09-10T05:57:32Z</time><speed>23.900</speed><sat>35</sat></trkpt>
  <trkpt lat="39.48697983" lon="44.00559994"><ele>1785.145</ele><time>2026-09-10T05:57:33Z</time><speed>23.700</speed><sat>35</sat></trkpt>
  <trkpt lat="39.48677270" lon="44.00568718"><ele>1785.408</ele><time>2026-09-10T05:57:34Z</time><speed>24.070</speed><sat>34</sat></trkpt>
  <trkpt lat="39.48656569" lon="44.00577725"><ele>1785.226</ele><time>2026-09-10T05:57:35Z</time><speed>24.180</speed><sat>35</sat></trkpt>
  <trkpt lat="39.48636100" lon="44.00586284"><ele>1785.384</ele><time>2026-09-10T05:57:36Z</time><speed>23.990</speed><sat>35</sat></trkpt>
  <trkpt lat="39.48615044" lon="44.00594621"><ele>1785.227</ele><time>2026-09-10T05:57:37Z</time><speed>24.260</speed><sat>35</sat></trkpt>
  <trkpt lat="39.48594375" lon="44.00602619"><ele>1785.452</ele><time>2026-09-10T05:57:38Z</time><speed>24.090</speed><sat>35</sat></trkpt>
  <trkpt lat="39.48573513" lon="44.00610219"><ele>1785.157</ele><time>2026-09-10T05:57:39Z</time><speed>24.050</speed><sat>35</sat></trkpt>
  <trkpt lat="39.48552544" lon="44.00617238"><ele>1785.327</ele><time>2026-09-10T05:57:40Z</time><speed>24.020</speed><sat>35</sat></trkpt>
  <trkpt lat="39.48531513" lon="44.00623801"><ele>1785.322</ele><time>2026-09-10T05:57:41Z</time><speed>23.940</speed><sat>35</sat></trkpt>
  <trkpt lat="39.48510438" lon="44.00630053"><ele>1785.243</ele><time>2026-09-10T05:57:42Z</time><speed>23.930</speed><sat>35</sat></trkpt>
  <trkpt lat="39.48489230" lon="44.00636092"><ele>1785.293</ele><time>2026-09-10T05:57:43Z</time><speed>23.850</speed><sat>35</sat></trkpt>
  <trkpt lat="39.48468069" lon="44.00641669"><ele>1785.376</ele><time>2026-09-10T05:57:44Z</time><speed>23.780</speed><sat>35</sat></trkpt>
  <trkpt lat="39.48447269" lon="44.00647065"><ele>1785.346</ele><time>2026-09-10T05:57:45Z</time><speed>23.710</speed><sat>35</sat></trkpt>
  <trkpt lat="39.48426364" lon="44.00652124"><ele>1785.499</ele><time>2026-09-10T05:57:46Z</time><speed>23.740</speed><sat>35</sat></trkpt>
  <trkpt lat="39.48405459" lon="44.00656842"><ele>1785.396</ele><time>2026-09-10T05:57:47Z</time><speed>23.580</speed><sat>35</sat></trkpt>
  <trkpt lat="39.48384502" lon="44.00661482"><ele>1785.655</ele><time>2026-09-10T05:57:48Z</time><speed>23.540</speed><sat>35</sat></trkpt>
  <trkpt lat="39.48363439" lon="44.00665529"><ele>1785.783</ele><time>2026-09-10T05:57:49Z</time><speed>23.530</speed><sat>35</sat></trkpt>
  <trkpt lat="39.48342448" lon="44.00669224"><ele>1785.745</ele><time>2026-09-10T05:57:50Z</time><speed>23.450</speed><sat>35</sat></trkpt>
  <trkpt lat="39.48321552" lon="44.00672684"><ele>1786.003</ele><time>2026-09-10T05:57:51Z</time><speed>23.320</speed><sat>35</sat></trkpt>
  <trkpt lat="39.48300828" lon="44.00675801"><ele>1785.896</ele><time>2026-09-10T05:57:52Z</time><speed>22.800</speed><sat>34</sat></trkpt>
  <trkpt lat="39.48280831" lon="44.00678437"><ele>1785.792</ele><time>2026-09-10T05:57:53Z</time><speed>22.130</speed><sat>35</sat></trkpt>
  <trkpt lat="39.48260801" lon="44.00680912"><ele>1786.211</ele><time>2026-09-10T05:57:54Z</time><speed>21.900</speed><sat>35</sat></trkpt>
  <trkpt lat="39.48241362" lon="44.00683111"><ele>1786.438</ele><time>2026-09-10T05:57:55Z</time><speed>21.610</speed><sat>35</sat></trkpt>
  <trkpt lat="39.48221962" lon="44.00685002"><ele>1786.889</ele><time>2026-09-10T05:57:56Z</time><speed>21.600</speed><sat>35</sat></trkpt>
  <trkpt lat="39.48202722" lon="44.00686687"><ele>1786.985</ele><time>2026-09-10T05:57:57Z</time><speed>21.270</speed><sat>35</sat></trkpt>
  <trkpt lat="39.48183879" lon="44.00688194"><ele>1786.936</ele><time>2026-09-10T05:57:58Z</time><speed>20.910</speed><sat>34</sat></trkpt>
  <trkpt lat="39.48165163" lon="44.00689841"><ele>1786.917</ele><time>2026-09-10T05:57:59Z</time><speed>20.670</speed><sat>34</sat></trkpt>
  <trkpt lat="39.48146578" lon="44.00691024"><ele>1787.155</ele><time>2026-09-10T05:58:00Z</time><speed>20.390</speed><sat>36</sat></trkpt>
  <trkpt lat="39.48128689" lon="44.00692599"><ele>1787.303</ele><time>2026-09-10T05:58:01Z</time><speed>19.740</speed><sat>36</sat></trkpt>
  <trkpt lat="39.48111134" lon="44.00693923"><ele>1787.332</ele><time>2026-09-10T05:58:02Z</time><speed>19.480</speed><sat>33</sat></trkpt>
  <trkpt lat="39.48093441" lon="44.00694996"><ele>1787.778</ele><time>2026-09-10T05:58:03Z</time><speed>19.560</speed><sat>34</sat></trkpt>
  <trkpt lat="39.48076040" lon="44.00695585"><ele>1787.516</ele><time>2026-09-10T05:58:04Z</time><speed>19.260</speed><sat>35</sat></trkpt>
  <trkpt lat="39.48058828" lon="44.00695838"><ele>1787.162</ele><time>2026-09-10T05:58:05Z</time><speed>19.040</speed><sat>35</sat></trkpt>
  <trkpt lat="39.48042092" lon="44.00696695"><ele>1787.016</ele><time>2026-09-10T05:58:06Z</time><speed>18.750</speed><sat>36</sat></trkpt>
  <trkpt lat="39.48025370" lon="44.00697403"><ele>1787.387</ele><time>2026-09-10T05:58:07Z</time><speed>18.550</speed><sat>36</sat></trkpt>
  <trkpt lat="39.48008409" lon="44.00698181"><ele>1787.593</ele><time>2026-09-10T05:58:08Z</time><speed>18.720</speed><sat>36</sat></trkpt>
  <trkpt lat="39.47991255" lon="44.00698464"><ele>1787.324</ele><time>2026-09-10T05:58:09Z</time><speed>18.840</speed><sat>35</sat></trkpt>
  <trkpt lat="39.47974123" lon="44.00698984"><ele>1787.178</ele><time>2026-09-10T05:58:10Z</time><speed>18.890</speed><sat>35</sat></trkpt>
  <trkpt lat="39.47956885" lon="44.00699569"><ele>1786.986</ele><time>2026-09-10T05:58:11Z</time><speed>19.010</speed><sat>36</sat></trkpt>
  <trkpt lat="39.47939816" lon="44.00700730"><ele>1787.228</ele><time>2026-09-10T05:58:12Z</time><speed>19.010</speed><sat>36</sat></trkpt>
  <trkpt lat="39.47922838" lon="44.00702207"><ele>1787.526</ele><time>2026-09-10T05:58:13Z</time><speed>19.060</speed><sat>36</sat></trkpt>
  <trkpt lat="39.47905667" lon="44.00704097"><ele>1787.656</ele><time>2026-09-10T05:58:14Z</time><speed>19.220</speed><sat>36</sat></trkpt>
  <trkpt lat="39.47888339" lon="44.00706059"><ele>1787.797</ele><time>2026-09-10T05:58:15Z</time><speed>19.460</speed><sat>36</sat></trkpt>
  <trkpt lat="39.47870701" lon="44.00708270"><ele>1787.795</ele><time>2026-09-10T05:58:16Z</time><speed>19.760</speed><sat>36</sat></trkpt>
  <trkpt lat="39.47852991" lon="44.00710715"><ele>1787.588</ele><time>2026-09-10T05:58:17Z</time><speed>19.900</speed><sat>35</sat></trkpt>
  <trkpt lat="39.47835134" lon="44.00713398"><ele>1787.609</ele><time>2026-09-10T05:58:18Z</time><speed>20.200</speed><sat>35</sat></trkpt>
  <trkpt lat="39.47817149" lon="44.00716104"><ele>1787.712</ele><time>2026-09-10T05:58:19Z</time><speed>20.310</speed><sat>35</sat></trkpt>
  <trkpt lat="39.47798818" lon="44.00718737"><ele>1787.854</ele><time>2026-09-10T05:58:20Z</time><speed>20.460</speed><sat>35</sat></trkpt>
  <trkpt lat="39.47780343" lon="44.00721166"><ele>1788.076</ele><time>2026-09-10T05:58:21Z</time><speed>20.640</speed><sat>35</sat></trkpt>
  <trkpt lat="39.47761844" lon="44.00723466"><ele>1787.915</ele><time>2026-09-10T05:58:22Z</time><speed>20.680</speed><sat>35</sat></trkpt>
  <trkpt lat="39.47743112" lon="44.00725827"><ele>1788.250</ele><time>2026-09-10T05:58:23Z</time><speed>20.880</speed><sat>35</sat></trkpt>
  <trkpt lat="39.47724276" lon="44.00727772"><ele>1788.311</ele><time>2026-09-10T05:58:24Z</time><speed>21.160</speed><sat>35</sat></trkpt>
  <trkpt lat="39.47705413" lon="44.00729920"><ele>1788.484</ele><time>2026-09-10T05:58:25Z</time><speed>21.010</speed><sat>35</sat></trkpt>
  <trkpt lat="39.47686157" lon="44.00731713"><ele>1788.645</ele><time>2026-09-10T05:58:26Z</time><speed>21.440</speed><sat>35</sat></trkpt>
  <trkpt lat="39.47666901" lon="44.00732967"><ele>1788.525</ele><time>2026-09-10T05:58:27Z</time><speed>21.460</speed><sat>35</sat></trkpt>
  <trkpt lat="39.47647638" lon="44.00734625"><ele>1788.413</ele><time>2026-09-10T05:58:28Z</time><speed>21.530</speed><sat>35</sat></trkpt>
  <trkpt lat="39.47628188" lon="44.00736258"><ele>1788.146</ele><time>2026-09-10T05:58:29Z</time><speed>21.970</speed><sat>36</sat></trkpt>
  <trkpt lat="39.47608621" lon="44.00737844"><ele>1788.590</ele><time>2026-09-10T05:58:30Z</time><speed>21.760</speed><sat>36</sat></trkpt>
  <trkpt lat="39.47589133" lon="44.00739326"><ele>1788.553</ele><time>2026-09-10T05:58:31Z</time><speed>21.900</speed><sat>36</sat></trkpt>
  <trkpt lat="39.47569555" lon="44.00741100"><ele>1788.398</ele><time>2026-09-10T05:58:32Z</time><speed>21.890</speed><sat>36</sat></trkpt>
  <trkpt lat="39.47549923" lon="44.00743134"><ele>1788.797</ele><time>2026-09-10T05:58:33Z</time><speed>21.930</speed><sat>36</sat></trkpt>
  <trkpt lat="39.47530189" lon="44.00744961"><ele>1788.960</ele><time>2026-09-10T05:58:34Z</time><speed>21.960</speed><sat>36</sat></trkpt>
  <trkpt lat="39.47510499" lon="44.00746618"><ele>1789.345</ele><time>2026-09-10T05:58:35Z</time><speed>22.000</speed><sat>36</sat></trkpt>
  <trkpt lat="39.47490730" lon="44.00748365"><ele>1789.443</ele><time>2026-09-10T05:58:36Z</time><speed>22.000</speed><sat>34</sat></trkpt>
  <trkpt lat="39.47470870" lon="44.00750038"><ele>1789.724</ele><time>2026-09-10T05:58:37Z</time><speed>22.030</speed><sat>34</sat></trkpt>
  <trkpt lat="39.47451098" lon="44.00751602"><ele>1789.769</ele><time>2026-09-10T05:58:38Z</time><speed>22.070</speed><sat>34</sat></trkpt>
  <trkpt lat="39.47431194" lon="44.00753203"><ele>1790.083</ele><time>2026-09-10T05:58:39Z</time><speed>22.080</speed><sat>34</sat></trkpt>
  <trkpt lat="39.47411332" lon="44.00754942"><ele>1790.169</ele><time>2026-09-10T05:58:40Z</time><speed>22.120</speed><sat>34</sat></trkpt>
  <trkpt lat="39.47391499" lon="44.00756631"><ele>1790.435</ele><time>2026-09-10T05:58:41Z</time><speed>22.120</speed><sat>34</sat></trkpt>
  <trkpt lat="39.47371703" lon="44.00758315"><ele>1790.568</ele><time>2026-09-10T05:58:42Z</time><speed>22.100</speed><sat>34</sat></trkpt>
  <trkpt lat="39.47351939" lon="44.00759912"><ele>1790.764</ele><time>2026-09-10T05:58:43Z</time><speed>22.070</speed><sat>34</sat></trkpt>
  <trkpt lat="39.47332225" lon="44.00761730"><ele>1790.832</ele><time>2026-09-10T05:58:44Z</time><speed>22.050</speed><sat>34</sat></trkpt>
  <trkpt lat="39.47312483" lon="44.00763468"><ele>1790.989</ele><time>2026-09-10T05:58:45Z</time><speed>22.050</speed><sat>34</sat></trkpt>
  <trkpt lat="39.47292687" lon="44.00765492"><ele>1791.127</ele><time>2026-09-10T05:58:46Z</time><speed>22.000</speed><sat>35</sat></trkpt>
  <trkpt lat="39.47272884" lon="44.00767533"><ele>1791.278</ele><time>2026-09-10T05:58:47Z</time><speed>21.980</speed><sat>36</sat></trkpt>
  <trkpt lat="39.47253200" lon="44.00769501"><ele>1791.351</ele><time>2026-09-10T05:58:48Z</time><speed>22.020</speed><sat>36</sat></trkpt>
  <trkpt lat="39.47233378" lon="44.00771352"><ele>1791.486</ele><time>2026-09-10T05:58:49Z</time><speed>22.040</speed><sat>36</sat></trkpt>
  <trkpt lat="39.47213614" lon="44.00772943"><ele>1791.630</ele><time>2026-09-10T05:58:50Z</time><speed>22.060</speed><sat>36</sat></trkpt>
  <trkpt lat="39.47193789" lon="44.00774595"><ele>1791.802</ele><time>2026-09-10T05:58:51Z</time><speed>22.070</speed><sat>36</sat></trkpt>
  <trkpt lat="39.47173954" lon="44.00776330"><ele>1792.003</ele><time>2026-09-10T05:58:52Z</time><speed>22.080</speed><sat>35</sat></trkpt>
  <trkpt lat="39.47154035" lon="44.00778190"><ele>1792.223</ele><time>2026-09-10T05:58:53Z</time><speed>22.070</speed><sat>34</sat></trkpt>
  <trkpt lat="39.47134163" lon="44.00780042"><ele>1792.158</ele><time>2026-09-10T05:58:54Z</time><speed>22.070</speed><sat>33</sat></trkpt>
  <trkpt lat="39.47114308" lon="44.00782022"><ele>1792.481</ele><time>2026-09-10T05:58:55Z</time><speed>22.070</speed><sat>33</sat></trkpt>
  <trkpt lat="39.47094471" lon="44.00784029"><ele>1792.646</ele><time>2026-09-10T05:58:56Z</time><speed>22.120</speed><sat>33</sat></trkpt>
  <trkpt lat="39.47074668" lon="44.00786015"><ele>1792.599</ele><time>2026-09-10T05:58:57Z</time><speed>22.170</speed><sat>34</sat></trkpt>
  <trkpt lat="39.47054697" lon="44.00787961"><ele>1792.487</ele><time>2026-09-10T05:58:58Z</time><speed>22.240</speed><sat>34</sat></trkpt>
  <trkpt lat="39.47034536" lon="44.00789685"><ele>1792.660</ele><time>2026-09-10T05:58:59Z</time><speed>22.320</speed><sat>34</sat></trkpt>
  <trkpt lat="39.47014368" lon="44.00791358"><ele>1792.695</ele><time>2026-09-10T05:59:00Z</time><speed>22.370</speed><sat>34</sat></trkpt>
  <trkpt lat="39.46994169" lon="44.00792961"><ele>1792.697</ele><time>2026-09-10T05:59:01Z</time><speed>22.420</speed><sat>34</sat></trkpt>
  <trkpt lat="39.46974081" lon="44.00794837"><ele>1793.099</ele><time>2026-09-10T05:59:02Z</time><speed>22.490</speed><sat>34</sat></trkpt>
  <trkpt lat="39.46953693" lon="44.00796560"><ele>1793.123</ele><time>2026-09-10T05:59:03Z</time><speed>22.550</speed><sat>34</sat></trkpt>
  <trkpt lat="39.46933544" lon="44.00798154"><ele>1793.351</ele><time>2026-09-10T05:59:04Z</time><speed>22.600</speed><sat>35</sat></trkpt>
  <trkpt lat="39.46912935" lon="44.00799821"><ele>1793.584</ele><time>2026-09-10T05:59:05Z</time><speed>22.650</speed><sat>36</sat></trkpt>
  <trkpt lat="39.46892603" lon="44.00801542"><ele>1793.660</ele><time>2026-09-10T05:59:06Z</time><speed>22.750</speed><sat>36</sat></trkpt>
  <trkpt lat="39.46872193" lon="44.00803345"><ele>1793.986</ele><time>2026-09-10T05:59:07Z</time><speed>22.810</speed><sat>36</sat></trkpt>
  <trkpt lat="39.46851621" lon="44.00805407"><ele>1794.349</ele><time>2026-09-10T05:59:08Z</time><speed>22.900</speed><sat>36</sat></trkpt>
  <trkpt lat="39.46830921" lon="44.00807623"><ele>1794.350</ele><time>2026-09-10T05:59:09Z</time><speed>22.920</speed><sat>36</sat></trkpt>
  <trkpt lat="39.46810263" lon="44.00809420"><ele>1794.575</ele><time>2026-09-10T05:59:10Z</time><speed>22.930</speed><sat>36</sat></trkpt>
  <trkpt lat="39.46789505" lon="44.00811457"><ele>1794.707</ele><time>2026-09-10T05:59:11Z</time><speed>22.950</speed><sat>36</sat></trkpt>
  <trkpt lat="39.46768951" lon="44.00813597"><ele>1794.804</ele><time>2026-09-10T05:59:12Z</time><speed>23.000</speed><sat>36</sat></trkpt>
  <trkpt lat="39.46748353" lon="44.00815624"><ele>1795.114</ele><time>2026-09-10T05:59:13Z</time><speed>23.040</speed><sat>36</sat></trkpt>
  <trkpt lat="39.46727475" lon="44.00817124"><ele>1795.605</ele><time>2026-09-10T05:59:14Z</time><speed>23.090</speed><sat>36</sat></trkpt>
  <trkpt lat="39.46706570" lon="44.00818910"><ele>1795.719</ele><time>2026-09-10T05:59:15Z</time><speed>23.180</speed><sat>36</sat></trkpt>
  <trkpt lat="39.46685668" lon="44.00820448"><ele>1795.933</ele><time>2026-09-10T05:59:16Z</time><speed>23.280</speed><sat>36</sat></trkpt>
  <trkpt lat="39.46664628" lon="44.00822219"><ele>1795.885</ele><time>2026-09-10T05:59:17Z</time><speed>23.380</speed><sat>35</sat></trkpt>
  <trkpt lat="39.46643554" lon="44.00823944"><ele>1795.756</ele><time>2026-09-10T05:59:18Z</time><speed>23.410</speed><sat>35</sat></trkpt>
  <trkpt lat="39.46622596" lon="44.00825814"><ele>1796.028</ele><time>2026-09-10T05:59:19Z</time><speed>23.430</speed><sat>35</sat></trkpt>
  <trkpt lat="39.46601617" lon="44.00827622"><ele>1796.002</ele><time>2026-09-10T05:59:20Z</time><speed>23.380</speed><sat>35</sat></trkpt>
  <trkpt lat="39.46580598" lon="44.00829268"><ele>1796.289</ele><time>2026-09-10T05:59:21Z</time><speed>23.370</speed><sat>36</sat></trkpt>
  <trkpt lat="39.46559570" lon="44.00830785"><ele>1796.528</ele><time>2026-09-10T05:59:22Z</time><speed>23.370</speed><sat>36</sat></trkpt>
  <trkpt lat="39.46538477" lon="44.00832661"><ele>1796.710</ele><time>2026-09-10T05:59:23Z</time><speed>23.380</speed><sat>36</sat></trkpt>
  <trkpt lat="39.46517450" lon="44.00834566"><ele>1796.881</ele><time>2026-09-10T05:59:24Z</time><speed>23.370</speed><sat>36</sat></trkpt>
  <trkpt lat="39.46496453" lon="44.00836573"><ele>1797.035</ele><time>2026-09-10T05:59:25Z</time><speed>23.320</speed><sat>36</sat></trkpt>
  <trkpt lat="39.46475517" lon="44.00838783"><ele>1797.105</ele><time>2026-09-10T05:59:26Z</time><speed>23.270</speed><sat>36</sat></trkpt>
  <trkpt lat="39.46454661" lon="44.00840850"><ele>1797.356</ele><time>2026-09-10T05:59:27Z</time><speed>23.240</speed><sat>36</sat></trkpt>
  <trkpt lat="39.46433819" lon="44.00842805"><ele>1797.519</ele><time>2026-09-10T05:59:28Z</time><speed>23.170</speed><sat>36</sat></trkpt>
  <trkpt lat="39.46413169" lon="44.00844485"><ele>1797.658</ele><time>2026-09-10T05:59:29Z</time><speed>22.980</speed><sat>35</sat></trkpt>
  <trkpt lat="39.46392611" lon="44.00846301"><ele>1797.845</ele><time>2026-09-10T05:59:30Z</time><speed>22.840</speed><sat>35</sat></trkpt>
  <trkpt lat="39.46372161" lon="44.00847829"><ele>1798.093</ele><time>2026-09-10T05:59:31Z</time><speed>22.640</speed><sat>35</sat></trkpt>
  <trkpt lat="39.46352047" lon="44.00849212"><ele>1798.357</ele><time>2026-09-10T05:59:32Z</time><speed>22.220</speed><sat>35</sat></trkpt>
  <trkpt lat="39.46332210" lon="44.00850098"><ele>1798.579</ele><time>2026-09-10T05:59:33Z</time><speed>21.940</speed><sat>34</sat></trkpt>
  <trkpt lat="39.46312575" lon="44.00850548"><ele>1798.956</ele><time>2026-09-10T05:59:34Z</time><speed>21.730</speed><sat>34</sat></trkpt>
  <trkpt lat="39.46293276" lon="44.00850691"><ele>1799.224</ele><time>2026-09-10T05:59:35Z</time><speed>21.340</speed><sat>34</sat></trkpt>
  <trkpt lat="39.46274161" lon="44.00850681"><ele>1799.527</ele><time>2026-09-10T05:59:36Z</time><speed>21.180</speed><sat>34</sat></trkpt>
  <trkpt lat="39.46254880" lon="44.00850764"><ele>1799.972</ele><time>2026-09-10T05:59:37Z</time><speed>21.440</speed><sat>35</sat></trkpt>
  <trkpt lat="39.46235834" lon="44.00851216"><ele>1800.257</ele><time>2026-09-10T05:59:38Z</time><speed>21.200</speed><sat>36</sat></trkpt>
  <trkpt lat="39.46216718" lon="44.00852407"><ele>1800.563</ele><time>2026-09-10T05:59:39Z</time><speed>21.210</speed><sat>35</sat></trkpt>
  <trkpt lat="39.46197594" lon="44.00853760"><ele>1800.811</ele><time>2026-09-10T05:59:40Z</time><speed>21.290</speed><sat>35</sat></trkpt>
  <trkpt lat="39.46178466" lon="44.00855724"><ele>1801.456</ele><time>2026-09-10T05:59:41Z</time><speed>21.280</speed><sat>35</sat></trkpt>
  <trkpt lat="39.46159316" lon="44.00857987"><ele>1801.664</ele><time>2026-09-10T05:59:42Z</time><speed>21.370</speed><sat>36</sat></trkpt>
  <trkpt lat="39.46139971" lon="44.00860093"><ele>1802.115</ele><time>2026-09-10T05:59:43Z</time><speed>21.530</speed><sat>36</sat></trkpt>
  <trkpt lat="39.46120792" lon="44.00863175"><ele>1802.187</ele><time>2026-09-10T05:59:44Z</time><speed>21.490</speed><sat>37</sat></trkpt>
  <trkpt lat="39.46101585" lon="44.00866461"><ele>1802.698</ele><time>2026-09-10T05:59:45Z</time><speed>21.630</speed><sat>37</sat></trkpt>
  <trkpt lat="39.46082260" lon="44.00869834"><ele>1803.124</ele><time>2026-09-10T05:59:46Z</time><speed>21.710</speed><sat>37</sat></trkpt>
  <trkpt lat="39.46062900" lon="44.00872777"><ele>1803.606</ele><time>2026-09-10T05:59:47Z</time><speed>21.770</speed><sat>37</sat></trkpt>
  <trkpt lat="39.46043334" lon="44.00875197"><ele>1804.212</ele><time>2026-09-10T05:59:48Z</time><speed>21.860</speed><sat>37</sat></trkpt>
  <trkpt lat="39.46023763" lon="44.00877579"><ele>1804.719</ele><time>2026-09-10T05:59:49Z</time><speed>21.800</speed><sat>37</sat></trkpt>
  <trkpt lat="39.46004252" lon="44.00879667"><ele>1805.148</ele><time>2026-09-10T05:59:50Z</time><speed>21.760</speed><sat>37</sat></trkpt>
  <trkpt lat="39.45984587" lon="44.00881259"><ele>1805.410</ele><time>2026-09-10T05:59:51Z</time><speed>21.840</speed><sat>37</sat></trkpt>
  <trkpt lat="39.45964811" lon="44.00882753"><ele>1805.849</ele><time>2026-09-10T05:59:52Z</time><speed>22.010</speed><sat>36</sat></trkpt>
  <trkpt lat="39.45944982" lon="44.00884240"><ele>1806.224</ele><time>2026-09-10T05:59:53Z</time><speed>22.120</speed><sat>36</sat></trkpt>
  <trkpt lat="39.45924988" lon="44.00885798"><ele>1806.541</ele><time>2026-09-10T05:59:54Z</time><speed>22.220</speed><sat>36</sat></trkpt>
  <trkpt lat="39.45904918" lon="44.00887461"><ele>1807.079</ele><time>2026-09-10T05:59:55Z</time><speed>22.300</speed><sat>36</sat></trkpt>
  <trkpt lat="39.45884907" lon="44.00889536"><ele>1807.600</ele><time>2026-09-10T05:59:56Z</time><speed>22.400</speed><sat>36</sat></trkpt>
  <trkpt lat="39.45864797" lon="44.00891638"><ele>1808.084</ele><time>2026-09-10T05:59:57Z</time><speed>22.550</speed><sat>35</sat></trkpt>
  <trkpt lat="39.45844434" lon="44.00893802"><ele>1808.744</ele><time>2026-09-10T05:59:58Z</time><speed>22.780</speed><sat>36</sat></trkpt>
  <trkpt lat="39.45823923" lon="44.00896445"><ele>1809.250</ele><time>2026-09-10T05:59:59Z</time><speed>22.950</speed><sat>36</sat></trkpt>
  <trkpt lat="39.45803353" lon="44.00899489"><ele>1809.675</ele><time>2026-09-10T06:00:00Z</time><speed>23.080</speed><sat>36</sat></trkpt>
  <trkpt lat="39.45782717" lon="44.00903089"><ele>1810.025</ele><time>2026-09-10T06:00:01Z</time><speed>23.240</speed><sat>36</sat></trkpt>
  <trkpt lat="39.45762056" lon="44.00907287"><ele>1810.410</ele><time>2026-09-10T06:00:02Z</time><speed>23.350</speed><sat>35</sat></trkpt>
  <trkpt lat="39.45741337" lon="44.00911879"><ele>1810.713</ele><time>2026-09-10T06:00:03Z</time><speed>23.390</speed><sat>36</sat></trkpt>
  <trkpt lat="39.45720770" lon="44.00917128"><ele>1811.133</ele><time>2026-09-10T06:00:04Z</time><speed>23.300</speed><sat>36</sat></trkpt>
  <trkpt lat="39.45700561" lon="44.00922997"><ele>1811.565</ele><time>2026-09-10T06:00:05Z</time><speed>22.970</speed><sat>36</sat></trkpt>
  <trkpt lat="39.45680683" lon="44.00929106"><ele>1811.832</ele><time>2026-09-10T06:00:06Z</time><speed>22.590</speed><sat>36</sat></trkpt>
  <trkpt lat="39.45661179" lon="44.00935431"><ele>1812.323</ele><time>2026-09-10T06:00:07Z</time><speed>22.270</speed><sat>36</sat></trkpt>
  <trkpt lat="39.45641959" lon="44.00942116"><ele>1812.886</ele><time>2026-09-10T06:00:08Z</time><speed>22.000</speed><sat>36</sat></trkpt>
  <trkpt lat="39.45622906" lon="44.00948842"><ele>1813.155</ele><time>2026-09-10T06:00:09Z</time><speed>21.800</speed><sat>36</sat></trkpt>
  <trkpt lat="39.45604313" lon="44.00955948"><ele>1813.382</ele><time>2026-09-10T06:00:10Z</time><speed>21.330</speed><sat>36</sat></trkpt>
  <trkpt lat="39.45586392" lon="44.00962914"><ele>1813.616</ele><time>2026-09-10T06:00:11Z</time><speed>20.460</speed><sat>36</sat></trkpt>
  <trkpt lat="39.45569804" lon="44.00969220"><ele>1813.863</ele><time>2026-09-10T06:00:12Z</time><speed>18.610</speed><sat>36</sat></trkpt>
  <trkpt lat="39.45555055" lon="44.00974836"><ele>1814.039</ele><time>2026-09-10T06:00:13Z</time><speed>16.110</speed><sat>36</sat></trkpt>
  <trkpt lat="39.45542278" lon="44.00979597"><ele>1814.396</ele><time>2026-09-10T06:00:14Z</time><speed>13.630</speed><sat>36</sat></trkpt>
  <trkpt lat="39.45531551" lon="44.00983192"><ele>1814.897</ele><time>2026-09-10T06:00:15Z</time><speed>11.320</speed><sat>36</sat></trkpt>
  <trkpt lat="39.45522557" lon="44.00985838"><ele>1814.978</ele><time>2026-09-10T06:00:16Z</time><speed>8.970</speed><sat>36</sat></trkpt>
  <trkpt lat="39.45515776" lon="44.00988182"><ele>1815.465</ele><time>2026-09-10T06:00:17Z</time><speed>6.970</speed><sat>36</sat></trkpt>
  <trkpt lat="39.45510308" lon="44.00989528"><ele>1815.746</ele><time>2026-09-10T06:00:18Z</time><speed>5.150</speed><sat>36</sat></trkpt>
  <trkpt lat="39.45506433" lon="44.00990589"><ele>1815.680</ele><time>2026-09-10T06:00:19Z</time><speed>3.410</speed><sat>37</sat></trkpt>
  <trkpt lat="39.45503908" lon="44.00991722"><ele>1815.346</ele><time>2026-09-10T06:00:20Z</time><speed>1.660</speed><sat>37</sat></trkpt>
  <trkpt lat="39.45502763" lon="44.00992670"><ele>1815.076</ele><time>2026-09-10T06:00:21Z</time><speed>1.110</speed><sat>37</sat></trkpt>
  <trkpt lat="39.45501819" lon="44.00992596"><ele>1814.983</ele><time>2026-09-10T06:00:22Z</time><speed>0.730</speed><sat>37</sat></trkpt>
  <trkpt lat="39.45502679" lon="44.00992813"><ele>1814.886</ele><time>2026-09-10T06:00:23Z</time><speed>0.000</speed><sat>37</sat></trkpt>
  <trkpt lat="39.45503337" lon="44.00992715"><ele>1814.640</ele><time>2026-09-10T06:00:24Z</time><speed>0.000</speed><sat>37</sat></trkpt>
  <trkpt lat="39.45502637" lon="44.00992088"><ele>1814.646</ele><time>2026-09-10T06:00:25Z</time><speed>0.260</speed><sat>37</sat></trkpt>
  <trkpt lat="39.45502457" lon="44.00992183"><ele>1814.925</ele><time>2026-09-10T06:00:26Z</time><speed>0.000</speed><sat>37</sat></trkpt>
  <trkpt lat="39.45502283" lon="44.00991982"><ele>1814.925</ele><time>2026-09-10T06:00:27Z</time><speed>0.000</speed><sat>37</sat></trkpt>
  <trkpt lat="39.45502402" lon="44.00991989"><ele>1815.086</ele><time>2026-09-10T06:00:28Z</time><speed>0.000</speed><sat>37</sat></trkpt>
  <trkpt lat="39.45502463" lon="44.00992095"><ele>1815.256</ele><time>2026-09-10T06:00:29Z</time><speed>0.000</speed><sat>37</sat></trkpt>
  <trkpt lat="39.45502752" lon="44.00991838"><ele>1815.114</ele><time>2026-09-10T06:00:30Z</time><speed>0.190</speed><sat>37</sat></trkpt>
  <trkpt lat="39.45503213" lon="44.00991857"><ele>1815.257</ele><time>2026-09-10T06:00:31Z</time><speed>0.320</speed><sat>37</sat></trkpt>
  <trkpt lat="39.45503185" lon="44.00991855"><ele>1815.518</ele><time>2026-09-10T06:00:32Z</time><speed>0.150</speed><sat>37</sat></trkpt>
  <trkpt lat="39.45503051" lon="44.00992005"><ele>1815.363</ele><time>2026-09-10T06:00:33Z</time><speed>0.000</speed><sat>37</sat></trkpt>
  <trkpt lat="39.45502894" lon="44.00991825"><ele>1815.634</ele><time>2026-09-10T06:00:34Z</time><speed>0.000</speed><sat>37</sat></trkpt>
  <trkpt lat="39.45502797" lon="44.00991592"><ele>1815.725</ele><time>2026-09-10T06:00:35Z</time><speed>0.000</speed><sat>37</sat></trkpt>
  <trkpt lat="39.45502729" lon="44.00991515"><ele>1815.895</ele><time>2026-09-10T06:00:36Z</time><speed>0.000</speed><sat>37</sat></trkpt>
  <trkpt lat="39.45502752" lon="44.00991598"><ele>1816.143</ele><time>2026-09-10T06:00:37Z</time><speed>0.000</speed><sat>37</sat></trkpt>
  <trkpt lat="39.45502799" lon="44.00991604"><ele>1816.266</ele><time>2026-09-10T06:00:38Z</time><speed>0.220</speed><sat>37</sat></trkpt>
  <trkpt lat="39.45502909" lon="44.00991656"><ele>1816.284</ele><time>2026-09-10T06:00:39Z</time><speed>0.000</speed><sat>37</sat></trkpt>
  <trkpt lat="39.45502834" lon="44.00991653"><ele>1816.212</ele><time>2026-09-10T06:00:40Z</time><speed>0.000</speed><sat>37</sat></trkpt>
  <trkpt lat="39.45502184" lon="44.00991487"><ele>1816.376</ele><time>2026-09-10T06:00:41Z</time><speed>1.340</speed><sat>37</sat></trkpt>
  <trkpt lat="39.45500864" lon="44.00991197"><ele>1816.423</ele><time>2026-09-10T06:00:42Z</time><speed>1.470</speed><sat>37</sat></trkpt>
  <trkpt lat="39.45499741" lon="44.00990853"><ele>1815.835</ele><time>2026-09-10T06:00:43Z</time><speed>1.020</speed><sat>37</sat></trkpt>
  <trkpt lat="39.45498744" lon="44.00990596"><ele>1816.086</ele><time>2026-09-10T06:00:44Z</time><speed>1.210</speed><sat>37</sat></trkpt>
  <trkpt lat="39.45497609" lon="44.00990501"><ele>1815.559</ele><time>2026-09-10T06:00:45Z</time><speed>1.360</speed><sat>37</sat></trkpt>
  <trkpt lat="39.45496481" lon="44.00990774"><ele>1815.490</ele><time>2026-09-10T06:00:46Z</time><speed>1.380</speed><sat>37</sat></trkpt>
  <trkpt lat="39.45495425" lon="44.00991201"><ele>1815.492</ele><time>2026-09-10T06:00:47Z</time><speed>1.240</speed><sat>37</sat></trkpt>
  <trkpt lat="39.45494401" lon="44.00991593"><ele>1815.789</ele><time>2026-09-10T06:00:48Z</time><speed>1.290</speed><sat>37</sat></trkpt>
  <trkpt lat="39.45493448" lon="44.00992021"><ele>1815.712</ele><time>2026-09-10T06:00:49Z</time><speed>1.160</speed><sat>37</sat></trkpt>
  <trkpt lat="39.45492567" lon="44.00992334"><ele>1815.471</ele><time>2026-09-10T06:00:50Z</time><speed>1.120</speed><sat>37</sat></trkpt>
  <trkpt lat="39.45491697" lon="44.00992623"><ele>1815.479</ele><time>2026-09-10T06:00:51Z</time><speed>1.100</speed><sat>37</sat></trkpt>
  <trkpt lat="39.45490805" lon="44.00992876"><ele>1815.360</ele><time>2026-09-10T06:00:52Z</time><speed>1.120</speed><sat>37</sat></trkpt>
  <trkpt lat="39.45489824" lon="44.00993143"><ele>1815.725</ele><time>2026-09-10T06:00:53Z</time><speed>1.220</speed><sat>37</sat></trkpt>
  <trkpt lat="39.45488859" lon="44.00993427"><ele>1815.622</ele><time>2026-09-10T06:00:54Z</time><speed>1.150</speed><sat>37</sat></trkpt>
  <trkpt lat="39.45487889" lon="44.00993740"><ele>1815.705</ele><time>2026-09-10T06:00:55Z</time><speed>1.180</speed><sat>37</sat></trkpt>
  <trkpt lat="39.45486859" lon="44.00994021"><ele>1815.677</ele><time>2026-09-10T06:00:56Z</time><speed>1.260</speed><sat>37</sat></trkpt>
  <trkpt lat="39.45485796" lon="44.00994291"><ele>1815.585</ele><time>2026-09-10T06:00:57Z</time><speed>1.200</speed><sat>37</sat></trkpt>
  <trkpt lat="39.45484742" lon="44.00994605"><ele>1815.327</ele><time>2026-09-10T06:00:58Z</time><speed>1.240</speed><sat>37</sat></trkpt>
  <trkpt lat="39.45483712" lon="44.00994946"><ele>1815.421</ele><time>2026-09-10T06:00:59Z</time><speed>1.150</speed><sat>37</sat></trkpt>
  <trkpt lat="39.45482757" lon="44.00995348"><ele>1815.428</ele><time>2026-09-10T06:01:00Z</time><speed>1.130</speed><sat>37</sat></trkpt>
  <trkpt lat="39.45482097" lon="44.00995750"><ele>1815.227</ele><time>2026-09-10T06:01:01Z</time><speed>0.620</speed><sat>37</sat></trkpt>
  <trkpt lat="39.45481969" lon="44.00996023"><ele>1815.172</ele><time>2026-09-10T06:01:02Z</time><speed>0.000</speed><sat>37</sat></trkpt>
  <trkpt lat="39.45481888" lon="44.00996246"><ele>1815.116</ele><time>2026-09-10T06:01:03Z</time><speed>0.400</speed><sat>37</sat></trkpt>
  <trkpt lat="39.45481576" lon="44.00996467"><ele>1814.934</ele><time>2026-09-10T06:01:04Z</time><speed>0.560</speed><sat>37</sat></trkpt>
  <trkpt lat="39.45481333" lon="44.00996592"><ele>1815.230</ele><time>2026-09-10T06:01:05Z</time><speed>0.300</speed><sat>37</sat></trkpt>
  <trkpt lat="39.45481163" lon="44.00996897"><ele>1815.295</ele><time>2026-09-10T06:01:06Z</time><speed>0.430</speed><sat>37</sat></trkpt>
  <trkpt lat="39.45480819" lon="44.00997224"><ele>1815.105</ele><time>2026-09-10T06:01:07Z</time><speed>0.550</speed><sat>37</sat></trkpt>
  <trkpt lat="39.45480555" lon="44.00997240"><ele>1814.965</ele><time>2026-09-10T06:01:08Z</time><speed>0.350</speed><sat>37</sat></trkpt>
  <trkpt lat="39.45480275" lon="44.00996919"><ele>1814.900</ele><time>2026-09-10T06:01:09Z</time><speed>0.490</speed><sat>37</sat></trkpt>
  <trkpt lat="39.45479236" lon="44.00996064"><ele>1815.384</ele><time>2026-09-10T06:01:10Z</time><speed>1.820</speed><sat>37</sat></trkpt>
  <trkpt lat="39.45478746" lon="44.00995571"><ele>1815.134</ele><time>2026-09-10T06:01:11Z</time><speed>0.000</speed><sat>37</sat></trkpt>
  <trkpt lat="39.45479141" lon="44.00995797"><ele>1815.201</ele><time>2026-09-10T06:01:12Z</time><speed>0.000</speed><sat>37</sat></trkpt>
  <trkpt lat="39.45479345" lon="44.00995914"><ele>1815.200</ele><time>2026-09-10T06:01:13Z</time><speed>0.000</speed><sat>37</sat></trkpt>
  <trkpt lat="39.45479448" lon="44.00995972"><ele>1815.199</ele><time>2026-09-10T06:01:14Z</time><speed>0.000</speed><sat>37</sat></trkpt>
  <trkpt lat="39.45479500" lon="44.00996001"><ele>1815.200</ele><time>2026-09-10T06:01:15Z</time><speed>0.000</speed><sat>37</sat></trkpt>
  <trkpt lat="39.45479526" lon="44.00996016"><ele>1815.199</ele><time>2026-09-10T06:01:16Z</time><speed>0.000</speed><sat>37</sat></trkpt>
  <trkpt lat="39.45479540" lon="44.00996023"><ele>1815.201</ele><time>2026-09-10T06:01:17Z</time><speed>0.000</speed><sat>36</sat></trkpt>
  <trkpt lat="39.45479546" lon="44.00996025"><ele>1815.201</ele><time>2026-09-10T06:01:18Z</time><speed>0.000</speed><sat>27</sat></trkpt>
  <trkpt lat="39.45479550" lon="44.00996027"><ele>1815.200</ele><time>2026-09-10T06:01:19Z</time><speed>0.000</speed><sat>26</sat></trkpt>
  <trkpt lat="39.45479552" lon="44.00996026"><ele>1815.199</ele><time>2026-09-10T06:01:20Z</time><speed>0.000</speed><sat>27</sat></trkpt>
  <trkpt lat="39.45479552" lon="44.00996025"><ele>1815.200</ele><time>2026-09-10T06:01:21Z</time><speed>0.000</speed><sat>28</sat></trkpt>
  <trkpt lat="39.45479553" lon="44.00996025"><ele>1815.200</ele><time>2026-09-10T06:01:22Z</time><speed>0.000</speed><sat>29</sat></trkpt>
  <trkpt lat="39.45479553" lon="44.00996025"><ele>1815.199</ele><time>2026-09-10T06:01:23Z</time><speed>0.000</speed><sat>32</sat></trkpt>
  <trkpt lat="39.45479553" lon="44.00996025"><ele>1815.200</ele><time>2026-09-10T06:01:24Z</time><speed>0.000</speed><sat>31</sat></trkpt>
  <trkpt lat="39.45479553" lon="44.00996025"><ele>1815.200</ele><time>2026-09-10T06:01:25Z</time><speed>0.000</speed><sat>31</sat></trkpt>
  <trkpt lat="39.45479553" lon="44.00996025"><ele>1815.199</ele><time>2026-09-10T06:01:26Z</time><speed>0.000</speed><sat>31</sat></trkpt>
  <trkpt lat="39.45479555" lon="44.00996026"><ele>1815.200</ele><time>2026-09-10T06:01:27Z</time><speed>0.000</speed><sat>31</sat></trkpt>
  <trkpt lat="39.45479556" lon="44.00996028"><ele>1815.199</ele><time>2026-09-10T06:01:28Z</time><speed>0.000</speed><sat>31</sat></trkpt>
  <trkpt lat="39.45479557" lon="44.00996029"><ele>1815.200</ele><time>2026-09-10T06:01:29Z</time><speed>0.000</speed><sat>29</sat></trkpt>
  <trkpt lat="39.45479558" lon="44.00996031"><ele>1815.200</ele><time>2026-09-10T06:01:30Z</time><speed>0.000</speed><sat>30</sat></trkpt>
  <trkpt lat="39.45479559" lon="44.00996034"><ele>1815.199</ele><time>2026-09-10T06:01:31Z</time><speed>0.000</speed><sat>30</sat></trkpt>
  <trkpt lat="39.45479560" lon="44.00996036"><ele>1815.199</ele><time>2026-09-10T06:01:32Z</time><speed>0.000</speed><sat>29</sat></trkpt>
  <trkpt lat="39.45479562" lon="44.00996038"><ele>1815.199</ele><time>2026-09-10T06:01:33Z</time><speed>0.000</speed><sat>29</sat></trkpt>
  <trkpt lat="39.45479563" lon="44.00996040"><ele>1815.199</ele><time>2026-09-10T06:01:34Z</time><speed>0.000</speed><sat>28</sat></trkpt>
  <trkpt lat="39.45479563" lon="44.00996041"><ele>1815.200</ele><time>2026-09-10T06:01:35Z</time><speed>0.000</speed><sat>29</sat></trkpt>
  <trkpt lat="39.45479564" lon="44.00996042"><ele>1815.200</ele><time>2026-09-10T06:01:36Z</time><speed>0.000</speed><sat>29</sat></trkpt>
  <trkpt lat="39.45479565" lon="44.00996044"><ele>1815.202</ele><time>2026-09-10T06:01:37Z</time><speed>0.000</speed><sat>28</sat></trkpt>
  <trkpt lat="39.45479566" lon="44.00996045"><ele>1815.201</ele><time>2026-09-10T06:01:38Z</time><speed>0.000</speed><sat>29</sat></trkpt>
  <trkpt lat="39.45479567" lon="44.00996047"><ele>1815.200</ele><time>2026-09-10T06:01:39Z</time><speed>0.000</speed><sat>28</sat></trkpt>
  <trkpt lat="39.45479567" lon="44.00996049"><ele>1815.199</ele><time>2026-09-10T06:01:40Z</time><speed>0.000</speed><sat>28</sat></trkpt>
  <trkpt lat="39.45479568" lon="44.00996050"><ele>1815.198</ele><time>2026-09-10T06:01:41Z</time><speed>0.000</speed><sat>27</sat></trkpt>
  <trkpt lat="39.45479568" lon="44.00996051"><ele>1815.199</ele><time>2026-09-10T06:01:42Z</time><speed>0.000</speed><sat>28</sat></trkpt>
  <trkpt lat="39.45479568" lon="44.00996052"><ele>1815.200</ele><time>2026-09-10T06:01:43Z</time><speed>0.000</speed><sat>29</sat></trkpt>
  <trkpt lat="39.45479569" lon="44.00996053"><ele>1815.199</ele><time>2026-09-10T06:01:44Z</time><speed>0.000</speed><sat>30</sat></trkpt>
  <trkpt lat="39.45479569" lon="44.00996054"><ele>1815.199</ele><time>2026-09-10T06:01:45Z</time><speed>0.000</speed><sat>30</sat></trkpt>
  <trkpt lat="39.45479571" lon="44.00996057"><ele>1815.199</ele><time>2026-09-10T06:01:46Z</time><speed>0.000</speed><sat>30</sat></trkpt>
  <trkpt lat="39.45479572" lon="44.00996059"><ele>1815.201</ele><time>2026-09-10T06:01:47Z</time><speed>0.000</speed><sat>30</sat></trkpt>
  <trkpt lat="39.45479572" lon="44.00996060"><ele>1815.203</ele><time>2026-09-10T06:01:48Z</time><speed>0.000</speed><sat>30</sat></trkpt>
  <trkpt lat="39.45479572" lon="44.00996061"><ele>1815.202</ele><time>2026-09-10T06:01:49Z</time><speed>0.000</speed><sat>29</sat></trkpt>
  <trkpt lat="39.45479573" lon="44.00996062"><ele>1815.205</ele><time>2026-09-10T06:01:50Z</time><speed>0.000</speed><sat>28</sat></trkpt>
  <trkpt lat="39.45479498" lon="44.00996159"><ele>1814.706</ele><time>2026-09-10T06:01:51Z</time><speed>0.330</speed><sat>29</sat></trkpt>
  <trkpt lat="39.45479470" lon="44.00996340"><ele>1815.150</ele><time>2026-09-10T06:01:52Z</time><speed>0.230</speed><sat>37</sat></trkpt>
  <trkpt lat="39.45479666" lon="44.00996519"><ele>1815.205</ele><time>2026-09-10T06:01:53Z</time><speed>0.000</speed><sat>37</sat></trkpt>
  <trkpt lat="39.45479804" lon="44.00996579"><ele>1815.196</ele><time>2026-09-10T06:01:54Z</time><speed>0.000</speed><sat>37</sat></trkpt>
  <trkpt lat="39.45479876" lon="44.00996615"><ele>1815.195</ele><time>2026-09-10T06:01:55Z</time><speed>0.000</speed><sat>37</sat></trkpt>
  <trkpt lat="39.45479913" lon="44.00996636"><ele>1815.192</ele><time>2026-09-10T06:01:56Z</time><speed>0.000</speed><sat>37</sat></trkpt>
 </trkseg>
</trk>

</gpx>
 