<?xml version="1.0" encoding="UTF-8"?>
<!-- Created with BasicAirData GPS Logger for Android - ver. 3.3.0 -->
<!-- Track 19 = 557 TrackPoints + 0 Placemarks -->

<!-- Track Statistics (based on Total Time | Time in Movement): -->
<!--  Distance = 3.64 km -->
<!--  Duration = 09:17 | 07:39 -->
<!--  Altitude Gap = -6 m -->
<!--  Max Speed = 58 km/h -->
<!--  Avg Speed = 23.5 | 28.6 km/h -->
<!--  Direction = SSW -->
<!--  Activity = car -->
<!--  Altitudes = Raw -->

<gpx version="1.0"
     creator="BasicAirData GPS Logger 3.3.0"
     xmlns="http://www.topografix.com/GPX/1/0"
     xmlns:xsi="http://www.w3.org/2001/XMLSchema-instance"
     xsi:schemaLocation="http://www.topografix.com/GPX/1/0 http://www.topografix.com/GPX/1/0/gpx.xsd">
<name>GPS Logger 20260913-153411</name>
<time>2026-09-15T20:03:29Z</time>
<keywords>car</keywords>
<bounds minlat="38.50318579" minlon="42.28211292" maxlat="38.52794351" maxlon="42.30293790" />

<trk>
 <name>Track 20260913-153411</name>
 <trkseg>
  <trkpt lat="38.52794351" lon="42.30293790"><ele>1695.146</ele><time>2026-09-13T12:34:11Z</time><speed>13.920</speed><sat>34</sat></trkpt>
  <trkpt lat="38.52783625" lon="42.30285728"><ele>1694.729</ele><time>2026-09-13T12:34:12Z</time><speed>14.590</speed><sat>34</sat></trkpt>
  <trkpt lat="38.52772085" lon="42.30277913"><ele>1694.716</ele><time>2026-09-13T12:34:13Z</time><speed>15.110</speed><sat>34</sat></trkpt>
  <trkpt lat="38.52760024" lon="42.30270405"><ele>1694.531</ele><time>2026-09-13T12:34:14Z</time><speed>15.110</speed><sat>34</sat></trkpt>
  <trkpt lat="38.52736102" lon="42.30255592"><ele>1693.684</ele><time>2026-09-13T12:34:16Z</time><speed>14.810</speed><sat>34</sat></trkpt>
  <trkpt lat="38.52725405" lon="42.30249147"><ele>1693.608</ele><time>2026-09-13T12:34:17Z</time><speed>14.280</speed><sat>32</sat></trkpt>
  <trkpt lat="38.52714734" lon="42.30242595"><ele>1692.193</ele><time>2026-09-13T12:34:18Z</time><speed>13.160</speed><sat>32</sat></trkpt>
  <trkpt lat="38.52703574" lon="42.30236370"><ele>1691.910</ele><time>2026-09-13T12:34:19Z</time><speed>13.670</speed><sat>31</sat></trkpt>
  <trkpt lat="38.52692593" lon="42.30230811"><ele>1691.703</ele><time>2026-09-13T12:34:20Z</time><speed>13.320</speed><sat>31</sat></trkpt>
  <trkpt lat="38.52685178" lon="42.30225876"><ele>1691.157</ele><time>2026-09-13T12:34:21Z</time><speed>9.810</speed><sat>31</sat></trkpt>
  <trkpt lat="38.52676903" lon="42.30219151"><ele>1690.024</ele><time>2026-09-13T12:34:22Z</time><speed>9.080</speed><sat>30</sat></trkpt>
  <trkpt lat="38.52670234" lon="42.30215904"><ele>1689.653</ele><time>2026-09-13T12:34:23Z</time><speed>7.410</speed><sat>29</sat></trkpt>
  <trkpt lat="38.52664802" lon="42.30213852"><ele>1690.263</ele><time>2026-09-13T12:34:24Z</time><speed>5.950</speed><sat>27</sat></trkpt>
  <trkpt lat="38.52660117" lon="42.30211076"><ele>1690.801</ele><time>2026-09-13T12:34:25Z</time><speed>4.910</speed><sat>18</sat></trkpt>
  <trkpt lat="38.52657263" lon="42.30210090"><ele>1690.111</ele><time>2026-09-13T12:34:26Z</time><speed>2.720</speed><sat>20</sat></trkpt>
  <trkpt lat="38.52655164" lon="42.30208133"><ele>1691.545</ele><time>2026-09-13T12:34:27Z</time><speed>1.570</speed><sat>24</sat></trkpt>
  <trkpt lat="38.52653616" lon="42.30207310"><ele>1692.231</ele><time>2026-09-13T12:34:28Z</time><speed>2.070</speed><sat>24</sat></trkpt>
  <trkpt lat="38.52650546" lon="42.30206611"><ele>1691.676</ele><time>2026-09-13T12:34:29Z</time><speed>4.290</speed><sat>27</sat></trkpt>
  <trkpt lat="38.52646747" lon="42.30204098"><ele>1691.163</ele><time>2026-09-13T12:34:30Z</time><speed>5.170</speed><sat>26</sat></trkpt>
  <trkpt lat="38.52642659" lon="42.30201877"><ele>1691.461</ele><time>2026-09-13T12:34:31Z</time><speed>5.030</speed><sat>26</sat></trkpt>
  <trkpt lat="38.52636942" lon="42.30199331"><ele>1691.250</ele><time>2026-09-13T12:34:32Z</time><speed>6.580</speed><sat>25</sat></trkpt>
  <trkpt lat="38.52628457" lon="42.30196085"><ele>1691.116</ele><time>2026-09-13T12:34:33Z</time><speed>8.950</speed><sat>24</sat></trkpt>
  <trkpt lat="38.52622204" lon="42.30192901"><ele>1691.660</ele><time>2026-09-13T12:34:34Z</time><speed>8.030</speed><sat>22</sat></trkpt>
  <trkpt lat="38.52614265" lon="42.30188643"><ele>1693.225</ele><time>2026-09-13T12:34:35Z</time><speed>8.520</speed><sat>19</sat></trkpt>
  <trkpt lat="38.52606863" lon="42.30184186"><ele>1690.185</ele><time>2026-09-13T12:34:36Z</time><speed>9.290</speed><sat>20</sat></trkpt>
  <trkpt lat="38.52598546" lon="42.30178209"><ele>1689.299</ele><time>2026-09-13T12:34:37Z</time><speed>10.400</speed><sat>21</sat></trkpt>
  <trkpt lat="38.52588003" lon="42.30173578"><ele>1689.496</ele><time>2026-09-13T12:34:38Z</time><speed>11.200</speed><sat>22</sat></trkpt>
  <trkpt lat="38.52578823" lon="42.30168389"><ele>1689.740</ele><time>2026-09-13T12:34:39Z</time><speed>11.210</speed><sat>23</sat></trkpt>
  <trkpt lat="38.52571075" lon="42.30163035"><ele>1690.750</ele><time>2026-09-13T12:34:40Z</time><speed>11.190</speed><sat>24</sat></trkpt>
  <trkpt lat="38.52562180" lon="42.30156700"><ele>1692.010</ele><time>2026-09-13T12:34:41Z</time><speed>11.520</speed><sat>24</sat></trkpt>
  <trkpt lat="38.52552420" lon="42.30149597"><ele>1691.140</ele><time>2026-09-13T12:34:42Z</time><speed>12.080</speed><sat>28</sat></trkpt>
  <trkpt lat="38.52541362" lon="42.30143046"><ele>1691.083</ele><time>2026-09-13T12:34:43Z</time><speed>13.000</speed><sat>27</sat></trkpt>
  <trkpt lat="38.52528493" lon="42.30135973"><ele>1687.792</ele><time>2026-09-13T12:34:44Z</time><speed>13.760</speed><sat>27</sat></trkpt>
  <trkpt lat="38.52515997" lon="42.30129447"><ele>1687.032</ele><time>2026-09-13T12:34:45Z</time><speed>14.520</speed><sat>27</sat></trkpt>
  <trkpt lat="38.52502965" lon="42.30123437"><ele>1686.468</ele><time>2026-09-13T12:34:46Z</time><speed>14.720</speed><sat>28</sat></trkpt>
  <trkpt lat="38.52490510" lon="42.30117705"><ele>1686.706</ele><time>2026-09-13T12:34:47Z</time><speed>14.940</speed><sat>28</sat></trkpt>
  <trkpt lat="38.52478644" lon="42.30111147"><ele>1686.491</ele><time>2026-09-13T12:34:48Z</time><speed>15.270</speed><sat>29</sat></trkpt>
  <trkpt lat="38.52466683" lon="42.30105698"><ele>1686.057</ele><time>2026-09-13T12:34:49Z</time><speed>15.380</speed><sat>28</sat></trkpt>
  <trkpt lat="38.52454796" lon="42.30099110"><ele>1685.743</ele><time>2026-09-13T12:34:50Z</time><speed>14.780</speed><sat>30</sat></trkpt>
  <trkpt lat="38.52442284" lon="42.30091257"><ele>1685.395</ele><time>2026-09-13T12:34:51Z</time><speed>15.170</speed><sat>30</sat></trkpt>
  <trkpt lat="38.52430891" lon="42.30084405"><ele>1684.940</ele><time>2026-09-13T12:34:52Z</time><speed>14.380</speed><sat>29</sat></trkpt>
  <trkpt lat="38.52418898" lon="42.30077768"><ele>1685.704</ele><time>2026-09-13T12:34:53Z</time><speed>14.110</speed><sat>31</sat></trkpt>
  <trkpt lat="38.52407074" lon="42.30071088"><ele>1685.231</ele><time>2026-09-13T12:34:54Z</time><speed>13.750</speed><sat>31</sat></trkpt>
  <trkpt lat="38.52395048" lon="42.30064887"><ele>1686.976</ele><time>2026-09-13T12:34:55Z</time><speed>14.310</speed><sat>32</sat></trkpt>
  <trkpt lat="38.52384464" lon="42.30060461"><ele>1686.848</ele><time>2026-09-13T12:34:56Z</time><speed>13.100</speed><sat>31</sat></trkpt>
  <trkpt lat="38.52371690" lon="42.30052805"><ele>1686.482</ele><time>2026-09-13T12:34:57Z</time><speed>15.380</speed><sat>31</sat></trkpt>
  <trkpt lat="38.52361157" lon="42.30048912"><ele>1684.801</ele><time>2026-09-13T12:34:58Z</time><speed>12.920</speed><sat>31</sat></trkpt>
  <trkpt lat="38.52348665" lon="42.30042652"><ele>1684.077</ele><time>2026-09-13T12:34:59Z</time><speed>14.870</speed><sat>29</sat></trkpt>
  <trkpt lat="38.52336220" lon="42.30035949"><ele>1684.694</ele><time>2026-09-13T12:35:00Z</time><speed>14.960</speed><sat>23</sat></trkpt>
  <trkpt lat="38.52324574" lon="42.30029178"><ele>1684.854</ele><time>2026-09-13T12:35:01Z</time><speed>14.430</speed><sat>23</sat></trkpt>
  <trkpt lat="38.52312684" lon="42.30022569"><ele>1685.135</ele><time>2026-09-13T12:35:02Z</time><speed>14.570</speed><sat>25</sat></trkpt>
  <trkpt lat="38.52299257" lon="42.30014059"><ele>1685.305</ele><time>2026-09-13T12:35:03Z</time><speed>15.320</speed><sat>23</sat></trkpt>
  <trkpt lat="38.52285485" lon="42.30006788"><ele>1684.867</ele><time>2026-09-13T12:35:04Z</time><speed>15.720</speed><sat>23</sat></trkpt>
  <trkpt lat="38.52272258" lon="42.29999296"><ele>1684.935</ele><time>2026-09-13T12:35:05Z</time><speed>15.850</speed><sat>24</sat></trkpt>
  <trkpt lat="38.52259585" lon="42.29990863"><ele>1683.306</ele><time>2026-09-13T12:35:06Z</time><speed>15.390</speed><sat>23</sat></trkpt>
  <trkpt lat="38.52246881" lon="42.29982450"><ele>1683.174</ele><time>2026-09-13T12:35:07Z</time><speed>15.510</speed><sat>24</sat></trkpt>
  <trkpt lat="38.52234231" lon="42.29974771"><ele>1683.719</ele><time>2026-09-13T12:35:08Z</time><speed>15.350</speed><sat>24</sat></trkpt>
  <trkpt lat="38.52222624" lon="42.29967276"><ele>1682.102</ele><time>2026-09-13T12:35:09Z</time><speed>13.940</speed><sat>25</sat></trkpt>
  <trkpt lat="38.52210653" lon="42.29960229"><ele>1681.681</ele><time>2026-09-13T12:35:10Z</time><speed>14.730</speed><sat>26</sat></trkpt>
  <trkpt lat="38.52198707" lon="42.29953725"><ele>1681.148</ele><time>2026-09-13T12:35:11Z</time><speed>14.290</speed><sat>24</sat></trkpt>
  <trkpt lat="38.52188440" lon="42.29947957"><ele>1680.478</ele><time>2026-09-13T12:35:12Z</time><speed>13.300</speed><sat>24</sat></trkpt>
  <trkpt lat="38.52180845" lon="42.29942776"><ele>1680.366</ele><time>2026-09-13T12:35:13Z</time><speed>10.090</speed><sat>27</sat></trkpt>
  <trkpt lat="38.52173789" lon="42.29939093"><ele>1680.013</ele><time>2026-09-13T12:35:14Z</time><speed>9.770</speed><sat>28</sat></trkpt>
  <trkpt lat="38.52166728" lon="42.29936592"><ele>1679.145</ele><time>2026-09-13T12:35:15Z</time><speed>8.480</speed><sat>28</sat></trkpt>
  <trkpt lat="38.52160549" lon="42.29933438"><ele>1678.643</ele><time>2026-09-13T12:35:16Z</time><speed>6.890</speed><sat>29</sat></trkpt>
  <trkpt lat="38.52156628" lon="42.29931632"><ele>1679.054</ele><time>2026-09-13T12:35:17Z</time><speed>5.210</speed><sat>30</sat></trkpt>
  <trkpt lat="38.52151975" lon="42.29930215"><ele>1678.847</ele><time>2026-09-13T12:35:18Z</time><speed>5.600</speed><sat>30</sat></trkpt>
  <trkpt lat="38.52149231" lon="42.29928691"><ele>1678.135</ele><time>2026-09-13T12:35:19Z</time><speed>3.990</speed><sat>30</sat></trkpt>
  <trkpt lat="38.52147208" lon="42.29927541"><ele>1678.830</ele><time>2026-09-13T12:35:20Z</time><speed>2.520</speed><sat>28</sat></trkpt>
  <trkpt lat="38.52144517" lon="42.29926957"><ele>1678.611</ele><time>2026-09-13T12:35:21Z</time><speed>2.630</speed><sat>27</sat></trkpt>
  <trkpt lat="38.52142054" lon="42.29925422"><ele>1678.127</ele><time>2026-09-13T12:35:22Z</time><speed>2.830</speed><sat>26</sat></trkpt>
  <trkpt lat="38.52139387" lon="42.29923641"><ele>1679.765</ele><time>2026-09-13T12:35:23Z</time><speed>3.050</speed><sat>28</sat></trkpt>
  <trkpt lat="38.52137416" lon="42.29922273"><ele>1680.508</ele><time>2026-09-13T12:35:24Z</time><speed>2.450</speed><sat>27</sat></trkpt>
  <trkpt lat="38.52129460" lon="42.29918303"><ele>1680.367</ele><time>2026-09-13T12:35:25Z</time><speed>6.770</speed><sat>27</sat></trkpt>
  <trkpt lat="38.52123517" lon="42.29915534"><ele>1679.678</ele><time>2026-09-13T12:35:26Z</time><speed>7.930</speed><sat>28</sat></trkpt>
  <trkpt lat="38.52116389" lon="42.29911714"><ele>1679.007</ele><time>2026-09-13T12:35:27Z</time><speed>8.670</speed><sat>27</sat></trkpt>
  <trkpt lat="38.52109888" lon="42.29907590"><ele>1679.031</ele><time>2026-09-13T12:35:28Z</time><speed>8.330</speed><sat>29</sat></trkpt>
  <trkpt lat="38.52101096" lon="42.29903639"><ele>1679.644</ele><time>2026-09-13T12:35:29Z</time><speed>9.830</speed><sat>29</sat></trkpt>
  <trkpt lat="38.52093538" lon="42.29901015"><ele>1678.176</ele><time>2026-09-13T12:35:30Z</time><speed>9.280</speed><sat>25</sat></trkpt>
  <trkpt lat="38.52084910" lon="42.29896315"><ele>1678.812</ele><time>2026-09-13T12:35:31Z</time><speed>9.720</speed><sat>24</sat></trkpt>
  <trkpt lat="38.52078007" lon="42.29892337"><ele>1679.188</ele><time>2026-09-13T12:35:32Z</time><speed>7.680</speed><sat>23</sat></trkpt>
  <trkpt lat="38.52068796" lon="42.29887775"><ele>1677.984</ele><time>2026-09-13T12:35:33Z</time><speed>10.260</speed><sat>23</sat></trkpt>
  <trkpt lat="38.52060679" lon="42.29883037"><ele>1677.911</ele><time>2026-09-13T12:35:34Z</time><speed>10.080</speed><sat>25</sat></trkpt>
  <trkpt lat="38.52053544" lon="42.29880125"><ele>1677.633</ele><time>2026-09-13T12:35:35Z</time><speed>9.340</speed><sat>25</sat></trkpt>
  <trkpt lat="38.52045345" lon="42.29874204"><ele>1677.677</ele><time>2026-09-13T12:35:36Z</time><speed>10.300</speed><sat>21</sat></trkpt>
  <trkpt lat="38.52035833" lon="42.29870521"><ele>1677.346</ele><time>2026-09-13T12:35:37Z</time><speed>10.560</speed><sat>22</sat></trkpt>
  <trkpt lat="38.52024107" lon="42.29867084"><ele>1677.290</ele><time>2026-09-13T12:35:38Z</time><speed>11.290</speed><sat>19</sat></trkpt>
  <trkpt lat="38.52011771" lon="42.29859463"><ele>1674.428</ele><time>2026-09-13T12:35:39Z</time><speed>12.040</speed><sat>17</sat></trkpt>
  <trkpt lat="38.52004864" lon="42.29854813"><ele>1676.141</ele><time>2026-09-13T12:35:40Z</time><speed>9.800</speed><sat>17</sat></trkpt>
  <trkpt lat="38.51995940" lon="42.29849816"><ele>1675.598</ele><time>2026-09-13T12:35:41Z</time><speed>9.530</speed><sat>21</sat></trkpt>
  <trkpt lat="38.51988150" lon="42.29844154"><ele>1676.572</ele><time>2026-09-13T12:35:42Z</time><speed>8.690</speed><sat>24</sat></trkpt>
  <trkpt lat="38.51981415" lon="42.29840930"><ele>1676.723</ele><time>2026-09-13T12:35:43Z</time><speed>7.950</speed><sat>24</sat></trkpt>
  <trkpt lat="38.51976932" lon="42.29838457"><ele>1676.674</ele><time>2026-09-13T12:35:44Z</time><speed>5.570</speed><sat>24</sat></trkpt>
  <trkpt lat="38.51971317" lon="42.29834662"><ele>1677.195</ele><time>2026-09-13T12:35:45Z</time><speed>6.510</speed><sat>24</sat></trkpt>
  <trkpt lat="38.51966257" lon="42.29833796"><ele>1678.506</ele><time>2026-09-13T12:35:46Z</time><speed>6.510</speed><sat>24</sat></trkpt>
  <trkpt lat="38.51963897" lon="42.29827868"><ele>1679.343</ele><time>2026-09-13T12:35:47Z</time><speed>6.180</speed><sat>23</sat></trkpt>
  <trkpt lat="38.51966008" lon="42.29829386"><ele>1679.085</ele><time>2026-09-13T12:35:48Z</time><speed>1.990</speed><sat>19</sat></trkpt>
  <trkpt lat="38.51963396" lon="42.29825587"><ele>1678.341</ele><time>2026-09-13T12:35:49Z</time><speed>3.740</speed><sat>22</sat></trkpt>
  <trkpt lat="38.51958233" lon="42.29823344"><ele>1678.052</ele><time>2026-09-13T12:35:50Z</time><speed>5.310</speed><sat>21</sat></trkpt>
  <trkpt lat="38.51953693" lon="42.29820633"><ele>1678.079</ele><time>2026-09-13T12:35:51Z</time><speed>5.070</speed><sat>22</sat></trkpt>
  <trkpt lat="38.51950158" lon="42.29814022"><ele>1679.273</ele><time>2026-09-13T12:35:52Z</time><speed>5.920</speed><sat>22</sat></trkpt>
  <trkpt lat="38.51944836" lon="42.29813875"><ele>1680.213</ele><time>2026-09-13T12:35:53Z</time><speed>5.100</speed><sat>22</sat></trkpt>
  <trkpt lat="38.51934243" lon="42.29811419"><ele>1681.856</ele><time>2026-09-13T12:35:54Z</time><speed>9.830</speed><sat>21</sat></trkpt>
  <trkpt lat="38.51928797" lon="42.29806168"><ele>1680.135</ele><time>2026-09-13T12:35:55Z</time><speed>8.420</speed><sat>19</sat></trkpt>
  <trkpt lat="38.51922801" lon="42.29798664"><ele>1677.089</ele><time>2026-09-13T12:35:56Z</time><speed>9.470</speed><sat>21</sat></trkpt>
  <trkpt lat="38.51913525" lon="42.29794706"><ele>1677.572</ele><time>2026-09-13T12:35:57Z</time><speed>9.410</speed><sat>23</sat></trkpt>
  <trkpt lat="38.51905987" lon="42.29789073"><ele>1677.192</ele><time>2026-09-13T12:35:58Z</time><speed>9.370</speed><sat>25</sat></trkpt>
  <trkpt lat="38.51898907" lon="42.29781786"><ele>1673.942</ele><time>2026-09-13T12:35:59Z</time><speed>10.040</speed><sat>25</sat></trkpt>
  <trkpt lat="38.51889655" lon="42.29778371"><ele>1674.309</ele><time>2026-09-13T12:36:00Z</time><speed>10.000</speed><sat>24</sat></trkpt>
  <trkpt lat="38.51881317" lon="42.29771515"><ele>1670.900</ele><time>2026-09-13T12:36:01Z</time><speed>10.370</speed><sat>26</sat></trkpt>
  <trkpt lat="38.51873466" lon="42.29765494"><ele>1671.352</ele><time>2026-09-13T12:36:02Z</time><speed>9.950</speed><sat>26</sat></trkpt>
  <trkpt lat="38.51863627" lon="42.29756587"><ele>1670.218</ele><time>2026-09-13T12:36:03Z</time><speed>11.000</speed><sat>26</sat></trkpt>
  <trkpt lat="38.51854339" lon="42.29750721"><ele>1671.178</ele><time>2026-09-13T12:36:04Z</time><speed>10.930</speed><sat>27</sat></trkpt>
  <trkpt lat="38.51846988" lon="42.29741824"><ele>1672.598</ele><time>2026-09-13T12:36:05Z</time><speed>12.290</speed><sat>25</sat></trkpt>
  <trkpt lat="38.51839983" lon="42.29732004"><ele>1673.642</ele><time>2026-09-13T12:36:06Z</time><speed>11.630</speed><sat>25</sat></trkpt>
  <trkpt lat="38.51832790" lon="42.29723520"><ele>1673.436</ele><time>2026-09-13T12:36:07Z</time><speed>11.360</speed><sat>27</sat></trkpt>
  <trkpt lat="38.51825427" lon="42.29714372"><ele>1674.868</ele><time>2026-09-13T12:36:08Z</time><speed>11.780</speed><sat>27</sat></trkpt>
  <trkpt lat="38.51818330" lon="42.29705499"><ele>1675.938</ele><time>2026-09-13T12:36:09Z</time><speed>11.490</speed><sat>26</sat></trkpt>
  <trkpt lat="38.51812414" lon="42.29695500"><ele>1677.499</ele><time>2026-09-13T12:36:10Z</time><speed>10.790</speed><sat>27</sat></trkpt>
  <trkpt lat="38.51807370" lon="42.29686379"><ele>1677.567</ele><time>2026-09-13T12:36:11Z</time><speed>9.610</speed><sat>29</sat></trkpt>
  <trkpt lat="38.51801866" lon="42.29677646"><ele>1679.372</ele><time>2026-09-13T12:36:12Z</time><speed>9.380</speed><sat>29</sat></trkpt>
  <trkpt lat="38.51797264" lon="42.29670604"><ele>1680.287</ele><time>2026-09-13T12:36:13Z</time><speed>8.610</speed><sat>30</sat></trkpt>
  <trkpt lat="38.51793773" lon="42.29663376"><ele>1681.209</ele><time>2026-09-13T12:36:14Z</time><speed>7.310</speed><sat>32</sat></trkpt>
  <trkpt lat="38.51791416" lon="42.29658431"><ele>1682.360</ele><time>2026-09-13T12:36:15Z</time><speed>5.510</speed><sat>33</sat></trkpt>
  <trkpt lat="38.51789514" lon="42.29654312"><ele>1682.889</ele><time>2026-09-13T12:36:16Z</time><speed>4.140</speed><sat>33</sat></trkpt>
  <trkpt lat="38.51788075" lon="42.29652449"><ele>1683.206</ele><time>2026-09-13T12:36:17Z</time><speed>2.390</speed><sat>33</sat></trkpt>
  <trkpt lat="38.51786420" lon="42.29649733"><ele>1683.107</ele><time>2026-09-13T12:36:18Z</time><speed>2.810</speed><sat>32</sat></trkpt>
  <trkpt lat="38.51784549" lon="42.29645743"><ele>1683.014</ele><time>2026-09-13T12:36:19Z</time><speed>4.020</speed><sat>33</sat></trkpt>
  <trkpt lat="38.51782804" lon="42.29641635"><ele>1683.373</ele><time>2026-09-13T12:36:20Z</time><speed>4.460</speed><sat>33</sat></trkpt>
  <trkpt lat="38.51780099" lon="42.29636498"><ele>1683.455</ele><time>2026-09-13T12:36:21Z</time><speed>6.200</speed><sat>33</sat></trkpt>
  <trkpt lat="38.51777324" lon="42.29631359"><ele>1684.026</ele><time>2026-09-13T12:36:22Z</time><speed>6.640</speed><sat>32</sat></trkpt>
  <trkpt lat="38.51774344" lon="42.29624751"><ele>1683.677</ele><time>2026-09-13T12:36:23Z</time><speed>6.680</speed><sat>32</sat></trkpt>
  <trkpt lat="38.51771053" lon="42.29617561"><ele>1684.403</ele><time>2026-09-13T12:36:24Z</time><speed>7.660</speed><sat>32</sat></trkpt>
  <trkpt lat="38.51767388" lon="42.29609718"><ele>1684.183</ele><time>2026-09-13T12:36:25Z</time><speed>8.760</speed><sat>32</sat></trkpt>
  <trkpt lat="38.51762993" lon="42.29600139"><ele>1684.671</ele><time>2026-09-13T12:36:26Z</time><speed>9.420</speed><sat>32</sat></trkpt>
  <trkpt lat="38.51758951" lon="42.29591564"><ele>1683.113</ele><time>2026-09-13T12:36:27Z</time><speed>9.270</speed><sat>32</sat></trkpt>
  <trkpt lat="38.51755879" lon="42.29582430"><ele>1683.559</ele><time>2026-09-13T12:36:28Z</time><speed>9.020</speed><sat>30</sat></trkpt>
  <trkpt lat="38.51752051" lon="42.29569938"><ele>1683.353</ele><time>2026-09-13T12:36:29Z</time><speed>11.110</speed><sat>30</sat></trkpt>
  <trkpt lat="38.51749262" lon="42.29557534"><ele>1684.254</ele><time>2026-09-13T12:36:30Z</time><speed>11.550</speed><sat>29</sat></trkpt>
  <trkpt lat="38.51746427" lon="42.29545037"><ele>1683.841</ele><time>2026-09-13T12:36:31Z</time><speed>11.310</speed><sat>30</sat></trkpt>
  <trkpt lat="38.51743911" lon="42.29530502"><ele>1684.402</ele><time>2026-09-13T12:36:32Z</time><speed>12.250</speed><sat>30</sat></trkpt>
  <trkpt lat="38.51740483" lon="42.29514803"><ele>1683.735</ele><time>2026-09-13T12:36:33Z</time><speed>13.680</speed><sat>30</sat></trkpt>
  <trkpt lat="38.51743039" lon="42.29500637"><ele>1684.596</ele><time>2026-09-13T12:36:34Z</time><speed>13.170</speed><sat>30</sat></trkpt>
  <trkpt lat="38.51745691" lon="42.29486260"><ele>1685.008</ele><time>2026-09-13T12:36:35Z</time><speed>13.060</speed><sat>30</sat></trkpt>
  <trkpt lat="38.51748374" lon="42.29471173"><ele>1685.424</ele><time>2026-09-13T12:36:36Z</time><speed>13.120</speed><sat>32</sat></trkpt>
  <trkpt lat="38.51751577" lon="42.29456835"><ele>1686.070</ele><time>2026-09-13T12:36:37Z</time><speed>12.840</speed><sat>32</sat></trkpt>
  <trkpt lat="38.51754439" lon="42.29442261"><ele>1685.711</ele><time>2026-09-13T12:36:38Z</time><speed>13.070</speed><sat>33</sat></trkpt>
  <trkpt lat="38.51757341" lon="42.29427527"><ele>1685.095</ele><time>2026-09-13T12:36:39Z</time><speed>13.070</speed><sat>33</sat></trkpt>
  <trkpt lat="38.51759920" lon="42.29412966"><ele>1685.773</ele><time>2026-09-13T12:36:40Z</time><speed>13.190</speed><sat>33</sat></trkpt>
  <trkpt lat="38.51762175" lon="42.29397941"><ele>1686.233</ele><time>2026-09-13T12:36:41Z</time><speed>13.500</speed><sat>33</sat></trkpt>
  <trkpt lat="38.51763949" lon="42.29382882"><ele>1686.523</ele><time>2026-09-13T12:36:42Z</time><speed>13.470</speed><sat>32</sat></trkpt>
  <trkpt lat="38.51766088" lon="42.29367499"><ele>1686.916</ele><time>2026-09-13T12:36:43Z</time><speed>13.330</speed><sat>33</sat></trkpt>
  <trkpt lat="38.51766916" lon="42.29351685"><ele>1686.693</ele><time>2026-09-13T12:36:44Z</time><speed>13.680</speed><sat>33</sat></trkpt>
  <trkpt lat="38.51767991" lon="42.29336080"><ele>1686.640</ele><time>2026-09-13T12:36:45Z</time><speed>13.640</speed><sat>33</sat></trkpt>
  <trkpt lat="38.51768561" lon="42.29320989"><ele>1686.646</ele><time>2026-09-13T12:36:46Z</time><speed>13.230</speed><sat>33</sat></trkpt>
  <trkpt lat="38.51768590" lon="42.29305668"><ele>1686.345</ele><time>2026-09-13T12:36:47Z</time><speed>12.830</speed><sat>32</sat></trkpt>
  <trkpt lat="38.51767673" lon="42.29291609"><ele>1686.185</ele><time>2026-09-13T12:36:48Z</time><speed>12.560</speed><sat>34</sat></trkpt>
  <trkpt lat="38.51766068" lon="42.29278494"><ele>1686.036</ele><time>2026-09-13T12:36:49Z</time><speed>12.070</speed><sat>34</sat></trkpt>
  <trkpt lat="38.51764381" lon="42.29266151"><ele>1685.492</ele><time>2026-09-13T12:36:50Z</time><speed>11.450</speed><sat>34</sat></trkpt>
  <trkpt lat="38.51762353" lon="42.29254673"><ele>1685.209</ele><time>2026-09-13T12:36:51Z</time><speed>10.710</speed><sat>34</sat></trkpt>
  <trkpt lat="38.51759291" lon="42.29243740"><ele>1685.279</ele><time>2026-09-13T12:36:52Z</time><speed>10.390</speed><sat>32</sat></trkpt>
  <trkpt lat="38.51755037" lon="42.29234059"><ele>1685.309</ele><time>2026-09-13T12:36:53Z</time><speed>9.250</speed><sat>30</sat></trkpt>
  <trkpt lat="38.51752598" lon="42.29227462"><ele>1685.350</ele><time>2026-09-13T12:36:54Z</time><speed>6.790</speed><sat>31</sat></trkpt>
  <trkpt lat="38.51750505" lon="42.29222319"><ele>1685.518</ele><time>2026-09-13T12:36:55Z</time><speed>4.770</speed><sat>31</sat></trkpt>
  <trkpt lat="38.51748929" lon="42.29218975"><ele>1685.385</ele><time>2026-09-13T12:36:56Z</time><speed>2.820</speed><sat>31</sat></trkpt>
  <trkpt lat="38.51747826" lon="42.29217137"><ele>1685.334</ele><time>2026-09-13T12:36:57Z</time><speed>2.060</speed><sat>31</sat></trkpt>
  <trkpt lat="38.51746817" lon="42.29215057"><ele>1685.297</ele><time>2026-09-13T12:36:58Z</time><speed>2.200</speed><sat>30</sat></trkpt>
  <trkpt lat="38.51745656" lon="42.29211789"><ele>1685.165</ele><time>2026-09-13T12:36:59Z</time><speed>2.910</speed><sat>29</sat></trkpt>
  <trkpt lat="38.51744645" lon="42.29208968"><ele>1685.224</ele><time>2026-09-13T12:37:00Z</time><speed>3.020</speed><sat>29</sat></trkpt>
  <trkpt lat="38.51743154" lon="42.29205942"><ele>1685.142</ele><time>2026-09-13T12:37:01Z</time><speed>3.020</speed><sat>29</sat></trkpt>
  <trkpt lat="38.51741303" lon="42.29202288"><ele>1684.446</ele><time>2026-09-13T12:37:02Z</time><speed>3.360</speed><sat>27</sat></trkpt>
  <trkpt lat="38.51739111" lon="42.29198074"><ele>1685.431</ele><time>2026-09-13T12:37:03Z</time><speed>4.230</speed><sat>29</sat></trkpt>
  <trkpt lat="38.51736830" lon="42.29193279"><ele>1685.679</ele><time>2026-09-13T12:37:04Z</time><speed>4.840</speed><sat>30</sat></trkpt>
  <trkpt lat="38.51732299" lon="42.29189099"><ele>1686.249</ele><time>2026-09-13T12:37:05Z</time><speed>5.750</speed><sat>32</sat></trkpt>
  <trkpt lat="38.51728402" lon="42.29184611"><ele>1686.510</ele><time>2026-09-13T12:37:06Z</time><speed>6.300</speed><sat>33</sat></trkpt>
  <trkpt lat="38.51724198" lon="42.29178607"><ele>1686.578</ele><time>2026-09-13T12:37:07Z</time><speed>7.100</speed><sat>33</sat></trkpt>
  <trkpt lat="38.51718107" lon="42.29172343"><ele>1685.343</ele><time>2026-09-13T12:37:08Z</time><speed>8.330</speed><sat>34</sat></trkpt>
  <trkpt lat="38.51710748" lon="42.29166528"><ele>1684.872</ele><time>2026-09-13T12:37:09Z</time><speed>9.720</speed><sat>34</sat></trkpt>
  <trkpt lat="38.51702491" lon="42.29160036"><ele>1683.793</ele><time>2026-09-13T12:37:10Z</time><speed>10.110</speed><sat>34</sat></trkpt>
  <trkpt lat="38.51693946" lon="42.29153773"><ele>1683.875</ele><time>2026-09-13T12:37:11Z</time><speed>10.610</speed><sat>34</sat></trkpt>
  <trkpt lat="38.51683364" lon="42.29149547"><ele>1684.199</ele><time>2026-09-13T12:37:12Z</time><speed>11.680</speed><sat>34</sat></trkpt>
  <trkpt lat="38.51671693" lon="42.29146997"><ele>1684.261</ele><time>2026-09-13T12:37:13Z</time><speed>12.710</speed><sat>33</sat></trkpt>
  <trkpt lat="38.51659427" lon="42.29145409"><ele>1683.538</ele><time>2026-09-13T12:37:14Z</time><speed>13.460</speed><sat>33</sat></trkpt>
  <trkpt lat="38.51646069" lon="42.29144034"><ele>1683.291</ele><time>2026-09-13T12:37:15Z</time><speed>13.870</speed><sat>34</sat></trkpt>
  <trkpt lat="38.51633664" lon="42.29143744"><ele>1683.301</ele><time>2026-09-13T12:37:16Z</time><speed>13.800</speed><sat>35</sat></trkpt>
  <trkpt lat="38.51620922" lon="42.29144252"><ele>1682.400</ele><time>2026-09-13T12:37:17Z</time><speed>14.040</speed><sat>35</sat></trkpt>
  <trkpt lat="38.51607499" lon="42.29145551"><ele>1681.367</ele><time>2026-09-13T12:37:18Z</time><speed>14.600</speed><sat>35</sat></trkpt>
  <trkpt lat="38.51593030" lon="42.29147744"><ele>1681.193</ele><time>2026-09-13T12:37:19Z</time><speed>16.050</speed><sat>35</sat></trkpt>
  <trkpt lat="38.51579775" lon="42.29152463"><ele>1681.111</ele><time>2026-09-13T12:37:20Z</time><speed>15.440</speed><sat>35</sat></trkpt>
  <trkpt lat="38.51566430" lon="42.29157008"><ele>1680.561</ele><time>2026-09-13T12:37:21Z</time><speed>15.500</speed><sat>35</sat></trkpt>
  <trkpt lat="38.51553324" lon="42.29160155"><ele>1680.214</ele><time>2026-09-13T12:37:22Z</time><speed>15.490</speed><sat>35</sat></trkpt>
  <trkpt lat="38.51539242" lon="42.29162790"><ele>1679.256</ele><time>2026-09-13T12:37:23Z</time><speed>15.610</speed><sat>35</sat></trkpt>
  <trkpt lat="38.51526052" lon="42.29166160"><ele>1679.200</ele><time>2026-09-13T12:37:24Z</time><speed>15.130</speed><sat>35</sat></trkpt>
  <trkpt lat="38.51513142" lon="42.29168870"><ele>1679.499</ele><time>2026-09-13T12:37:25Z</time><speed>14.800</speed><sat>35</sat></trkpt>
  <trkpt lat="38.51499777" lon="42.29168661"><ele>1680.836</ele><time>2026-09-13T12:37:26Z</time><speed>14.610</speed><sat>35</sat></trkpt>
  <trkpt lat="38.51486495" lon="42.29168642"><ele>1679.883</ele><time>2026-09-13T12:37:27Z</time><speed>14.640</speed><sat>35</sat></trkpt>
  <trkpt lat="38.51474659" lon="42.29169533"><ele>1680.213</ele><time>2026-09-13T12:37:28Z</time><speed>13.060</speed><sat>35</sat></trkpt>
  <trkpt lat="38.51460363" lon="42.29165070"><ele>1677.675</ele><time>2026-09-13T12:37:29Z</time><speed>13.970</speed><sat>35</sat></trkpt>
  <trkpt lat="38.51449403" lon="42.29162748"><ele>1676.956</ele><time>2026-09-13T12:37:30Z</time><speed>13.000</speed><sat>35</sat></trkpt>
  <trkpt lat="38.51438532" lon="42.29158350"><ele>1676.355</ele><time>2026-09-13T12:37:31Z</time><speed>12.620</speed><sat>35</sat></trkpt>
  <trkpt lat="38.51427984" lon="42.29153786"><ele>1675.808</ele><time>2026-09-13T12:37:32Z</time><speed>12.450</speed><sat>35</sat></trkpt>
  <trkpt lat="38.51417897" lon="42.29148969"><ele>1676.142</ele><time>2026-09-13T12:37:33Z</time><speed>12.050</speed><sat>35</sat></trkpt>
  <trkpt lat="38.51409291" lon="42.29142022"><ele>1675.323</ele><time>2026-09-13T12:37:34Z</time><speed>11.390</speed><sat>35</sat></trkpt>
  <trkpt lat="38.51398021" lon="42.29131970"><ele>1675.618</ele><time>2026-09-13T12:37:35Z</time><speed>13.950</speed><sat>35</sat></trkpt>
  <trkpt lat="38.51389161" lon="42.29123083"><ele>1677.768</ele><time>2026-09-13T12:37:36Z</time><speed>12.750</speed><sat>34</sat></trkpt>
  <trkpt lat="38.51380758" lon="42.29114029"><ele>1676.794</ele><time>2026-09-13T12:37:37Z</time><speed>13.550</speed><sat>35</sat></trkpt>
  <trkpt lat="38.51370661" lon="42.29103570"><ele>1676.924</ele><time>2026-09-13T12:37:38Z</time><speed>14.000</speed><sat>35</sat></trkpt>
  <trkpt lat="38.51361310" lon="42.29093202"><ele>1676.430</ele><time>2026-09-13T12:37:39Z</time><speed>12.960</speed><sat>35</sat></trkpt>
  <trkpt lat="38.51351525" lon="42.29083589"><ele>1676.352</ele><time>2026-09-13T12:37:40Z</time><speed>13.460</speed><sat>35</sat></trkpt>
  <trkpt lat="38.51342591" lon="42.29073829"><ele>1676.419</ele><time>2026-09-13T12:37:41Z</time><speed>13.350</speed><sat>35</sat></trkpt>
  <trkpt lat="38.51333048" lon="42.29064287"><ele>1675.890</ele><time>2026-09-13T12:37:42Z</time><speed>13.600</speed><sat>35</sat></trkpt>
  <trkpt lat="38.51323511" lon="42.29054086"><ele>1675.518</ele><time>2026-09-13T12:37:43Z</time><speed>13.000</speed><sat>35</sat></trkpt>
  <trkpt lat="38.51315011" lon="42.29044829"><ele>1675.710</ele><time>2026-09-13T12:37:44Z</time><speed>12.280</speed><sat>35</sat></trkpt>
  <trkpt lat="38.51306358" lon="42.29036104"><ele>1675.699</ele><time>2026-09-13T12:37:45Z</time><speed>11.660</speed><sat>33</sat></trkpt>
  <trkpt lat="38.51297415" lon="42.29027476"><ele>1675.362</ele><time>2026-09-13T12:37:46Z</time><speed>11.860</speed><sat>34</sat></trkpt>
  <trkpt lat="38.51289365" lon="42.29018801"><ele>1675.608</ele><time>2026-09-13T12:37:47Z</time><speed>11.740</speed><sat>34</sat></trkpt>
  <trkpt lat="38.51282187" lon="42.29010306"><ele>1675.771</ele><time>2026-09-13T12:37:48Z</time><speed>11.580</speed><sat>33</sat></trkpt>
  <trkpt lat="38.51274456" lon="42.29002080"><ele>1675.109</ele><time>2026-09-13T12:37:49Z</time><speed>11.310</speed><sat>32</sat></trkpt>
  <trkpt lat="38.51266817" lon="42.28992778"><ele>1674.587</ele><time>2026-09-13T12:37:50Z</time><speed>11.360</speed><sat>33</sat></trkpt>
  <trkpt lat="38.51259052" lon="42.28983910"><ele>1674.684</ele><time>2026-09-13T12:37:51Z</time><speed>11.150</speed><sat>33</sat></trkpt>
  <trkpt lat="38.51251492" lon="42.28975604"><ele>1673.959</ele><time>2026-09-13T12:37:52Z</time><speed>11.170</speed><sat>34</sat></trkpt>
  <trkpt lat="38.51243103" lon="42.28967751"><ele>1674.844</ele><time>2026-09-13T12:37:53Z</time><speed>11.450</speed><sat>34</sat></trkpt>
  <trkpt lat="38.51236738" lon="42.28957306"><ele>1675.575</ele><time>2026-09-13T12:37:54Z</time><speed>11.270</speed><sat>34</sat></trkpt>
  <trkpt lat="38.51228781" lon="42.28948620"><ele>1674.988</ele><time>2026-09-13T12:37:55Z</time><speed>11.280</speed><sat>34</sat></trkpt>
  <trkpt lat="38.51221576" lon="42.28939362"><ele>1675.415</ele><time>2026-09-13T12:37:56Z</time><speed>11.100</speed><sat>34</sat></trkpt>
  <trkpt lat="38.51213370" lon="42.28931272"><ele>1675.542</ele><time>2026-09-13T12:37:57Z</time><speed>11.170</speed><sat>34</sat></trkpt>
  <trkpt lat="38.51205502" lon="42.28923412"><ele>1676.471</ele><time>2026-09-13T12:37:58Z</time><speed>10.960</speed><sat>34</sat></trkpt>
  <trkpt lat="38.51197792" lon="42.28915523"><ele>1676.263</ele><time>2026-09-13T12:37:59Z</time><speed>11.030</speed><sat>34</sat></trkpt>
  <trkpt lat="38.51190150" lon="42.28907598"><ele>1676.105</ele><time>2026-09-13T12:38:00Z</time><speed>10.770</speed><sat>34</sat></trkpt>
  <trkpt lat="38.51183298" lon="42.28899467"><ele>1676.143</ele><time>2026-09-13T12:38:01Z</time><speed>10.540</speed><sat>34</sat></trkpt>
  <trkpt lat="38.51176556" lon="42.28891888"><ele>1676.100</ele><time>2026-09-13T12:38:02Z</time><speed>9.940</speed><sat>34</sat></trkpt>
  <trkpt lat="38.51169741" lon="42.28884129"><ele>1675.318</ele><time>2026-09-13T12:38:03Z</time><speed>9.870</speed><sat>34</sat></trkpt>
  <trkpt lat="38.51162133" lon="42.28878274"><ele>1674.973</ele><time>2026-09-13T12:38:04Z</time><speed>9.950</speed><sat>35</sat></trkpt>
  <trkpt lat="38.51156727" lon="42.28872996"><ele>1675.027</ele><time>2026-09-13T12:38:05Z</time><speed>8.100</speed><sat>35</sat></trkpt>
  <trkpt lat="38.51149345" lon="42.28865898"><ele>1674.528</ele><time>2026-09-13T12:38:06Z</time><speed>9.330</speed><sat>35</sat></trkpt>
  <trkpt lat="38.51146146" lon="42.28861542"><ele>1674.466</ele><time>2026-09-13T12:38:07Z</time><speed>6.170</speed><sat>35</sat></trkpt>
  <trkpt lat="38.51141648" lon="42.28856786"><ele>1675.463</ele><time>2026-09-13T12:38:08Z</time><speed>6.490</speed><sat>35</sat></trkpt>
  <trkpt lat="38.51135769" lon="42.28851959"><ele>1674.783</ele><time>2026-09-13T12:38:09Z</time><speed>7.670</speed><sat>35</sat></trkpt>
  <trkpt lat="38.51131041" lon="42.28846495"><ele>1674.417</ele><time>2026-09-13T12:38:10Z</time><speed>7.620</speed><sat>35</sat></trkpt>
  <trkpt lat="38.51125113" lon="42.28840309"><ele>1673.997</ele><time>2026-09-13T12:38:11Z</time><speed>8.150</speed><sat>35</sat></trkpt>
  <trkpt lat="38.51118976" lon="42.28833792"><ele>1673.742</ele><time>2026-09-13T12:38:12Z</time><speed>9.170</speed><sat>35</sat></trkpt>
  <trkpt lat="38.51111965" lon="42.28826557"><ele>1674.051</ele><time>2026-09-13T12:38:13Z</time><speed>9.930</speed><sat>35</sat></trkpt>
  <trkpt lat="38.51105352" lon="42.28820490"><ele>1675.392</ele><time>2026-09-13T12:38:14Z</time><speed>9.350</speed><sat>35</sat></trkpt>
  <trkpt lat="38.51097979" lon="42.28813097"><ele>1675.854</ele><time>2026-09-13T12:38:15Z</time><speed>10.240</speed><sat>35</sat></trkpt>
  <trkpt lat="38.51091140" lon="42.28804853"><ele>1675.703</ele><time>2026-09-13T12:38:16Z</time><speed>10.570</speed><sat>35</sat></trkpt>
  <trkpt lat="38.51083711" lon="42.28796612"><ele>1675.039</ele><time>2026-09-13T12:38:17Z</time><speed>10.810</speed><sat>35</sat></trkpt>
  <trkpt lat="38.51074810" lon="42.28788576"><ele>1675.228</ele><time>2026-09-13T12:38:18Z</time><speed>11.540</speed><sat>34</sat></trkpt>
  <trkpt lat="38.51066609" lon="42.28780400"><ele>1675.014</ele><time>2026-09-13T12:38:19Z</time><speed>12.280</speed><sat>34</sat></trkpt>
  <trkpt lat="38.51058019" lon="42.28771295"><ele>1674.527</ele><time>2026-09-13T12:38:20Z</time><speed>12.770</speed><sat>35</sat></trkpt>
  <trkpt lat="38.51048787" lon="42.28761565"><ele>1674.538</ele><time>2026-09-13T12:38:21Z</time><speed>13.450</speed><sat>35</sat></trkpt>
  <trkpt lat="38.51039216" lon="42.28751457"><ele>1674.718</ele><time>2026-09-13T12:38:22Z</time><speed>13.890</speed><sat>35</sat></trkpt>
  <trkpt lat="38.51030304" lon="42.28741426"><ele>1675.578</ele><time>2026-09-13T12:38:23Z</time><speed>13.870</speed><sat>35</sat></trkpt>
  <trkpt lat="38.51020774" lon="42.28730115"><ele>1675.101</ele><time>2026-09-13T12:38:24Z</time><speed>14.450</speed><sat>35</sat></trkpt>
  <trkpt lat="38.51011697" lon="42.28720755"><ele>1675.382</ele><time>2026-09-13T12:38:25Z</time><speed>13.740</speed><sat>35</sat></trkpt>
  <trkpt lat="38.51002027" lon="42.28711021"><ele>1675.667</ele><time>2026-09-13T12:38:26Z</time><speed>13.330</speed><sat>35</sat></trkpt>
  <trkpt lat="38.50993519" lon="42.28700475"><ele>1675.494</ele><time>2026-09-13T12:38:27Z</time><speed>13.390</speed><sat>35</sat></trkpt>
  <trkpt lat="38.50984196" lon="42.28689214"><ele>1675.471</ele><time>2026-09-13T12:38:28Z</time><speed>14.130</speed><sat>35</sat></trkpt>
  <trkpt lat="38.50973930" lon="42.28678126"><ele>1676.293</ele><time>2026-09-13T12:38:29Z</time><speed>15.570</speed><sat>35</sat></trkpt>
  <trkpt lat="38.50963723" lon="42.28666484"><ele>1675.362</ele><time>2026-09-13T12:38:30Z</time><speed>15.370</speed><sat>35</sat></trkpt>
  <trkpt lat="38.50953985" lon="42.28655024"><ele>1675.682</ele><time>2026-09-13T12:38:31Z</time><speed>15.720</speed><sat>35</sat></trkpt>
  <trkpt lat="38.50943315" lon="42.28643959"><ele>1675.558</ele><time>2026-09-13T12:38:32Z</time><speed>15.780</speed><sat>34</sat></trkpt>
  <trkpt lat="38.50932857" lon="42.28632191"><ele>1675.739</ele><time>2026-09-13T12:38:33Z</time><speed>15.440</speed><sat>35</sat></trkpt>
  <trkpt lat="38.50922040" lon="42.28620658"><ele>1676.227</ele><time>2026-09-13T12:38:34Z</time><speed>15.170</speed><sat>35</sat></trkpt>
  <trkpt lat="38.50911600" lon="42.28610003"><ele>1676.934</ele><time>2026-09-13T12:38:35Z</time><speed>14.460</speed><sat>35</sat></trkpt>
  <trkpt lat="38.50902758" lon="42.28599398"><ele>1677.184</ele><time>2026-09-13T12:38:36Z</time><speed>12.920</speed><sat>35</sat></trkpt>
  <trkpt lat="38.50894319" lon="42.28589081"><ele>1677.208</ele><time>2026-09-13T12:38:37Z</time><speed>12.160</speed><sat>35</sat></trkpt>
  <trkpt lat="38.50885465" lon="42.28579762"><ele>1677.443</ele><time>2026-09-13T12:38:38Z</time><speed>12.170</speed><sat>35</sat></trkpt>
  <trkpt lat="38.50878097" lon="42.28570960"><ele>1676.657</ele><time>2026-09-13T12:38:39Z</time><speed>11.440</speed><sat>35</sat></trkpt>
  <trkpt lat="38.50870977" lon="42.28563525"><ele>1676.578</ele><time>2026-09-13T12:38:40Z</time><speed>9.610</speed><sat>35</sat></trkpt>
  <trkpt lat="38.50864909" lon="42.28556437"><ele>1676.288</ele><time>2026-09-13T12:38:41Z</time><speed>9.160</speed><sat>34</sat></trkpt>
  <trkpt lat="38.50859163" lon="42.28550233"><ele>1676.162</ele><time>2026-09-13T12:38:42Z</time><speed>8.630</speed><sat>34</sat></trkpt>
  <trkpt lat="38.50852471" lon="42.28544644"><ele>1676.065</ele><time>2026-09-13T12:38:43Z</time><speed>8.800</speed><sat>34</sat></trkpt>
  <trkpt lat="38.50845591" lon="42.28539117"><ele>1675.692</ele><time>2026-09-13T12:38:44Z</time><speed>8.900</speed><sat>35</sat></trkpt>
  <trkpt lat="38.50839181" lon="42.28533467"><ele>1675.449</ele><time>2026-09-13T12:38:45Z</time><speed>8.640</speed><sat>35</sat></trkpt>
  <trkpt lat="38.50832507" lon="42.28528579"><ele>1675.302</ele><time>2026-09-13T12:38:46Z</time><speed>8.420</speed><sat>35</sat></trkpt>
  <trkpt lat="38.50825868" lon="42.28523605"><ele>1674.984</ele><time>2026-09-13T12:38:47Z</time><speed>8.700</speed><sat>35</sat></trkpt>
  <trkpt lat="38.50819290" lon="42.28516491"><ele>1674.743</ele><time>2026-09-13T12:38:48Z</time><speed>9.460</speed><sat>35</sat></trkpt>
  <trkpt lat="38.50812120" lon="42.28509088"><ele>1674.482</ele><time>2026-09-13T12:38:49Z</time><speed>10.090</speed><sat>35</sat></trkpt>
  <trkpt lat="38.50804993" lon="42.28501751"><ele>1674.481</ele><time>2026-09-13T12:38:50Z</time><speed>10.220</speed><sat>34</sat></trkpt>
  <trkpt lat="38.50798667" lon="42.28494077"><ele>1675.411</ele><time>2026-09-13T12:38:51Z</time><speed>9.710</speed><sat>34</sat></trkpt>
  <trkpt lat="38.50791750" lon="42.28487323"><ele>1675.224</ele><time>2026-09-13T12:38:52Z</time><speed>9.590</speed><sat>34</sat></trkpt>
  <trkpt lat="38.50784775" lon="42.28481517"><ele>1674.970</ele><time>2026-09-13T12:38:53Z</time><speed>9.400</speed><sat>33</sat></trkpt>
  <trkpt lat="38.50777620" lon="42.28476003"><ele>1675.245</ele><time>2026-09-13T12:38:54Z</time><speed>9.540</speed><sat>33</sat></trkpt>
  <trkpt lat="38.50770192" lon="42.28469887"><ele>1675.210</ele><time>2026-09-13T12:38:55Z</time><speed>9.800</speed><sat>34</sat></trkpt>
  <trkpt lat="38.50762906" lon="42.28465721"><ele>1676.072</ele><time>2026-09-13T12:38:56Z</time><speed>9.090</speed><sat>35</sat></trkpt>
  <trkpt lat="38.50755932" lon="42.28460626"><ele>1676.375</ele><time>2026-09-13T12:38:57Z</time><speed>8.900</speed><sat>35</sat></trkpt>
  <trkpt lat="38.50748864" lon="42.28455575"><ele>1676.281</ele><time>2026-09-13T12:38:58Z</time><speed>9.050</speed><sat>35</sat></trkpt>
  <trkpt lat="38.50741843" lon="42.28450406"><ele>1676.646</ele><time>2026-09-13T12:38:59Z</time><speed>9.070</speed><sat>35</sat></trkpt>
  <trkpt lat="38.50734832" lon="42.28445570"><ele>1676.854</ele><time>2026-09-13T12:39:00Z</time><speed>8.780</speed><sat>35</sat></trkpt>
  <trkpt lat="38.50727758" lon="42.28440708"><ele>1677.268</ele><time>2026-09-13T12:39:01Z</time><speed>9.000</speed><sat>34</sat></trkpt>
  <trkpt lat="38.50720902" lon="42.28435907"><ele>1676.651</ele><time>2026-09-13T12:39:02Z</time><speed>8.760</speed><sat>35</sat></trkpt>
  <trkpt lat="38.50714504" lon="42.28431123"><ele>1677.915</ele><time>2026-09-13T12:39:03Z</time><speed>8.070</speed><sat>35</sat></trkpt>
  <trkpt lat="38.50708235" lon="42.28427169"><ele>1678.037</ele><time>2026-09-13T12:39:04Z</time><speed>7.940</speed><sat>34</sat></trkpt>
  <trkpt lat="38.50702814" lon="42.28423853"><ele>1677.115</ele><time>2026-09-13T12:39:05Z</time><speed>6.560</speed><sat>33</sat></trkpt>
  <trkpt lat="38.50699289" lon="42.28421638"><ele>1678.284</ele><time>2026-09-13T12:39:06Z</time><speed>3.760</speed><sat>33</sat></trkpt>
  <trkpt lat="38.50695240" lon="42.28418873"><ele>1677.725</ele><time>2026-09-13T12:39:07Z</time><speed>4.340</speed><sat>33</sat></trkpt>
  <trkpt lat="38.50690273" lon="42.28416020"><ele>1678.427</ele><time>2026-09-13T12:39:08Z</time><speed>6.050</speed><sat>33</sat></trkpt>
  <trkpt lat="38.50684863" lon="42.28412541"><ele>1679.027</ele><time>2026-09-13T12:39:09Z</time><speed>6.920</speed><sat>33</sat></trkpt>
  <trkpt lat="38.50678645" lon="42.28409302"><ele>1679.313</ele><time>2026-09-13T12:39:10Z</time><speed>7.700</speed><sat>33</sat></trkpt>
  <trkpt lat="38.50672195" lon="42.28405957"><ele>1679.583</ele><time>2026-09-13T12:39:11Z</time><speed>7.480</speed><sat>34</sat></trkpt>
  <trkpt lat="38.50666117" lon="42.28401979"><ele>1679.650</ele><time>2026-09-13T12:39:12Z</time><speed>7.660</speed><sat>32</sat></trkpt>
  <trkpt lat="38.50661229" lon="42.28397120"><ele>1679.757</ele><time>2026-09-13T12:39:13Z</time><speed>7.020</speed><sat>33</sat></trkpt>
  <trkpt lat="38.50656857" lon="42.28389874"><ele>1680.299</ele><time>2026-09-13T12:39:14Z</time><speed>7.750</speed><sat>33</sat></trkpt>
  <trkpt lat="38.50651263" lon="42.28385399"><ele>1678.391</ele><time>2026-09-13T12:39:15Z</time><speed>7.430</speed><sat>31</sat></trkpt>
  <trkpt lat="38.50645524" lon="42.28381415"><ele>1678.175</ele><time>2026-09-13T12:39:16Z</time><speed>6.930</speed><sat>30</sat></trkpt>
  <trkpt lat="38.50638865" lon="42.28377229"><ele>1677.834</ele><time>2026-09-13T12:39:17Z</time><speed>7.940</speed><sat>29</sat></trkpt>
  <trkpt lat="38.50631792" lon="42.28373802"><ele>1678.952</ele><time>2026-09-13T12:39:18Z</time><speed>8.380</speed><sat>27</sat></trkpt>
  <trkpt lat="38.50624685" lon="42.28368974"><ele>1679.262</ele><time>2026-09-13T12:39:19Z</time><speed>8.370</speed><sat>26</sat></trkpt>
  <trkpt lat="38.50617374" lon="42.28365028"><ele>1679.745</ele><time>2026-09-13T12:39:20Z</time><speed>8.460</speed><sat>24</sat></trkpt>
  <trkpt lat="38.50610021" lon="42.28361188"><ele>1680.537</ele><time>2026-09-13T12:39:21Z</time><speed>8.170</speed><sat>25</sat></trkpt>
  <trkpt lat="38.50603120" lon="42.28357207"><ele>1680.739</ele><time>2026-09-13T12:39:22Z</time><speed>7.780</speed><sat>25</sat></trkpt>
  <trkpt lat="38.50596231" lon="42.28352807"><ele>1682.682</ele><time>2026-09-13T12:39:23Z</time><speed>8.450</speed><sat>26</sat></trkpt>
  <trkpt lat="38.50590426" lon="42.28349199"><ele>1681.992</ele><time>2026-09-13T12:39:24Z</time><speed>8.290</speed><sat>27</sat></trkpt>
  <trkpt lat="38.50582728" lon="42.28346512"><ele>1682.135</ele><time>2026-09-13T12:39:25Z</time><speed>8.790</speed><sat>28</sat></trkpt>
  <trkpt lat="38.50575494" lon="42.28343172"><ele>1683.137</ele><time>2026-09-13T12:39:26Z</time><speed>8.670</speed><sat>29</sat></trkpt>
  <trkpt lat="38.50567614" lon="42.28338308"><ele>1682.979</ele><time>2026-09-13T12:39:27Z</time><speed>9.350</speed><sat>31</sat></trkpt>
  <trkpt lat="38.50561143" lon="42.28334762"><ele>1683.058</ele><time>2026-09-13T12:39:28Z</time><speed>7.980</speed><sat>31</sat></trkpt>
  <trkpt lat="38.50556895" lon="42.28331691"><ele>1682.932</ele><time>2026-09-13T12:39:29Z</time><speed>6.720</speed><sat>30</sat></trkpt>
  <trkpt lat="38.50551700" lon="42.28328869"><ele>1681.065</ele><time>2026-09-13T12:39:30Z</time><speed>6.260</speed><sat>31</sat></trkpt>
  <trkpt lat="38.50548911" lon="42.28327903"><ele>1681.238</ele><time>2026-09-13T12:39:31Z</time><speed>5.160</speed><sat>32</sat></trkpt>
  <trkpt lat="38.50544977" lon="42.28324942"><ele>1682.016</ele><time>2026-09-13T12:39:32Z</time><speed>4.950</speed><sat>32</sat></trkpt>
  <trkpt lat="38.50541433" lon="42.28323872"><ele>1680.977</ele><time>2026-09-13T12:39:33Z</time><speed>4.520</speed><sat>30</sat></trkpt>
  <trkpt lat="38.50537336" lon="42.28322643"><ele>1681.212</ele><time>2026-09-13T12:39:34Z</time><speed>4.120</speed><sat>28</sat></trkpt>
  <trkpt lat="38.50532650" lon="42.28320419"><ele>1681.251</ele><time>2026-09-13T12:39:35Z</time><speed>4.740</speed><sat>28</sat></trkpt>
  <trkpt lat="38.50528915" lon="42.28317040"><ele>1681.600</ele><time>2026-09-13T12:39:36Z</time><speed>4.490</speed><sat>27</sat></trkpt>
  <trkpt lat="38.50524266" lon="42.28316074"><ele>1681.548</ele><time>2026-09-13T12:39:37Z</time><speed>4.840</speed><sat>26</sat></trkpt>
  <trkpt lat="38.50520874" lon="42.28312890"><ele>1681.562</ele><time>2026-09-13T12:39:38Z</time><speed>4.440</speed><sat>26</sat></trkpt>
  <trkpt lat="38.50517266" lon="42.28311162"><ele>1682.170</ele><time>2026-09-13T12:39:39Z</time><speed>4.220</speed><sat>22</sat></trkpt>
  <trkpt lat="38.50513833" lon="42.28309263"><ele>1681.458</ele><time>2026-09-13T12:39:40Z</time><speed>3.900</speed><sat>21</sat></trkpt>
  <trkpt lat="38.50510950" lon="42.28308643"><ele>1681.501</ele><time>2026-09-13T12:39:41Z</time><speed>3.430</speed><sat>21</sat></trkpt>
  <trkpt lat="38.50508654" lon="42.28307681"><ele>1682.248</ele><time>2026-09-13T12:39:42Z</time><speed>2.510</speed><sat>20</sat></trkpt>
  <trkpt lat="38.50507138" lon="42.28306638"><ele>1681.715</ele><time>2026-09-13T12:39:43Z</time><speed>1.690</speed><sat>19</sat></trkpt>
  <trkpt lat="38.50506271" lon="42.28306029"><ele>1681.611</ele><time>2026-09-13T12:39:44Z</time><speed>1.030</speed><sat>18</sat></trkpt>
  <trkpt lat="38.50505820" lon="42.28305692"><ele>1682.249</ele><time>2026-09-13T12:39:45Z</time><speed>0.530</speed><sat>17</sat></trkpt>
  <trkpt lat="38.50505771" lon="42.28305005"><ele>1682.526</ele><time>2026-09-13T12:39:46Z</time><speed>1.000</speed><sat>17</sat></trkpt>
  <trkpt lat="38.50506869" lon="42.28303856"><ele>1682.981</ele><time>2026-09-13T12:39:47Z</time><speed>1.670</speed><sat>17</sat></trkpt>
  <trkpt lat="38.50508030" lon="42.28303175"><ele>1683.030</ele><time>2026-09-13T12:39:48Z</time><speed>0.540</speed><sat>17</sat></trkpt>
  <trkpt lat="38.50508560" lon="42.28302912"><ele>1681.529</ele><time>2026-09-13T12:39:49Z</time><speed>0.240</speed><sat>17</sat></trkpt>
  <trkpt lat="38.50508848" lon="42.28302759"><ele>1683.171</ele><time>2026-09-13T12:39:50Z</time><speed>0.000</speed><sat>17</sat></trkpt>
  <trkpt lat="38.50509582" lon="42.28302707"><ele>1682.699</ele><time>2026-09-13T12:39:51Z</time><speed>0.000</speed><sat>17</sat></trkpt>
  <trkpt lat="38.50509579" lon="42.28302950"><ele>1682.496</ele><time>2026-09-13T12:39:52Z</time><speed>0.000</speed><sat>17</sat></trkpt>
  <trkpt lat="38.50509310" lon="42.28303112"><ele>1682.206</ele><time>2026-09-13T12:39:53Z</time><speed>0.000</speed><sat>17</sat></trkpt>
  <trkpt lat="38.50509047" lon="42.28303251"><ele>1682.350</ele><time>2026-09-13T12:39:54Z</time><speed>0.000</speed><sat>18</sat></trkpt>
  <trkpt lat="38.50508791" lon="42.28303143"><ele>1681.913</ele><time>2026-09-13T12:39:55Z</time><speed>0.000</speed><sat>18</sat></trkpt>
  <trkpt lat="38.50508621" lon="42.28303177"><ele>1681.780</ele><time>2026-09-13T12:39:56Z</time><speed>0.000</speed><sat>18</sat></trkpt>
  <trkpt lat="38.50508428" lon="42.28303525"><ele>1682.013</ele><time>2026-09-13T12:39:57Z</time><speed>0.000</speed><sat>19</sat></trkpt>
  <trkpt lat="38.50508351" lon="42.28303592"><ele>1681.779</ele><time>2026-09-13T12:39:58Z</time><speed>0.000</speed><sat>20</sat></trkpt>
  <trkpt lat="38.50508276" lon="42.28303509"><ele>1681.293</ele><time>2026-09-13T12:39:59Z</time><speed>0.000</speed><sat>20</sat></trkpt>
  <trkpt lat="38.50508221" lon="42.28303442"><ele>1681.167</ele><time>2026-09-13T12:40:00Z</time><speed>0.000</speed><sat>19</sat></trkpt>
  <trkpt lat="38.50508074" lon="42.28303533"><ele>1681.338</ele><time>2026-09-13T12:40:01Z</time><speed>0.000</speed><sat>21</sat></trkpt>
  <trkpt lat="38.50507917" lon="42.28303841"><ele>1681.772</ele><time>2026-09-13T12:40:02Z</time><speed>0.000</speed><sat>22</sat></trkpt>
  <trkpt lat="38.50507825" lon="42.28303867"><ele>1681.566</ele><time>2026-09-13T12:40:03Z</time><speed>0.000</speed><sat>22</sat></trkpt>
  <trkpt lat="38.50507771" lon="42.28303799"><ele>1681.451</ele><time>2026-09-13T12:40:04Z</time><speed>0.000</speed><sat>22</sat></trkpt>
  <trkpt lat="38.50507691" lon="42.28303759"><ele>1681.517</ele><time>2026-09-13T12:40:05Z</time><speed>0.000</speed><sat>22</sat></trkpt>
  <trkpt lat="38.50507622" lon="42.28303800"><ele>1681.681</ele><time>2026-09-13T12:40:06Z</time><speed>0.000</speed><sat>23</sat></trkpt>
  <trkpt lat="38.50507601" lon="42.28303760"><ele>1681.610</ele><time>2026-09-13T12:40:07Z</time><speed>0.000</speed><sat>23</sat></trkpt>
  <trkpt lat="38.50507580" lon="42.28303792"><ele>1681.668</ele><time>2026-09-13T12:40:08Z</time><speed>0.000</speed><sat>23</sat></trkpt>
  <trkpt lat="38.50507530" lon="42.28303889"><ele>1681.786</ele><time>2026-09-13T12:40:09Z</time><speed>0.000</speed><sat>23</sat></trkpt>
  <trkpt lat="38.50507563" lon="42.28303697"><ele>1681.853</ele><time>2026-09-13T12:40:10Z</time><speed>0.000</speed><sat>26</sat></trkpt>
  <trkpt lat="38.50505506" lon="42.28304551"><ele>1682.114</ele><time>2026-09-13T12:40:11Z</time><speed>2.070</speed><sat>27</sat></trkpt>
  <trkpt lat="38.50502768" lon="42.28305260"><ele>1682.487</ele><time>2026-09-13T12:40:12Z</time><speed>2.300</speed><sat>27</sat></trkpt>
  <trkpt lat="38.50501108" lon="42.28305981"><ele>1680.958</ele><time>2026-09-13T12:40:13Z</time><speed>1.420</speed><sat>26</sat></trkpt>
  <trkpt lat="38.50499852" lon="42.28307745"><ele>1678.703</ele><time>2026-09-13T12:40:14Z</time><speed>1.680</speed><sat>27</sat></trkpt>
  <trkpt lat="38.50497706" lon="42.28312005"><ele>1680.519</ele><time>2026-09-13T12:40:15Z</time><speed>3.960</speed><sat>27</sat></trkpt>
  <trkpt lat="38.50495374" lon="42.28317168"><ele>1681.644</ele><time>2026-09-13T12:40:16Z</time><speed>3.550</speed><sat>28</sat></trkpt>
  <trkpt lat="38.50493427" lon="42.28322016"><ele>1682.119</ele><time>2026-09-13T12:40:17Z</time><speed>3.310</speed><sat>26</sat></trkpt>
  <trkpt lat="38.50491748" lon="42.28326587"><ele>1681.658</ele><time>2026-09-13T12:40:18Z</time><speed>3.180</speed><sat>26</sat></trkpt>
  <trkpt lat="38.50489904" lon="42.28330753"><ele>1681.741</ele><time>2026-09-13T12:40:19Z</time><speed>3.000</speed><sat>27</sat></trkpt>
  <trkpt lat="38.50488151" lon="42.28334098"><ele>1680.934</ele><time>2026-09-13T12:40:20Z</time><speed>2.450</speed><sat>28</sat></trkpt>
  <trkpt lat="38.50487096" lon="42.28336016"><ele>1681.264</ele><time>2026-09-13T12:40:21Z</time><speed>0.700</speed><sat>26</sat></trkpt>
  <trkpt lat="38.50486488" lon="42.28337450"><ele>1681.558</ele><time>2026-09-13T12:40:22Z</time><speed>1.390</speed><sat>27</sat></trkpt>
  <trkpt lat="38.50485684" lon="42.28339345"><ele>1682.093</ele><time>2026-09-13T12:40:23Z</time><speed>1.600</speed><sat>27</sat></trkpt>
  <trkpt lat="38.50484817" lon="42.28341233"><ele>1681.640</ele><time>2026-09-13T12:40:24Z</time><speed>1.530</speed><sat>28</sat></trkpt>
  <trkpt lat="38.50484018" lon="42.28342748"><ele>1681.111</ele><time>2026-09-13T12:40:25Z</time><speed>1.080</speed><sat>27</sat></trkpt>
  <trkpt lat="38.50482695" lon="42.28344272"><ele>1681.205</ele><time>2026-09-13T12:40:26Z</time><speed>2.240</speed><sat>27</sat></trkpt>
  <trkpt lat="38.50480543" lon="42.28345803"><ele>1680.946</ele><time>2026-09-13T12:40:27Z</time><speed>2.550</speed><sat>28</sat></trkpt>
  <trkpt lat="38.50477550" lon="42.28346938"><ele>1680.439</ele><time>2026-09-13T12:40:28Z</time><speed>3.550</speed><sat>28</sat></trkpt>
  <trkpt lat="38.50473752" lon="42.28347870"><ele>1680.701</ele><time>2026-09-13T12:40:29Z</time><speed>3.970</speed><sat>27</sat></trkpt>
  <trkpt lat="38.50469473" lon="42.28347915"><ele>1682.187</ele><time>2026-09-13T12:40:30Z</time><speed>4.540</speed><sat>26</sat></trkpt>
  <trkpt lat="38.50465029" lon="42.28347401"><ele>1681.979</ele><time>2026-09-13T12:40:31Z</time><speed>4.450</speed><sat>26</sat></trkpt>
  <trkpt lat="38.50460947" lon="42.28346723"><ele>1681.307</ele><time>2026-09-13T12:40:32Z</time><speed>4.030</speed><sat>27</sat></trkpt>
  <trkpt lat="38.50455781" lon="42.28344752"><ele>1680.867</ele><time>2026-09-13T12:40:33Z</time><speed>5.090</speed><sat>25</sat></trkpt>
  <trkpt lat="38.50451771" lon="42.28344091"><ele>1680.821</ele><time>2026-09-13T12:40:34Z</time><speed>4.570</speed><sat>25</sat></trkpt>
  <trkpt lat="38.50447617" lon="42.28343747"><ele>1681.509</ele><time>2026-09-13T12:40:35Z</time><speed>4.160</speed><sat>26</sat></trkpt>
  <trkpt lat="38.50444590" lon="42.28343176"><ele>1681.718</ele><time>2026-09-13T12:40:36Z</time><speed>3.080</speed><sat>26</sat></trkpt>
  <trkpt lat="38.50442227" lon="42.28342380"><ele>1681.596</ele><time>2026-09-13T12:40:37Z</time><speed>2.500</speed><sat>27</sat></trkpt>
  <trkpt lat="38.50440305" lon="42.28341748"><ele>1682.159</ele><time>2026-09-13T12:40:38Z</time><speed>2.070</speed><sat>28</sat></trkpt>
  <trkpt lat="38.50438892" lon="42.28340974"><ele>1680.809</ele><time>2026-09-13T12:40:39Z</time><speed>1.960</speed><sat>29</sat></trkpt>
  <trkpt lat="38.50437484" lon="42.28340275"><ele>1681.248</ele><time>2026-09-13T12:40:40Z</time><speed>1.650</speed><sat>28</sat></trkpt>
  <trkpt lat="38.50435977" lon="42.28339673"><ele>1681.044</ele><time>2026-09-13T12:40:41Z</time><speed>1.670</speed><sat>28</sat></trkpt>
  <trkpt lat="38.50435221" lon="42.28339098"><ele>1681.272</ele><time>2026-09-13T12:40:42Z</time><speed>0.840</speed><sat>28</sat></trkpt>
  <trkpt lat="38.50434892" lon="42.28338975"><ele>1681.585</ele><time>2026-09-13T12:40:43Z</time><speed>0.310</speed><sat>29</sat></trkpt>
  <trkpt lat="38.50434754" lon="42.28339022"><ele>1681.533</ele><time>2026-09-13T12:40:44Z</time><speed>0.000</speed><sat>29</sat></trkpt>
  <trkpt lat="38.50434701" lon="42.28338996"><ele>1681.315</ele><time>2026-09-13T12:40:45Z</time><speed>0.000</speed><sat>28</sat></trkpt>
  <trkpt lat="38.50434632" lon="42.28338880"><ele>1681.286</ele><time>2026-09-13T12:40:46Z</time><speed>0.000</speed><sat>29</sat></trkpt>
  <trkpt lat="38.50434643" lon="42.28338760"><ele>1681.176</ele><time>2026-09-13T12:40:47Z</time><speed>0.000</speed><sat>29</sat></trkpt>
  <trkpt lat="38.50434645" lon="42.28338773"><ele>1680.988</ele><time>2026-09-13T12:40:48Z</time><speed>0.000</speed><sat>28</sat></trkpt>
  <trkpt lat="38.50434647" lon="42.28338874"><ele>1681.009</ele><time>2026-09-13T12:40:49Z</time><speed>0.000</speed><sat>26</sat></trkpt>
  <trkpt lat="38.50434680" lon="42.28339021"><ele>1681.027</ele><time>2026-09-13T12:40:50Z</time><speed>0.000</speed><sat>26</sat></trkpt>
  <trkpt lat="38.50434760" lon="42.28339239"><ele>1680.738</ele><time>2026-09-13T12:40:51Z</time><speed>0.000</speed><sat>26</sat></trkpt>
  <trkpt lat="38.50434811" lon="42.28339369"><ele>1680.622</ele><time>2026-09-13T12:40:52Z</time><speed>0.000</speed><sat>25</sat></trkpt>
  <trkpt lat="38.50434829" lon="42.28339518"><ele>1680.409</ele><time>2026-09-13T12:40:53Z</time><speed>0.000</speed><sat>25</sat></trkpt>
  <trkpt lat="38.50434846" lon="42.28339581"><ele>1680.417</ele><time>2026-09-13T12:40:54Z</time><speed>0.000</speed><sat>27</sat></trkpt>
  <trkpt lat="38.50434843" lon="42.28339618"><ele>1680.451</ele><time>2026-09-13T12:40:55Z</time><speed>0.000</speed><sat>27</sat></trkpt>
  <trkpt lat="38.50434834" lon="42.28339645"><ele>1680.440</ele><time>2026-09-13T12:40:56Z</time><speed>0.000</speed><sat>28</sat></trkpt>
  <trkpt lat="38.50428404" lon="42.28342406"><ele>1680.360</ele><time>2026-09-13T12:40:57Z</time><speed>5.120</speed><sat>28</sat></trkpt>
  <trkpt lat="38.50423902" lon="42.28342457"><ele>1679.572</ele><time>2026-09-13T12:40:58Z</time><speed>4.220</speed><sat>28</sat></trkpt>
  <trkpt lat="38.50419530" lon="42.28343312"><ele>1679.942</ele><time>2026-09-13T12:40:59Z</time><speed>4.510</speed><sat>28</sat></trkpt>
  <trkpt lat="38.50414800" lon="42.28344004"><ele>1677.799</ele><time>2026-09-13T12:41:00Z</time><speed>4.310</speed><sat>27</sat></trkpt>
  <trkpt lat="38.50411222" lon="42.28343022"><ele>1676.131</ele><time>2026-09-13T12:41:01Z</time><speed>3.810</speed><sat>27</sat></trkpt>
  <trkpt lat="38.50405532" lon="42.28342501"><ele>1677.409</ele><time>2026-09-13T12:41:02Z</time><speed>5.570</speed><sat>27</sat></trkpt>
  <trkpt lat="38.50401324" lon="42.28340113"><ele>1677.844</ele><time>2026-09-13T12:41:03Z</time><speed>4.120</speed><sat>27</sat></trkpt>
  <trkpt lat="38.50397957" lon="42.28337449"><ele>1677.653</ele><time>2026-09-13T12:41:04Z</time><speed>3.490</speed><sat>28</sat></trkpt>
  <trkpt lat="38.50394057" lon="42.28338676"><ele>1678.649</ele><time>2026-09-13T12:41:05Z</time><speed>4.170</speed><sat>27</sat></trkpt>
  <trkpt lat="38.50389047" lon="42.28338891"><ele>1677.471</ele><time>2026-09-13T12:41:06Z</time><speed>4.540</speed><sat>26</sat></trkpt>
  <trkpt lat="38.50386356" lon="42.28340002"><ele>1677.807</ele><time>2026-09-13T12:41:07Z</time><speed>2.220</speed><sat>24</sat></trkpt>
  <trkpt lat="38.50383110" lon="42.28341769"><ele>1677.861</ele><time>2026-09-13T12:41:08Z</time><speed>3.420</speed><sat>26</sat></trkpt>
  <trkpt lat="38.50381319" lon="42.28341772"><ele>1678.596</ele><time>2026-09-13T12:41:09Z</time><speed>2.700</speed><sat>26</sat></trkpt>
  <trkpt lat="38.50380160" lon="42.28342228"><ele>1677.955</ele><time>2026-09-13T12:41:10Z</time><speed>1.140</speed><sat>23</sat></trkpt>
  <trkpt lat="38.50376733" lon="42.28342379"><ele>1677.609</ele><time>2026-09-13T12:41:11Z</time><speed>2.330</speed><sat>22</sat></trkpt>
  <trkpt lat="38.50373648" lon="42.28341159"><ele>1677.574</ele><time>2026-09-13T12:41:12Z</time><speed>2.360</speed><sat>21</sat></trkpt>
  <trkpt lat="38.50372143" lon="42.28340602"><ele>1678.759</ele><time>2026-09-13T12:41:13Z</time><speed>1.430</speed><sat>21</sat></trkpt>
  <trkpt lat="38.50369503" lon="42.28338558"><ele>1680.182</ele><time>2026-09-13T12:41:14Z</time><speed>3.060</speed><sat>21</sat></trkpt>
  <trkpt lat="38.50366041" lon="42.28336582"><ele>1680.009</ele><time>2026-09-13T12:41:15Z</time><speed>3.490</speed><sat>22</sat></trkpt>
  <trkpt lat="38.50363093" lon="42.28335029"><ele>1680.186</ele><time>2026-09-13T12:41:16Z</time><speed>2.740</speed><sat>25</sat></trkpt>
  <trkpt lat="38.50360116" lon="42.28332992"><ele>1680.715</ele><time>2026-09-13T12:41:17Z</time><speed>3.280</speed><sat>25</sat></trkpt>
  <trkpt lat="38.50357954" lon="42.28330706"><ele>1678.452</ele><time>2026-09-13T12:41:18Z</time><speed>1.570</speed><sat>26</sat></trkpt>
  <trkpt lat="38.50356324" lon="42.28327742"><ele>1679.141</ele><time>2026-09-13T12:41:19Z</time><speed>2.710</speed><sat>26</sat></trkpt>
  <trkpt lat="38.50354580" lon="42.28323622"><ele>1680.259</ele><time>2026-09-13T12:41:20Z</time><speed>3.400</speed><sat>26</sat></trkpt>
  <trkpt lat="38.50352889" lon="42.28319488"><ele>1679.870</ele><time>2026-09-13T12:41:21Z</time><speed>3.160</speed><sat>27</sat></trkpt>
  <trkpt lat="38.50350573" lon="42.28315761"><ele>1681.438</ele><time>2026-09-13T12:41:22Z</time><speed>3.640</speed><sat>25</sat></trkpt>
  <trkpt lat="38.50347974" lon="42.28312340"><ele>1683.663</ele><time>2026-09-13T12:41:23Z</time><speed>3.020</speed><sat>26</sat></trkpt>
  <trkpt lat="38.50345475" lon="42.28309683"><ele>1683.592</ele><time>2026-09-13T12:41:24Z</time><speed>3.090</speed><sat>26</sat></trkpt>
  <trkpt lat="38.50342390" lon="42.28306842"><ele>1684.506</ele><time>2026-09-13T12:41:25Z</time><speed>4.260</speed><sat>26</sat></trkpt>
  <trkpt lat="38.50338663" lon="42.28303491"><ele>1686.044</ele><time>2026-09-13T12:41:26Z</time><speed>4.580</speed><sat>26</sat></trkpt>
  <trkpt lat="38.50334777" lon="42.28300328"><ele>1684.704</ele><time>2026-09-13T12:41:27Z</time><speed>4.400</speed><sat>26</sat></trkpt>
  <trkpt lat="38.50331541" lon="42.28297733"><ele>1684.899</ele><time>2026-09-13T12:41:28Z</time><speed>3.510</speed><sat>26</sat></trkpt>
  <trkpt lat="38.50328426" lon="42.28295956"><ele>1684.783</ele><time>2026-09-13T12:41:29Z</time><speed>3.590</speed><sat>27</sat></trkpt>
  <trkpt lat="38.50325477" lon="42.28294500"><ele>1683.821</ele><time>2026-09-13T12:41:30Z</time><speed>3.400</speed><sat>27</sat></trkpt>
  <trkpt lat="38.50322970" lon="42.28293447"><ele>1683.261</ele><time>2026-09-13T12:41:31Z</time><speed>2.580</speed><sat>28</sat></trkpt>
  <trkpt lat="38.50321672" lon="42.28292042"><ele>1684.030</ele><time>2026-09-13T12:41:32Z</time><speed>2.210</speed><sat>31</sat></trkpt>
  <trkpt lat="38.50321240" lon="42.28290154"><ele>1683.429</ele><time>2026-09-13T12:41:33Z</time><speed>1.740</speed><sat>30</sat></trkpt>
  <trkpt lat="38.50321614" lon="42.28287111"><ele>1682.209</ele><time>2026-09-13T12:41:34Z</time><speed>2.890</speed><sat>30</sat></trkpt>
  <trkpt lat="38.50323125" lon="42.28282957"><ele>1683.614</ele><time>2026-09-13T12:41:35Z</time><speed>3.740</speed><sat>32</sat></trkpt>
  <trkpt lat="38.50325243" lon="42.28277851"><ele>1683.626</ele><time>2026-09-13T12:41:36Z</time><speed>4.370</speed><sat>33</sat></trkpt>
  <trkpt lat="38.50327551" lon="42.28272932"><ele>1684.262</ele><time>2026-09-13T12:41:37Z</time><speed>3.810</speed><sat>33</sat></trkpt>
  <trkpt lat="38.50329850" lon="42.28268573"><ele>1685.122</ele><time>2026-09-13T12:41:38Z</time><speed>3.520</speed><sat>33</sat></trkpt>
  <trkpt lat="38.50331848" lon="42.28264950"><ele>1686.078</ele><time>2026-09-13T12:41:39Z</time><speed>2.830</speed><sat>30</sat></trkpt>
  <trkpt lat="38.50333485" lon="42.28261582"><ele>1686.984</ele><time>2026-09-13T12:41:40Z</time><speed>3.030</speed><sat>27</sat></trkpt>
  <trkpt lat="38.50334984" lon="42.28258434"><ele>1687.253</ele><time>2026-09-13T12:41:41Z</time><speed>2.550</speed><sat>26</sat></trkpt>
  <trkpt lat="38.50336079" lon="42.28255633"><ele>1687.483</ele><time>2026-09-13T12:41:42Z</time><speed>2.320</speed><sat>26</sat></trkpt>
  <trkpt lat="38.50336960" lon="42.28253031"><ele>1687.284</ele><time>2026-09-13T12:41:43Z</time><speed>2.100</speed><sat>26</sat></trkpt>
  <trkpt lat="38.50337501" lon="42.28251552"><ele>1686.354</ele><time>2026-09-13T12:41:44Z</time><speed>0.750</speed><sat>26</sat></trkpt>
  <trkpt lat="38.50337797" lon="42.28250599"><ele>1686.137</ele><time>2026-09-13T12:41:45Z</time><speed>0.840</speed><sat>26</sat></trkpt>
  <trkpt lat="38.50337795" lon="42.28249585"><ele>1686.575</ele><time>2026-09-13T12:41:46Z</time><speed>0.740</speed><sat>26</sat></trkpt>
  <trkpt lat="38.50337227" lon="42.28248514"><ele>1686.249</ele><time>2026-09-13T12:41:47Z</time><speed>1.420</speed><sat>26</sat></trkpt>
  <trkpt lat="38.50336152" lon="42.28247453"><ele>1686.912</ele><time>2026-09-13T12:41:48Z</time><speed>1.440</speed><sat>28</sat></trkpt>
  <trkpt lat="38.50335199" lon="42.28246779"><ele>1686.406</ele><time>2026-09-13T12:41:49Z</time><speed>0.880</speed><sat>29</sat></trkpt>
  <trkpt lat="38.50334556" lon="42.28246363"><ele>1685.500</ele><time>2026-09-13T12:41:50Z</time><speed>0.660</speed><sat>30</sat></trkpt>
  <trkpt lat="38.50334085" lon="42.28245999"><ele>1685.885</ele><time>2026-09-13T12:41:51Z</time><speed>0.500</speed><sat>30</sat></trkpt>
  <trkpt lat="38.50333720" lon="42.28245777"><ele>1686.041</ele><time>2026-09-13T12:41:52Z</time><speed>0.390</speed><sat>31</sat></trkpt>
  <trkpt lat="38.50333176" lon="42.28245478"><ele>1686.062</ele><time>2026-09-13T12:41:53Z</time><speed>0.610</speed><sat>31</sat></trkpt>
  <trkpt lat="38.50332746" lon="42.28245020"><ele>1685.938</ele><time>2026-09-13T12:41:54Z</time><speed>0.000</speed><sat>31</sat></trkpt>
  <trkpt lat="38.50332709" lon="42.28244831"><ele>1685.871</ele><time>2026-09-13T12:41:55Z</time><speed>0.000</speed><sat>32</sat></trkpt>
  <trkpt lat="38.50332704" lon="42.28244731"><ele>1685.784</ele><time>2026-09-13T12:41:56Z</time><speed>0.000</speed><sat>31</sat></trkpt>
  <trkpt lat="38.50332951" lon="42.28244804"><ele>1685.515</ele><time>2026-09-13T12:41:57Z</time><speed>0.000</speed><sat>31</sat></trkpt>
  <trkpt lat="38.50333096" lon="42.28244866"><ele>1685.042</ele><time>2026-09-13T12:41:58Z</time><speed>0.000</speed><sat>30</sat></trkpt>
  <trkpt lat="38.50333139" lon="42.28244799"><ele>1684.700</ele><time>2026-09-13T12:41:59Z</time><speed>0.000</speed><sat>30</sat></trkpt>
  <trkpt lat="38.50333128" lon="42.28244732"><ele>1684.765</ele><time>2026-09-13T12:42:00Z</time><speed>0.000</speed><sat>30</sat></trkpt>
  <trkpt lat="38.50333130" lon="42.28244679"><ele>1685.116</ele><time>2026-09-13T12:42:01Z</time><speed>0.000</speed><sat>29</sat></trkpt>
  <trkpt lat="38.50333074" lon="42.28244622"><ele>1685.289</ele><time>2026-09-13T12:42:02Z</time><speed>0.000</speed><sat>29</sat></trkpt>
  <trkpt lat="38.50332992" lon="42.28244556"><ele>1685.328</ele><time>2026-09-13T12:42:03Z</time><speed>0.000</speed><sat>29</sat></trkpt>
  <trkpt lat="38.50332880" lon="42.28244498"><ele>1685.284</ele><time>2026-09-13T12:42:04Z</time><speed>0.000</speed><sat>29</sat></trkpt>
  <trkpt lat="38.50332802" lon="42.28244451"><ele>1685.357</ele><time>2026-09-13T12:42:05Z</time><speed>0.000</speed><sat>29</sat></trkpt>
  <trkpt lat="38.50332754" lon="42.28244424"><ele>1685.383</ele><time>2026-09-13T12:42:06Z</time><speed>0.000</speed><sat>29</sat></trkpt>
  <trkpt lat="38.50332730" lon="42.28244410"><ele>1685.396</ele><time>2026-09-13T12:42:07Z</time><speed>0.000</speed><sat>29</sat></trkpt>
  <trkpt lat="38.50332728" lon="42.28244412"><ele>1685.435</ele><time>2026-09-13T12:42:08Z</time><speed>0.000</speed><sat>28</sat></trkpt>
  <trkpt lat="38.50332708" lon="42.28244412"><ele>1685.480</ele><time>2026-09-13T12:42:09Z</time><speed>0.000</speed><sat>28</sat></trkpt>
  <trkpt lat="38.50332699" lon="42.28244416"><ele>1685.468</ele><time>2026-09-13T12:42:10Z</time><speed>0.000</speed><sat>29</sat></trkpt>
  <trkpt lat="38.50332706" lon="42.28244447"><ele>1685.472</ele><time>2026-09-13T12:42:11Z</time><speed>0.000</speed><sat>29</sat></trkpt>
  <trkpt lat="38.50332600" lon="42.28244488"><ele>1685.476</ele><time>2026-09-13T12:42:12Z</time><speed>0.000</speed><sat>28</sat></trkpt>
  <trkpt lat="38.50332411" lon="42.28244390"><ele>1685.543</ele><time>2026-09-13T12:42:13Z</time><speed>0.000</speed><sat>29</sat></trkpt>
  <trkpt lat="38.50332215" lon="42.28244338"><ele>1685.939</ele><time>2026-09-13T12:42:14Z</time><speed>0.000</speed><sat>29</sat></trkpt>
  <trkpt lat="38.50332292" lon="42.28244112"><ele>1686.144</ele><time>2026-09-13T12:42:15Z</time><speed>0.000</speed><sat>29</sat></trkpt>
  <trkpt lat="38.50332384" lon="42.28243585"><ele>1687.479</ele><time>2026-09-13T12:42:16Z</time><speed>0.640</speed><sat>29</sat></trkpt>
  <trkpt lat="38.50332426" lon="42.28243195"><ele>1687.500</ele><time>2026-09-13T12:42:17Z</time><speed>0.690</speed><sat>29</sat></trkpt>
  <trkpt lat="38.50332297" lon="42.28242911"><ele>1686.443</ele><time>2026-09-13T12:42:18Z</time><speed>0.430</speed><sat>29</sat></trkpt>
  <trkpt lat="38.50332417" lon="42.28242922"><ele>1686.767</ele><time>2026-09-13T12:42:19Z</time><speed>0.330</speed><sat>29</sat></trkpt>
  <trkpt lat="38.50332846" lon="42.28243205"><ele>1686.269</ele><time>2026-09-13T12:42:20Z</time><speed>0.300</speed><sat>29</sat></trkpt>
  <trkpt lat="38.50333878" lon="42.28244002"><ele>1686.220</ele><time>2026-09-13T12:42:21Z</time><speed>0.000</speed><sat>27</sat></trkpt>
  <trkpt lat="38.50334345" lon="42.28244136"><ele>1686.516</ele><time>2026-09-13T12:42:22Z</time><speed>0.000</speed><sat>27</sat></trkpt>
  <trkpt lat="38.50334573" lon="42.28244397"><ele>1686.871</ele><time>2026-09-13T12:42:23Z</time><speed>0.000</speed><sat>27</sat></trkpt>
  <trkpt lat="38.50334644" lon="42.28244400"><ele>1686.796</ele><time>2026-09-13T12:42:24Z</time><speed>0.000</speed><sat>27</sat></trkpt>
  <trkpt lat="38.50334650" lon="42.28244427"><ele>1687.125</ele><time>2026-09-13T12:42:25Z</time><speed>0.000</speed><sat>27</sat></trkpt>
  <trkpt lat="38.50334520" lon="42.28244547"><ele>1687.150</ele><time>2026-09-13T12:42:26Z</time><speed>0.000</speed><sat>27</sat></trkpt>
  <trkpt lat="38.50334424" lon="42.28244554"><ele>1687.493</ele><time>2026-09-13T12:42:27Z</time><speed>0.000</speed><sat>27</sat></trkpt>
  <trkpt lat="38.50334310" lon="42.28244516"><ele>1687.994</ele><time>2026-09-13T12:42:28Z</time><speed>0.000</speed><sat>27</sat></trkpt>
  <trkpt lat="38.50334220" lon="42.28244448"><ele>1688.117</ele><time>2026-09-13T12:42:29Z</time><speed>0.000</speed><sat>27</sat></trkpt>
  <trkpt lat="38.50334165" lon="42.28244446"><ele>1688.058</ele><time>2026-09-13T12:42:30Z</time><speed>0.000</speed><sat>27</sat></trkpt>
  <trkpt lat="38.50334609" lon="42.28244407"><ele>1686.657</ele><time>2026-09-13T12:42:31Z</time><speed>0.200</speed><sat>27</sat></trkpt>
  <trkpt lat="38.50334880" lon="42.28244702"><ele>1686.084</ele><time>2026-09-13T12:42:32Z</time><speed>0.000</speed><sat>27</sat></trkpt>
  <trkpt lat="38.50334887" lon="42.28245169"><ele>1686.635</ele><time>2026-09-13T12:42:33Z</time><speed>0.000</speed><sat>27</sat></trkpt>
  <trkpt lat="38.50334965" lon="42.28245111"><ele>1686.570</ele><time>2026-09-13T12:42:34Z</time><speed>0.000</speed><sat>28</sat></trkpt>
  <trkpt lat="38.50334899" lon="42.28245112"><ele>1686.715</ele><time>2026-09-13T12:42:35Z</time><speed>0.000</speed><sat>28</sat></trkpt>
  <trkpt lat="38.50334842" lon="42.28245086"><ele>1686.538</ele><time>2026-09-13T12:42:36Z</time><speed>0.000</speed><sat>28</sat></trkpt>
  <trkpt lat="38.50334795" lon="42.28244881"><ele>1686.848</ele><time>2026-09-13T12:42:37Z</time><speed>0.430</speed><sat>28</sat></trkpt>
  <trkpt lat="38.50334731" lon="42.28244675"><ele>1686.747</ele><time>2026-09-13T12:42:38Z</time><speed>0.260</speed><sat>28</sat></trkpt>
  <trkpt lat="38.50334408" lon="42.28244930"><ele>1686.969</ele><time>2026-09-13T12:42:39Z</time><speed>0.640</speed><sat>28</sat></trkpt>
  <trkpt lat="38.50333428" lon="42.28245764"><ele>1686.414</ele><time>2026-09-13T12:42:40Z</time><speed>1.280</speed><sat>28</sat></trkpt>
  <trkpt lat="38.50332562" lon="42.28246238"><ele>1686.181</ele><time>2026-09-13T12:42:41Z</time><speed>0.450</speed><sat>28</sat></trkpt>
  <trkpt lat="38.50332107" lon="42.28246148"><ele>1685.208</ele><time>2026-09-13T12:42:42Z</time><speed>0.180</speed><sat>28</sat></trkpt>
  <trkpt lat="38.50332155" lon="42.28245720"><ele>1686.226</ele><time>2026-09-13T12:42:43Z</time><speed>0.660</speed><sat>28</sat></trkpt>
  <trkpt lat="38.50332499" lon="42.28245324"><ele>1684.580</ele><time>2026-09-13T12:42:44Z</time><speed>0.580</speed><sat>28</sat></trkpt>
  <trkpt lat="38.50332950" lon="42.28245207"><ele>1686.103</ele><time>2026-09-13T12:42:45Z</time><speed>0.680</speed><sat>27</sat></trkpt>
  <trkpt lat="38.50332669" lon="42.28245822"><ele>1686.440</ele><time>2026-09-13T12:42:46Z</time><speed>0.000</speed><sat>28</sat></trkpt>
  <trkpt lat="38.50332517" lon="42.28245785"><ele>1687.184</ele><time>2026-09-13T12:42:47Z</time><speed>0.000</speed><sat>28</sat></trkpt>
  <trkpt lat="38.50332315" lon="42.28245845"><ele>1687.590</ele><time>2026-09-13T12:42:48Z</time><speed>0.000</speed><sat>28</sat></trkpt>
  <trkpt lat="38.50332090" lon="42.28245685"><ele>1687.265</ele><time>2026-09-13T12:42:49Z</time><speed>0.000</speed><sat>28</sat></trkpt>
  <trkpt lat="38.50332247" lon="42.28245694"><ele>1686.844</ele><time>2026-09-13T12:42:50Z</time><speed>0.000</speed><sat>29</sat></trkpt>
  <trkpt lat="38.50332400" lon="42.28245683"><ele>1686.623</ele><time>2026-09-13T12:42:51Z</time><speed>0.000</speed><sat>29</sat></trkpt>
  <trkpt lat="38.50332590" lon="42.28245628"><ele>1686.435</ele><time>2026-09-13T12:42:52Z</time><speed>0.000</speed><sat>29</sat></trkpt>
  <trkpt lat="38.50332629" lon="42.28245567"><ele>1686.131</ele><time>2026-09-13T12:42:53Z</time><speed>0.000</speed><sat>28</sat></trkpt>
  <trkpt lat="38.50332679" lon="42.28245486"><ele>1685.855</ele><time>2026-09-13T12:42:54Z</time><speed>0.000</speed><sat>28</sat></trkpt>
  <trkpt lat="38.50332638" lon="42.28245465"><ele>1686.164</ele><time>2026-09-13T12:42:55Z</time><speed>0.000</speed><sat>28</sat></trkpt>
  <trkpt lat="38.50332645" lon="42.28245391"><ele>1686.178</ele><time>2026-09-13T12:42:56Z</time><speed>0.000</speed><sat>28</sat></trkpt>
  <trkpt lat="38.50332665" lon="42.28245357"><ele>1686.071</ele><time>2026-09-13T12:42:57Z</time><speed>0.000</speed><sat>28</sat></trkpt>
  <trkpt lat="38.50332664" lon="42.28245319"><ele>1686.092</ele><time>2026-09-13T12:42:58Z</time><speed>0.000</speed><sat>30</sat></trkpt>
  <trkpt lat="38.50332810" lon="42.28244986"><ele>1685.104</ele><time>2026-09-13T12:42:59Z</time><speed>0.250</speed><sat>31</sat></trkpt>
  <trkpt lat="38.50333335" lon="42.28244681"><ele>1685.660</ele><time>2026-09-13T12:43:00Z</time><speed>0.640</speed><sat>31</sat></trkpt>
  <trkpt lat="38.50334040" lon="42.28243455"><ele>1684.780</ele><time>2026-09-13T12:43:01Z</time><speed>1.510</speed><sat>31</sat></trkpt>
  <trkpt lat="38.50334323" lon="42.28241312"><ele>1684.058</ele><time>2026-09-13T12:43:02Z</time><speed>1.540</speed><sat>31</sat></trkpt>
  <trkpt lat="38.50334540" lon="42.28239474"><ele>1684.350</ele><time>2026-09-13T12:43:03Z</time><speed>1.150</speed><sat>31</sat></trkpt>
  <trkpt lat="38.50334908" lon="42.28237234"><ele>1685.029</ele><time>2026-09-13T12:43:04Z</time><speed>2.030</speed><sat>31</sat></trkpt>
  <trkpt lat="38.50335609" lon="42.28234740"><ele>1684.652</ele><time>2026-09-13T12:43:05Z</time><speed>1.960</speed><sat>31</sat></trkpt>
  <trkpt lat="38.50336844" lon="42.28232594"><ele>1684.924</ele><time>2026-09-13T12:43:06Z</time><speed>2.060</speed><sat>31</sat></trkpt>
  <trkpt lat="38.50337921" lon="42.28231030"><ele>1685.013</ele><time>2026-09-13T12:43:07Z</time><speed>0.930</speed><sat>31</sat></trkpt>
  <trkpt lat="38.50338838" lon="42.28229579"><ele>1685.588</ele><time>2026-09-13T12:43:08Z</time><speed>1.740</speed><sat>32</sat></trkpt>
  <trkpt lat="38.50339749" lon="42.28227783"><ele>1685.272</ele><time>2026-09-13T12:43:09Z</time><speed>1.310</speed><sat>33</sat></trkpt>
  <trkpt lat="38.50340767" lon="42.28226238"><ele>1685.728</ele><time>2026-09-13T12:43:10Z</time><speed>1.360</speed><sat>33</sat></trkpt>
  <trkpt lat="38.50341383" lon="42.28225201"><ele>1685.932</ele><time>2026-09-13T12:43:11Z</time><speed>0.580</speed><sat>34</sat></trkpt>
  <trkpt lat="38.50341285" lon="42.28224012"><ele>1685.517</ele><time>2026-09-13T12:43:12Z</time><speed>1.110</speed><sat>34</sat></trkpt>
  <trkpt lat="38.50341090" lon="42.28223013"><ele>1685.764</ele><time>2026-09-13T12:43:13Z</time><speed>0.330</speed><sat>34</sat></trkpt>
  <trkpt lat="38.50340041" lon="42.28222292"><ele>1685.815</ele><time>2026-09-13T12:43:14Z</time><speed>1.290</speed><sat>34</sat></trkpt>
  <trkpt lat="38.50338103" lon="42.28221758"><ele>1685.341</ele><time>2026-09-13T12:43:15Z</time><speed>1.720</speed><sat>34</sat></trkpt>
  <trkpt lat="38.50336425" lon="42.28221567"><ele>1685.841</ele><time>2026-09-13T12:43:16Z</time><speed>0.920</speed><sat>34</sat></trkpt>
  <trkpt lat="38.50335086" lon="42.28221166"><ele>1686.240</ele><time>2026-09-13T12:43:17Z</time><speed>1.050</speed><sat>34</sat></trkpt>
  <trkpt lat="38.50333773" lon="42.28220387"><ele>1687.062</ele><time>2026-09-13T12:43:18Z</time><speed>1.260</speed><sat>34</sat></trkpt>
  <trkpt lat="38.50332937" lon="42.28219588"><ele>1688.763</ele><time>2026-09-13T12:43:19Z</time><speed>0.430</speed><sat>34</sat></trkpt>
  <trkpt lat="38.50331438" lon="42.28218649"><ele>1689.394</ele><time>2026-09-13T12:43:20Z</time><speed>1.990</speed><sat>34</sat></trkpt>
  <trkpt lat="38.50329512" lon="42.28217466"><ele>1689.357</ele><time>2026-09-13T12:43:21Z</time><speed>1.630</speed><sat>34</sat></trkpt>
  <trkpt lat="38.50327843" lon="42.28216661"><ele>1689.564</ele><time>2026-09-13T12:43:22Z</time><speed>1.390</speed><sat>34</sat></trkpt>
  <trkpt lat="38.50326292" lon="42.28215904"><ele>1689.988</ele><time>2026-09-13T12:43:23Z</time><speed>1.440</speed><sat>34</sat></trkpt>
  <trkpt lat="38.50324661" lon="42.28214982"><ele>1689.435</ele><time>2026-09-13T12:43:24Z</time><speed>1.520</speed><sat>34</sat></trkpt>
  <trkpt lat="38.50323062" lon="42.28214009"><ele>1689.414</ele><time>2026-09-13T12:43:25Z</time><speed>1.530</speed><sat>34</sat></trkpt>
  <trkpt lat="38.50321541" lon="42.28213021"><ele>1689.171</ele><time>2026-09-13T12:43:26Z</time><speed>1.470</speed><sat>34</sat></trkpt>
  <trkpt lat="38.50320061" lon="42.28212140"><ele>1689.344</ele><time>2026-09-13T12:43:27Z</time><speed>1.470</speed><sat>34</sat></trkpt>
  <trkpt lat="38.50318579" lon="42.28211292"><ele>1689.380</ele><time>2026-09-13T12:43:28Z</time><speed>1.510</speed><sat>34</sat></trkpt>
 </trkseg>
</trk>

</gpx>
 